,id,name,adress,lat,lon,precode,areacode,category,category_flag
0,lc_00000_0,白倉峡,浜松市天竜区龍山町大嶺1279-3,34.990775152115376,137.7807397796154,22,22137,‐,1
1,pa_00000_0,沼津御用邸記念公園,沼津市下香貫島郷2802-1,35.071364236086964,138.8730419430435,22,22203,‐,2
2,pa_00001_0,熱海城,熱海市曽我山1993,35.086430846,139.07873231000002,22,22205,‐,2
3,pa_00002_0,山中城跡公園,三島市山中新田,35.15569421465754,138.99348023164384,22,22206,‐,2
4,pa_00003_0,城ヶ崎海岸,伊東市富戸,34.89159378916667,139.13878516833333,22,22208,‐,1
5,pa_00004_0,伊豆海洋公園・四季の花公園,伊東市富戸841-1,34.884665434545454,139.13233296363634,22,22208,‐,2
6,pa_00005_0,大川海岸,東伊豆町,34.843391679444444,139.07869165166667,22,22301,‐,1
7,pa_00006_0,河津バガテル公園,河津町,34.75260430461538,138.9816348,22,22302,‐,2
8,pa_00007_0,峰大噴湯公園,河津町,34.75719785166667,138.98227369,22,22302,‐,4
9,pa_00008_0,姫の沢公園,熱海市伊豆山字姫の沢1164,35.117209504,139.050307342,22,22205,‐,4
10,pa_00009_0,三島市立公園楽寿園,三島市,35.12357052678571,138.9116747675,22,22206,‐,2
11,pa_00010_0,伊豆シャボテン公園,伊東市富戸1317-13,34.907437208823524,139.10012716235292,22,22208,‐,2
12,pa_00011_0,伊豆ぐらんぱる公園,伊東市富戸1090,34.90524051727273,139.12253917636363,22,22208,‐,4
13,pa_00012_0,池尻海岸,東伊豆町,34.76679466714286,139.03632236228574,22,22301,‐,1
14,pa_00013_0,黄金崎公園,西伊豆町,34.842822672,138.76247876399998,22,22306,‐,1
15,pa_00014_0,柿田川公園,清水町,35.106576903714284,138.90067790628572,22,22341,‐,1
16,pa_00015_0,富士山本宮浅間大社,富士宮市,35.228607775,138.60988142624998,22,22207,‐,2
17,pa_00016_0,丸火自然公園,富士市大淵10847,35.232049982666666,138.723829372,22,22210,‐,4
18,pa_00017_0,岩本山公園,富士市岩本1605,35.17759527588235,138.6256714823529,22,22210,‐,4
19,pa_00018_0,竹採公園,富士市比奈2085-4,35.170314989999994,138.71677212823528,22,22210,‐,4
20,pa_00019_0,秩父宮記念公園,御殿場市,35.28856970411765,138.9509317852941,22,22215,‐,2
21,pa_00020_0,野田山健康緑地公園,富士市中之郷,35.14813177294118,138.59760612235297,22,22210,‐,1
22,pa_00021_0,御胎内清宏園,御殿場市,35.298200976000004,138.862742962,22,22215,‐,4
23,pa_00022_0,平和公園（御殿場市）,御殿場市,35.286655681,138.952308814,22,22215,‐,4
24,pa_00023_0,裾野市中央公園,裾野市千福7-1,35.18387237421052,138.90419881263156,22,22220,‐,4
25,pa_00024_0,久能山東照宮,静岡市駿河区根古屋390,34.9648303932,138.4675578524,22,22102,‐,2
26,pa_00025_0,吐月峰柴屋寺,静岡市駿河区丸子3316,34.955883561176464,138.3330283382353,22,22102,‐,2
27,pa_00026_0,静岡県舞台芸術公園,静岡市駿河区平沢100-1,34.98045024602409,138.44826774518071,22,22102,‐,1
28,pa_00027_0,船越堤公園,静岡市清水区船越,34.9980976509836,138.4669940632787,22,22103,‐,4
29,pa_00028_0,鉄舟寺,静岡市清水区村松2188,34.99276225362069,138.4829301748276,22,22103,‐,2
30,pa_00029_0,竜華寺,静岡市清水区村松2085,34.99048070923077,138.48450002153848,22,22103,‐,2
31,pa_00030_0,大井神社宮美殿,島田市大井町2316,34.83308417,138.17139618800002,22,22209,‐,1
32,pa_00031_0,焼津神社,焼津市焼津2-7-2,34.865039916956526,138.31363649478263,22,22212,‐,2
33,pa_00032_0,県営吉田公園,吉田町,34.764460628888884,138.28495787999998,22,22424,‐,4
34,pa_00033_0,府八幡宮,磐田市中泉112-1,34.71991625352941,137.8534551164706,22,22211,‐,2
35,pa_00034_0,見付天神社（矢奈比売神社）,磐田市見付1114-2,34.729904134761895,137.86406303619046,22,22211,‐,2
36,pa_00035_0,磐田市営つつじ公園,磐田市見付1010?2,34.73190244238096,137.8642475128571,22,22211,‐,4
37,pa_00036_0,竜洋昆虫自然観察公園,磐田市大中瀬320-1,34.669545343,137.83919567599997,22,22211,‐,2
38,pa_00037_0,竜洋海洋公園,磐田市駒場6866-27,34.65160446413793,137.80449680793106,22,22211,‐,4
39,pa_00038_0,竜洋スポーツ公園,磐田市南平松8,34.65792660111111,137.82244101777778,22,22211,‐,4
40,pa_00039_0,獅子ヶ鼻公園,磐田市岩室199-1,34.846330038000005,137.87603103333333,22,22211,‐,4
41,pa_00040_0,医王寺,磐田市鎌田2065-1,34.715794468,137.88426450999998,22,22211,‐,2
42,pa_00041_0,福王寺,磐田市城之崎4-2722-1,34.72093597125,137.86297804437498,22,22211,‐,2
43,pa_00042_0,法雲寺,磐田市向笠西374,34.75735823342857,137.87887025571428,22,22211,‐,2
44,pa_00043_0,掛川城,掛川市,34.775492137499995,138.0149790425,22,22213,‐,2
45,pa_00044_0,高天神城跡,掛川市,34.69834013,138.03499941,22,22213,‐,2
46,pa_00045_0,横須賀城跡,掛川市,34.685304056,137.97079581400004,22,22213,‐,2
47,pa_00046_0,秋葉総本殿可睡斎,袋井市久能2915-1,34.77498977546392,137.91994589845362,22,22216,‐,2
48,pa_00047_0,法多山尊永寺,袋井市豊沢2777,34.737738124137934,137.9772338437931,22,22216,‐,2
49,pa_00048_0,医王山油山寺,袋井市村松1,34.785561976060606,137.93602822848484,22,22216,‐,2
50,pa_00049_0,御前崎海岸,御前崎市,34.600987463658534,138.2157593087805,22,22223,‐,1
51,pa_00050_0,応声教院,菊川市,34.73740034767441,138.0706107460465,22,22224,‐,2
52,pa_00051_0,極楽寺,森町,34.82181975095237,137.87910844809525,22,22461,‐,2
53,pa_00052_0,小國神社,森町,34.847255969180324,137.8993577681967,22,22461,‐,2
54,pa_00053_0,大洞院,森町,34.85566317285715,137.91554591285714,22,22461,‐,2
55,pa_00054_0,蓮華寺,森町,34.83962230230769,137.92530696692307,22,22461,‐,2
56,pa_00055_0,香勝寺,森町,34.82764650657142,137.91322833342855,22,22461,‐,2
57,pa_00056_0,浜松城,浜松市中区元城町100-2,34.71229422606061,137.72473792515152,22,22131,‐,2
58,pa_00057_0,井伊谷宮,浜松市北区引佐町井伊谷1991-1,34.82920054448276,137.66792383344827,22,22135,‐,2
59,pa_00058_0,方広寺・奥山半僧坊,浜松市北区引佐町奥山1577-1,34.84872041376069,137.61537195666665,22,22135,‐,2
60,pa_00059_0,龍潭寺,浜松市北区引佐町井伊谷1989,34.82866137627451,137.66814745411764,22,22135,‐,2
61,pa_00060_0,カナメ神宮,浜松市北区引佐町奥山1737-341,34.847059983076925,137.60967571153847,22,22135,‐,2
62,pa_00061_0,長楽寺,浜松市北区細江町気賀7953-1,34.812986865384616,137.63933833538462,22,22135,‐,2
63,pa_00062_0,摩訶耶寺,浜松市北区三ヶ日町摩訶耶421,34.817616719090914,137.55685689909092,22,22135,‐,2
64,pa_00063_0,実相寺,浜松市北区引佐町金指1371,34.82198858793103,137.67873535551726,22,22135,‐,2
65,pa_00064_0,金指農村公園,浜松市北区引佐町金指1371,34.821448849999996,137.67914535000003,22,22135,‐,2
66,pa_00065_0,静岡県立森林公園,浜松市浜北区尾野2597-7,34.847271318518516,137.78073737703704,22,22136,‐,4
67,pa_00066_0,浜北区万葉の森公園,浜松市浜北区平口5051-1,34.8017587435,137.76048342349998,22,22136,‐,4
68,pa_00067_0,秋葉神社,浜松市天竜区春野町領家841,34.98129259,137.86608340275862,22,22137,‐,2
69,pa_00068_0,春野ふれあい公園,浜松市天竜区春野町領家145-1,34.957735688,137.8872968575,22,22137,‐,4
70,pa_00069_0,山住神社（通年）,浜松市天竜区水窪町山住230,35.13464760111112,137.91394696,22,22137,‐,2
71,pa_00070_0,足神神社,浜松市天竜区水窪町奥領家,35.24284178399999,137.905177444,22,22137,‐,2
72,pa_00071_0,秋葉寺,浜松市天竜区春野町領家848,34.95401918142857,137.88146003714286,22,22137,‐,2
73,pa_00072_0,五社神社,浜松市中区利町302-5,34.70637248125,137.72490029875001,22,22131,‐,2
74,pa_00073_0,初山宝林寺,浜松市北区細江町中川65-2,34.817021234,137.691764988,22,22135,‐,2
75,pa_00074_0,大福寺,浜松市北区三ヶ日町福長220-3,34.829305607777776,137.54983952296294,22,22135,‐,2
76,pa_00075_0,本興寺,湖西市,34.71786465266667,137.53805927399998,22,22221,‐,2
77,pa_00076_0,三嶋大社宝物館,三島市,35.12141416789474,138.91964444210527,22,22206,‐,2
78,pa_00077_0,修禅寺・宝物殿,伊豆市修善寺964,34.97158313428571,138.92758540999998,22,22222,‐,2
79,pa_00078_0,土肥達磨寺,伊豆市小下田463-1,34.86988324947369,138.7616444568421,22,22222,‐,2
80,pa_00079_0,童子沢親水公園,島田市大代,34.86064446431372,138.0914895317647,22,22209,‐,4
81,pa_00080_0,あらさわふる里公園,御前崎市,34.679146565625004,138.1425769496875,22,22223,‐,4
82,n00000,赤石岳,静岡市葵区,35.35883483,138.20675971,22,22101,山岳,-1
83,n00001,大井川鐵道のＳＬ列車,静岡市葵区,35.14015504,138.37886881,22,22101,郷土景観,-1
84,n00002,南アルプス,静岡市葵区,35.504704,138.22361,22,22101,‐,1
85,n00003,駿府城東御門,静岡市葵区駿府公園,34.97777778,138.38472222,22,22101,‐,2
86,n00004,静岡浅間神社（一般参拝）,静岡市葵区宮ケ崎102-1,34.983631,138.375346,22,22101,‐,2
87,n00005,紅葉山庭園,静岡市葵区駿府公園1-1,34.97944444,138.38472222,22,22101,‐,2
88,n00006,井川湖渡船,静岡市葵区,35.21138889,138.22388889,22,22101,‐,1
89,n00007,静岡浅間神社（本殿参拝）,静岡市葵区宮ケ崎102-1,34.983631,138.375346,22,22101,‐,2
90,n00008,井川観光会館,静岡市葵区井川964,35.22416667,138.24305556,22,22101,‐,2
91,n00009,駿府博物館,静岡市葵区紺屋町15-4,34.97111111,138.385,22,22101,‐,2
92,n00010,静岡市民ギャラリー,静岡市葵区追手町5-1,34.97518726,138.38328947,22,22101,‐,2
93,n00011,静岡市文化財資料館,静岡市葵区宮ヶ崎町102,34.98257729,138.37623544,22,22101,‐,2
94,n00012,リバウェル井川スキー場,静岡市葵区井川2629-190,35.217403,138.278659,22,22101,‐,4
95,n00013,中勘助文学記念館,静岡市葵区新間1089-120,34.98515928,138.31752083,22,22101,‐,2
96,n00014,旧エンバーソン邸,静岡市葵区西草深町15-1,34.9825,138.37916667,22,22101,‐,2
97,n00015,梅ケ島コンヤの里テニス場,静岡市葵区梅ヶ島4198-2,35.265206,138.330406,22,22101,‐,4
98,n00016,井川オートキャンプ場,静岡市葵区田代449-2,35.25694444,138.23444444,22,22101,‐,4
99,n00017,玉川キャンプセンター,静岡市葵区妻田,35.16305556,138.32666667,22,22101,‐,4
100,n00018,ふれあい健康増進館「ゆらら」,静岡市葵区南沼上1379-1,35.02555556,138.41194445,22,22101,‐,4
101,n00019,県民の森,静岡市葵区井川656-2,35.240748,138.282587,22,22101,‐,4
102,n00020,梅ケ島キャンプ場,静岡市葵区梅ヶ島3198,35.25722222,138.32555556,22,22101,‐,4
103,n00021,田町安倍中スポーツ広場,静岡市葵区（安倍川河川敷）,34.96444444,138.36555556,22,22101,‐,4
104,n00022,狩野橋スポーツ広場,静岡市葵区（安倍川河川敷）,35.00638889,138.36166667,22,22101,‐,4
105,n00023,山崎新田スポーツ広場,静岡市葵区（安倍川河川敷）,34.97972222,138.35555556,22,22101,‐,4
106,n00024,堤町スポーツ広場,静岡市葵区（安倍川河川敷）,35.00083333,138.36,22,22101,‐,4
107,n00025,伝馬町新田スポーツ広場,静岡市葵区（安倍川河川敷）,34.98944444,138.36027778,22,22101,‐,4
108,n00026,田町緑地スポーツ広場,静岡市葵区（安倍川河川敷）,34.97055556,138.36222222,22,22101,‐,4
109,n00027,西ヶ谷総合運動場,静岡市葵区西ヶ谷8-1,35.01333333,138.35333333,22,22101,‐,4
110,n00028,城北運動場,静岡市葵区大岩町1-20,34.99222222,138.37833333,22,22101,‐,4
111,n00029,口坂本温泉浴場,静岡市葵区口坂本652,35.18176787,138.2737877,22,22101,‐,3
112,n00030,赤石温泉白樺荘,静岡市葵区田代1110-5,35.307012,138.19649,22,22101,‐,3
113,n00031,湯ノ島温泉浴場,静岡市葵区湯ノ島304-3,35.1075,138.2275,22,22101,‐,3
114,n00032,梅ケ島新田温泉黄金の湯,静岡市葵区梅ヶ島5342-3,35.285349,138.340016,22,22101,‐,3
115,n00033,柳町スポーツ広場,静岡市葵区（安倍川河川敷）,34.97666667,138.36083333,22,22101,‐,4
116,n00034,静岡まつり,静岡市葵区,34.983631,138.375346,22,22101,‐,1
117,n00035,廿日会祭,静岡市葵区,34.983631,138.375346,22,22101,‐,1
118,n00036,安倍川花火大会,静岡市葵区,34.962432,138.367617,22,22101,‐,1
119,n00037,静岡音楽館ＡＯＩ　講堂（コンベンション）,静岡市葵区黒金町1-9,34.97111111,138.38638889,22,22101,‐,1
120,n00038,静岡市民文化会館（コンベンション）,静岡市葵区駿府町2-90,34.98083333,138.38666667,22,22101,‐,1
121,n00039,静岡音楽館ＡＯＩ　ホール（音楽・演劇鑑賞）,静岡市葵区黒金町1-9,34.97111111,138.38638889,22,22101,‐,1
122,n00040,静岡市民文化会館（音楽・演劇鑑賞）,静岡市葵区駿府町2-90,34.98084,138.386811,22,22101,‐,1
123,n00041,大道芸ワールドカップ,静岡市葵区,34.97556539,138.38276114,22,22101,‐,1
124,n00042,静岡おだっくい祭り,静岡市葵区,34.97556539,138.38276114,22,22101,‐,1
125,n00043,井川少年自然の家,静岡市葵区井川3055-1,35.201973,138.255887,22,22101,‐,4
126,n00044,静岡市中央体育館（プール含む）,静岡市葵区駿府町2-80,34.98168191,138.38499912,22,22101,‐,4
127,n00045,静岡市北部体育館,静岡市葵区松富4-14-1,35.01833333,138.37305556,22,22101,‐,4
128,n00046,静岡市東部体育館,静岡市葵区東千代田2-3-1,35.00111111,138.40861111,22,22101,‐,4
129,n00047,シズオカ・サンバカーニバル,静岡市葵区,34.970452,138.385376,22,22101,‐,1
130,n00048,しぞーかおでんフェア,静岡市葵区,34.97556539,138.38276114,22,22101,‐,1
131,n00049,浅畑スポーツ広場,静岡市葵区諏訪地先浅畑緑地内,35.02194444,138.40555556,22,22101,‐,4
132,n00050,日影沢親水園（魚魚の里）,静岡市葵区梅ヶ島5036-2,35.283815,138.34394,22,22101,‐,4
133,n00051,シズオカ　シネマ　パーク　フェスティバル,静岡市葵区,34.97556539,138.38276114,22,22101,‐,1
134,n00052,静岡市美術館,静岡市葵区紺屋町17-1,34.972585,138.38649,22,22101,‐,2
135,n00053,木下大サーカス,静岡市葵区,34.97556539,138.38276114,22,22101,‐,1
136,n00054,国民文化祭,静岡市葵区,34.97556539,138.38276114,22,22101,‐,1
137,n00055,静岡ホビーフェア,静岡市葵区,34.986748,138.414127,22,22101,‐,1
138,n00056,静岡県高等学校応援団フェスティバル,静岡市葵区駿府町,34.98083333,138.38666667,22,22101,‐,1
139,n00057,Ｓｈｉｚｕｏｋａ×Ｃａｎｎｅ　Ｗｅｅｋ,静岡市葵区駿府町,34.97556539,138.38276114,22,22101,‐,1
140,n00058,松富スポーツ広場,静岡市葵区松富上組字水神46-11地先,35.019194,138.373406,22,22101,‐,4
141,n00059,全国お茶まつり,静岡市,34.97556539,138.38276114,22,22101,‐,1
142,n00060,グルメ王国フェスト,静岡市葵区,34.97514,138.383243,22,22101,‐,1
143,n00061,久能山東照宮,静岡市駿河区根古屋390,34.96485193,138.4676324,22,22102,‐,2
144,n00062,登呂博物館,静岡市駿河区,34.95525196,138.40880134,22,22102,‐,2
145,n00063,久能山東照宮博物館,静岡市駿河区根古屋390,34.96361111,138.46694444,22,22102,‐,2
146,n00064,芹沢銈介美術館,静岡市駿河区登呂5-10-5,34.95506378,138.40822874,22,22102,‐,2
147,n00065,静岡県立美術館,静岡市駿河区谷田53-2,34.99228,138.44596,22,22102,‐,2
148,n00066,日本平動物園,静岡市駿河区池田1767-6,34.98039673,138.43776278,22,22102,‐,2
149,n00067,吐月峰柴屋寺,静岡市駿河区丸子3316,34.95587567,138.33303069,22,22102,‐,2
150,n00068,御羽織屋,静岡市駿河区宇津ノ谷171,34.93583333,138.30416667,22,22102,‐,2
151,n00069,駿府匠宿,静岡市駿河区丸子3240-1,34.953467,138.33301,22,22102,‐,2
152,n00070,中島テニスコート,静岡市駿河区中島2589-5,34.93222222,138.39888889,22,22102,‐,4
153,n00071,旧マッケンジー邸,静岡市駿河区高松2852,34.94560966,138.4194318,22,22102,‐,2
154,n00072,久能山下地区いちご狩り,静岡市駿河区,34.95666667,138.45722222,22,22102,‐,2
155,n00073,有度山総合公園運動施設,静岡市駿河区小鹿,34.972971,138.440279,22,22102,‐,4
156,n00074,丸子宿とろろ汁,静岡市駿河区丸子,34.95027778,138.33805556,22,22102,‐,5
157,n00075,登呂まつり,静岡市駿河区,34.956365,138.407991,22,22102,‐,1
158,n00076,グランシップ（博覧会）,静岡市駿河区池田79-4,34.98555556,138.41722222,22,22102,‐,1
159,n00077,グランシップ（コンベンション）,静岡市駿河区池田79-4,34.98555556,138.41722222,22,22102,‐,1
160,n00078,ツインメッセ（コンベンション）,静岡市駿河区曲金3-1-10,34.97138889,138.40583333,22,22102,‐,1
161,n00079,グランシップ（スポーツ観戦）,静岡市駿河区池田79-4,34.98555556,138.41722222,22,22102,‐,1
162,n00080,用宗海岸海水浴,静岡市駿河区,34.91868684,138.36375044,22,22102,‐,4
163,n00081,県営草薙総合運動場,静岡市駿河区栗原19-1,34.98944444,138.42972222,22,22102,‐,4
164,n00082,グランシップ（音楽・演劇鑑賞）,静岡市駿河区池田79-4,34.98555556,138.41722222,22,22102,‐,1
165,n00083,静岡県舞台芸術公園,静岡市駿河区平沢100-1,34.98138889,138.44888889,22,22102,‐,1
166,n00084,グランシップ（イベント）,静岡市駿河区池田79-4,34.98555556,138.41722222,22,22102,‐,1
167,n00085,ツインメッセ（イベント）,静岡市駿河区曲金3-1-10,34.97138889,138.40583333,22,22102,‐,1
168,n00086,産業フェアしずおか,静岡市駿河区,34.971337,138.406461,22,22102,‐,1
169,n00087,静岡科学館る・く・る,静岡市駿河区南町14-25,34.97060529,138.39041622,22,22102,‐,2
170,n00088,すんぷ夢ひろば,静岡市駿河区古宿294,34.9575,138.4525,22,22102,‐,3
171,n00089,静岡市南部体育館,静岡市駿河区曲金3-1-30,34.9725,138.40472222,22,22102,‐,4
172,n00090,静岡市長田体育館,静岡市駿河区鎌田574-1,34.93857931,138.36342877,22,22102,‐,4
173,n00091,広野海岸公園,静岡市駿河区,34.92494132,138.3785802,22,22102,‐,4
174,n00092,用宗漁港まつり,静岡市駿河区,34.924814,138.36771,22,22102,‐,1
175,n00093,ツインメッセ（音楽・演劇鑑賞）,静岡市駿河区曲金3-1-10,34.971337,138.406461,22,22102,‐,1
176,n00094,東新田スポーツ広場,静岡市駿河区（安倍川河川敷）,34.94638889,138.37722222,22,22102,‐,4
177,n00095,ツインメッセ（スポーツ観戦）,静岡市駿河区曲金3-1-10,34.971337,138.406461,22,22102,‐,1
178,n00096,丸子梅園,静岡市駿河区北丸子2-39-15,34.951178,138.339303,22,22102,‐,2
179,n00097,静峰園　椿の里,静岡市駿河区池田2113-4,34.984509,138.438543,22,22102,‐,2
180,n00098,静岡ホビースクエア,静岡市駿河区南町18-1,34.971338,138.391181,22,22102,‐,2
181,n00099,丸子宿場まつり・冬の陣,静岡市駿河区,34.948342,138.347057,22,22102,‐,1
182,n00100,清水アートクラフトフェア,静岡市駿河区栗原18-65,34.99017,138.426005,22,22102,‐,1
183,n00101,中島人工芝多目的スポーツグラウンド,静岡市駿河区中島1711-1,34.93384,138.398039,22,22102,‐,4
184,n00102,エスパルスドリームフェリー（オーシャンプリンセス・ベイプロムナード）,静岡市清水区,35.009001,138.496953,22,22103,‐,1
185,n00103,日本平ロープウェイ,静岡市清水区草薙597-8,34.97368773,138.46426122,22,22103,‐,1
186,n00104,日本平,静岡市清水区,34.9737473,138.46570352,22,22103,‐,1
187,n00105,三保の松原,静岡市清水区三保,34.99388889,138.52305556,22,22103,‐,1
188,n00106,フェルケール博物館,静岡市清水区港町2-8-11,35.0075578,138.49327554,22,22103,‐,2
189,n00107,東海大学社会教育センター海洋科学博物館,静岡市清水区三保2389,35.01904615,138.51821282,22,22103,‐,2
190,n00108,東海大学社会教育センター自然史博物館,静岡市清水区三保2389,35.01860211,138.51883753,22,22103,‐,2
191,n00109,次郎長生家,静岡市清水区美濃輪町4-16,35.0057155,138.49072573,22,22103,‐,2
192,n00110,清水港船宿記念館「末広」,静岡市清水区港町1-2-14,35.00805556,138.49111111,22,22103,‐,2
193,n00111,鈴木農園,静岡市清水区草ケ谷112,35.05,138.48638889,22,22103,‐,2
194,n00112,まる増いちご狩り組合,静岡市清水区,34.970102,138.489184,22,22103,‐,2
195,n00113,清水桜ヶ丘テニスコート,静岡市清水区桜が丘町300,35.01126468,138.47545151,22,22103,‐,4
196,n00114,清水横砂テニスコート,静岡市清水区横砂408-15,35.03847682,138.50214506,22,22103,‐,4
197,n00115,清水月見公園テニスコート,静岡市清水区月見町155,35.00294109,138.48017272,22,22103,‐,4
198,n00116,由比テニスコート,静岡市清水区由比（由比川河川敷）,35.10889448,138.56390884,22,22103,‐,4
199,n00117,日本平運動公園庭球場,静岡市清水区村松3880-1,34.98516621,138.48306864,22,22103,‐,4
200,n00118,清水総合運動場水泳場,静岡市清水区清開2-1-1,34.99520923,138.49324957,22,22103,‐,4
201,n00119,静岡手もみ茶保存会館,静岡市清水区村松4046-1,34.97694444,138.46722222,22,22103,‐,2
202,n00120,萩原農園,静岡市清水区,34.9692164,138.48787321,22,22103,‐,2
203,n00121,黒川キャンプ場,静岡市清水区西里1304,35.11895479,138.42823889,22,22103,‐,4
204,n00122,三保真崎海水浴場,静岡市清水区,35.01794396,138.51773699,22,22103,‐,4
205,n00123,清水ナショナルトレーニングセンター,静岡市清水区山切1487-1,35.05496014,138.48108112,22,22103,‐,4
206,n00124,清水草薙スポーツ広場,静岡市清水区草薙350-1,34.99333333,138.45194445,22,22103,‐,4
207,n00125,清水宍原スポーツ広場,静岡市清水区宍原185-1,35.14888889,138.52194444,22,22103,‐,4
208,n00126,清水三保貝島スポーツ広場,静岡市清水区三保4025-24,35.00950224,138.51254977,22,22103,‐,4
209,n00127,清水桜が丘公園スポーツ広場,静岡市清水区桜が丘町300,35.01055556,138.47583333,22,22103,‐,4
210,n00128,富士川スポーツ広場,静岡市清水区（富士川河川敷）,35.131198,138.627981,22,22103,‐,4
211,n00129,由比川河川敷スポーツ広場,静岡市清水区由比（由比川河川敷）,35.10833333,138.56388889,22,22103,‐,4
212,n00130,三保真崎広場,静岡市清水区三保2399,35.02,138.51666667,22,22103,‐,4
213,n00131,清水庵原球場,静岡市清水区庵原町3000,35.05583333,138.47111111,22,22103,‐,4
214,n00132,清水長崎新田スポーツ交流センター,静岡市清水区長崎新田207,35.01651927,138.44945028,22,22103,‐,4
215,n00133,清見潟公園スポーツセンター,静岡市清水区横砂408-38,35.03777778,138.50055555,22,22103,‐,4
216,n00134,清水総合運動場,静岡市清水区清開2-1-1,34.99722222,138.4925,22,22103,‐,4
217,n00135,日本平運動公園球技場,静岡市清水区村松3880-1,34.98472222,138.48138889,22,22103,‐,4
218,n00136,三保内浜海水浴場,静岡市清水区,35.02,138.5225,22,22103,‐,4
219,n00137,やませみの湯,静岡市清水区西里1449,35.12207479,138.43295206,22,22103,‐,3
220,n00138,エスパルスドリームプラザ,静岡市清水区入船町13-15,35.010587,138.492941,22,22103,‐,5
221,n00139,河岸の市,静岡市清水区島崎町149,35.02027778,138.49055556,22,22103,‐,5
222,n00140,巴川とうろう流し,静岡市清水区,35.014188,138.489067,22,22103,‐,1
223,n00141,清水七夕まつり,静岡市清水区,35.014188,138.489067,22,22103,‐,1
224,n00142,秋葉山大祭,静岡市清水区西久保1-1-14,35.032648,138.481325,22,22103,‐,1
225,n00143,船越堤公園,静岡市清水区船越,34.9975,138.4675,22,22103,‐,4
226,n00144,日本平運動公園球技場（プロサッカー観戦）,静岡市清水区村松3880-1,34.98472222,138.48138889,22,22103,‐,1
227,n00145,静岡市清水文化センター,静岡市清水区桜が丘町7-1,35.01135575,138.47877329,22,22103,‐,1
228,n00146,清水マリンパーク（フリーまっけっと）,静岡市清水区,35.00944444,138.49388889,22,22103,‐,1
229,n00147,清水カップ全国少年草サッカー大会,静岡市清水区,34.996217,138.492283,22,22103,‐,1
230,n00148,清水マリンパーク（各種イベント）,静岡市清水区,35.00944444,138.49388889,22,22103,‐,1
231,n00149,清水みなと祭り,静岡市清水区,35.015741,138.489587,22,22103,‐,1
232,n00150,清水農業まつり,静岡市清水区,35.042933,138.484898,22,22103,‐,1
233,n00151,清水港カウントダウン,静岡市清水区,35.01125,138.49322,22,22103,‐,1
234,n00152,興津坐漁荘,静岡市清水区興津清見寺町115,35.04638889,138.51111111,22,22103,‐,2
235,n00153,羽衣まつり・薪能,静岡市清水区,34.99388889,138.52305556,22,22103,‐,1
236,n00154,日本平まつり,静岡市清水区,34.981253,138.465234,22,22103,‐,1
237,n00155,駿河健康ランド（日帰り客）,静岡市清水区興津東町1234,35.05694444,138.53305556,22,22103,‐,3
238,n00156,御殿山桜まつり,静岡市清水区,35.099335,138.505391,22,22103,‐,1
239,n00157,静岡市埋蔵文化センター,静岡市清水区横砂東町33-2,35.0470634,138.50513643,22,22103,‐,2
240,n00158,水口屋ギャラリー,静岡市清水区興津本町36,35.04861111,138.51777778,22,22103,‐,2
241,n00159,蒲原宿場まつり＆産業フェア,静岡市清水区,35.119943,138.605331,22,22103,‐,1
242,n00160,かんばらまつり,静岡市清水区,35.116721,138.594854,22,22103,‐,1
243,n00161,ビーチフェスタｉｎかんばら,静岡市清水区,35.115469,138.616666,22,22103,‐,1
244,n00162,蒲原ニューイヤーウォーキング,静岡市清水区,35.116445,138.595512,22,22103,‐,1
245,n00163,東海道広重美術館,静岡市清水区由比297-1,35.107736,138.567463,22,22103,‐,2
246,n00164,旧五十嵐邸,静岡市清水区蒲原3-23-3,35.119846,138.603251,22,22103,‐,2
247,n00165,志田邸,静岡市清水区蒲原3-19-28,35.1195,138.602971,22,22103,‐,2
248,n00166,由比街道まつり,静岡市清水区,35.107641,138.567168,22,22103,‐,1
249,n00167,由比桜えびまつり,静岡市清水区,35.09811425,138.55513824,22,22103,‐,1
250,n00168,静岡市清水三保体育館,静岡市清水区三保2069-26,35.01,138.52722222,22,22103,‐,4
251,n00169,静岡市蒲原体育館（プール含む）,静岡市清水区新田1-21-1,35.11611111,138.59583333,22,22103,‐,4
252,n00170,由比体育館,静岡市清水区由比456-151,35.11083535,138.56246215,22,22103,‐,4
253,n00171,由比本陣公園（東海道広重美術館除く）,静岡市清水区由比297-1,35.107736,138.567463,22,22103,‐,4
254,n00172,お休み処（旅籠）,静岡市清水区蒲原3-25-3,35.120257,138.605684,22,22103,‐,2
255,n00173,清水マグロまつり,静岡市清水区,35.012858,138.492533,22,22103,‐,1
256,n00174,東海道名主の館 小池邸,静岡市清水区由比寺尾464-9,35.091656,138.54854,22,22103,‐,2
257,n00175,浜石野外センター,静岡市清水区由比阿僧934-6,35.11968,138.538009,22,22103,‐,4
258,n00176,鉄舟寺,静岡市清水区村松2188,34.992722,138.483063,22,22103,‐,2
259,n00177,竜華寺,静岡市清水区村松2085,34.990527,138.484505,22,22103,‐,2
260,n00178,（有）ふじや釣舟店,静岡市清水区本町5-1,35.007676,138.490112,22,22103,‐,4
261,n00179,原金つり船,静岡市清水区松井町3-3,35.003933,138.4917,22,22103,‐,4
262,n00180,山本釣舟店,静岡市清水区清水町2-3,35.006897,138.490525,22,22103,‐,4
263,n00181,朝市,静岡市清水区,35.010587,138.492941,22,22103,‐,5
264,n00182,ポップサーカス,静岡市清水区,35.015748,138.489584,22,22103,‐,1
265,n00183,興津宿寒桜まつり,静岡市清水区興津中町485-6,35.05456,138.522423,22,22103,‐,1
266,n00184,浜のかきあげや,静岡市清水区由比,35.101844,138.556804,22,22103,‐,2
267,n00185,清水和田島少年自然の家,静岡市清水区和田島271-3,35.108569,138.477672,22,22103,‐,4
268,n00186,清水マリーンフェスティバル,静岡市清水区,35.009001,138.496953,22,22103,‐,1
269,n00187,清水大平青少年の家,静岡市清水区大平469,35.156339,138.428088,22,22103,‐,4
270,n00188,清水文化会館マリナート,静岡市清水区島崎町214,35.022009,138.489644,22,22103,‐,6
271,n00189,こどもクリエイティブタウンま・あ・る,静岡市清水区辻1-2-1,35.023929,138.487536,22,22103,‐,2
272,n00190,清水魚市場,静岡市清水区島崎町149,35.019987,138.490636,22,22103,‐,5
273,n00191,蛇塚スポーツグラウンド,静岡市清水区蛇塚30-5,34.965356,138.474962,22,22103,‐,4
274,n00192,清水駅東口クライミング場,静岡市清水区島崎町149-66,35.020947,138.489839,22,22103,‐,4
275,n00193,富士川緑地公園スポーツ広場,静岡市清水区（富士川河川敷）,35.131198,138.627981,22,22103,‐,4
276,n00194,蒲原西部コミュニティセンター,静岡市清水区蒲原堰沢455-1,35.115097,138.581394,22,22103,‐,4
277,n00195,蒲原東部コミュニティセンター,静岡市清水区蒲原4980-10,35.129712,138.62364,22,22103,‐,4
278,n00196,由比プール,静岡市清水区由比421-19,35.108892,138.56211,22,22103,‐,4
279,n00197,日本平ＧＣ,静岡市清水区草薙428,34.97666667,138.46333333,22,22103,‐,4
280,n00198,由比寺尾プール,静岡市清水区由比寺尾778-12,35.094285,138.550294,22,22103,‐,4
281,n00199,富士見が丘ＣＣ,静岡市清水区,35.16435494,138.52182565,22,22103,‐,4
282,n00200,由比入山プール,静岡市清水区由比入山2168-1,35.128436,138.556897,22,22103,‐,4
283,n00201,富嶽ＣＣ,静岡市清水区宍原1783-1,35.16815,138.528023,22,22103,‐,4
284,n00202,富嶽ＣＣ,静岡市清水区,35.168335,138.527919,22,22103,‐,4
285,n00203,浜松のうなぎ料理,浜松市中区,34.711187,137.72652,22,22131,食,-1
286,n00204,浜松城,浜松市中区元城町100-2,34.71166667,137.72472222,22,22131,‐,2
287,n00205,茶室松韻亭,浜松市中区鹿谷町11-4,34.71511763,137.72372874,22,22131,‐,2
288,n00206,浜松科学館,浜松市中区北寺島町256-3,34.705,137.73972222,22,22131,‐,2
289,n00207,浜松市楽器博物館,浜松市中区中央3-9-1,34.70666667,137.73861111,22,22131,‐,2
290,n00208,浜松市博物館,浜松市中区蜆塚4-22-1,34.71255969,137.70361285,22,22131,‐,2
291,n00209,浜松文芸館,浜松市中区鹿谷町11-4,34.71494843,137.72310018,22,22131,‐,2
292,n00210,浜松市美術館,浜松市中区松城町100-1,34.71180052,137.72376351,22,22131,‐,2
293,n00211,アクトタワー展望回廊,浜松市中区板屋町111-2,34.70560792,137.73721237,22,22131,‐,2
294,n00212,浜松市北部水泳場,浜松市中区高丘西4-7-1,34.76096682,137.69306815,22,22131,‐,4
295,n00213,浜松まつり,浜松市中区,34.710865,137.726117,22,22131,‐,1
296,n00214,浜松城お城桜まつり,浜松市中区,34.712435,137.724755,22,22131,‐,1
297,n00215,はままつメッセ,浜松市中区,34.70594745,137.73873314,22,22131,‐,1
298,n00216,アクトシティ（音楽・演劇観賞）,浜松市中区板屋町、中央3,34.70560792,137.73721237,22,22131,‐,1
299,n00217,アクトシティ（コンベンション）,浜松市中区板屋町、中央3,34.70560792,137.73721237,22,22131,‐,1
300,n00218,浜松市教育文化会館（音楽・演劇観賞）,浜松市中区,34.70583333,137.725,22,22131,‐,1
301,n00219,浜松市犀ヶ崖資料館,浜松市中区鹿谷町25-10,34.71945719,137.71873048,22,22131,‐,2
302,n00220,アクトシティ（スポーツ）,浜松市中区板屋町、中央3,34.70560792,137.73721237,22,22131,‐,1
303,n00221,日帰り入浴（浜松市中心地区）,浜松市中区,34.710865,137.726117,22,22131,‐,3
304,n00222,浜松七夕ゆかたまつり,浜松市中区,34.699011,137.717499,22,22131,‐,1
305,n00223,浜松市教育文化会館（コンベンション）,浜松市中区,34.70583333,137.725,22,22131,‐,1
306,n00224,浜松復興記念館,浜松市中区利町304-2,34.70604505,137.72624671,22,22131,‐,2
307,n00225,ＪＲなるほど発見デー,浜松市中区南伊場1-1,34.696893,137.712872,22,22131,‐,1
308,n00226,浜松出世城まつり,浜松市中区元城町,34.713271,137.724429,22,22131,‐,1
309,n00227,家康楽市,浜松市中区元城町,34.713271,137.724429,22,22131,‐,1
310,n00228,木下恵介記念館,浜松市中区栄町3-1,34.704659,137.724757,22,22131,‐,2
311,n00229,航空自衛隊浜松広報館エアーパーク,浜松市西区西山町無番地,34.747675,137.712148,22,22131,‐,2
312,n00230,はままつ冬フェス,浜松市中区,34.704984,137.729314,22,22131,‐,1
313,n00231,賀茂真淵記念館,浜松市中区東伊波122-2,34.700836,137.716062,22,22131,‐,2
314,n00232,浜松ジオラマファクトリー,浜松市中区鍛冶町100-1,34.705126,137.730371,22,22131,‐,2
315,n00233,自衛隊浜松基地航空祭（エアフェスタ）,浜松市中区,34.754989,137.693135,22,22131,‐,1
316,n00234,五社神社,浜松市中区利町302-5,34.70638,137.724996,22,22131,‐,2
317,n00235,浜松市ギャラリーモール（ソラモ）,浜松市中区砂山町320-2,34.70388,137.73319,22,22131,‐,1
318,n00236,本田技研工業㈱浜松製作所,浜松市中区葵東1-13-1,34.753286,137.71844,22,22131,‐,2
319,n00237,鴨江観音,浜松市中区利町302-5,34.706195,137.725221,22,22131,‐,2
320,n00238,浜松シティマラソン,浜松市中区,34.710865,137.726117,22,22131,‐,1
321,n00239,浜松アリーナ（スポーツ）,浜松市東区和田町808-1,34.71799097,137.76677872,22,22132,‐,1
322,n00240,浜松アリーナ（コンベンション）,浜松市東区和田町808-1,34.71799097,137.76677872,22,22132,‐,1
323,n00241,バイクのふるさと浜松,浜松市東区流通元町20-2,34.740436,137.791585,22,22132,‐,1
324,n00242,浜松アリーナ（音楽・演劇観賞）,浜松市東区和田町808-1,34.71799097,137.76677872,22,22132,‐,1
325,n00243,浜松市農林水産まつり,浜松市西区舘山寺町195,34.761831,137.634441,22,22133,‐,1
326,n00244,舘山寺ロープウェイ,浜松市西区舘山寺町1891,34.76377573,137.61735782,22,22133,‐,1
327,n00245,浜名湖オルゴールミュージアム,浜松市西区舘山寺町1891,34.77,137.62027778,22,22133,‐,2
328,n00246,はままつフラワーパーク,浜松市西区舘山寺町195,34.761831,137.634441,22,22133,‐,2
329,n00247,浜松市動物園,浜松市西区舘山寺町199,34.76472222,137.63055555,22,22133,‐,2
330,n00248,浜松市西区いちご狩り,浜松市西区平松町2014-1（外1件）,34.761662,137.63708,22,22133,‐,2
331,n00249,浜名湖パルパル,浜松市西区舘山寺町1891,34.7647434,137.61641481,22,22133,‐,4
332,n00250,舘山寺花火大会,浜松市西区舘山寺町,34.76793434,137.61280254,22,22133,‐,1
333,n00251,渚園キャンプ場,浜松市西区舞阪町弁天島5005-1,34.69944444,137.60611111,22,22133,‐,4
334,n00252,表浜広場,浜松市西区舞阪町舞阪2668-1,34.67906737,137.60628922,22,22133,‐,4
335,n00253,渚園体育施設,浜松市西区舞阪町弁天島5005-1,34.6975,137.60722222,22,22133,‐,4
336,n00254,弁天島海開き花火大会,浜松市西区舞阪町弁天島,34.68888889,137.6025,22,22133,‐,1
337,n00255,亀崎ファミリーランドテニスコート,浜松市西区雄踏町宇布見9984-1,34.70493347,137.61606122,22,22133,‐,4
338,n00256,亀崎ファミリーランドプール,浜松市西区雄踏町宇布見9984-1,34.70405433,137.61458547,22,22133,‐,4
339,n00257,浜名湖ロイヤルホテル（日帰り入浴）,浜松市西区雄踏町山崎4396-1,34.70690504,137.61558031,22,22133,‐,3
340,n00258,海水浴（舘山寺サンビーチ）,浜松市西区舘山寺町,34.76611111,137.61222222,22,22133,‐,4
341,n00259,海水浴（弁天島海水浴場）,浜松市西区舞阪町弁天島,34.68833333,137.60361111,22,22133,‐,4
342,n00260,浜名湖弁天島潮干狩り,浜松市西区舞阪町弁天島,34.68888889,137.6025,22,22133,‐,4
343,n00261,日帰り入浴（舘山寺温泉）,浜松市西区舘山寺町1891,34.76333333,137.61333333,22,22133,‐,3
344,n00262,浜名湖ガーデンパーク,浜松市西区村櫛町5475-1,34.71444444,137.60083333,22,22133,‐,4
345,n00263,うなぎパイファクトリー,浜松市西区大久保町748-51,34.715,137.65638889,22,22133,‐,2
346,n00264,大太鼓まつり,浜松市西区舞阪町,34.68451,137.609263,22,22133,‐,1
347,n00265,舞坂宿脇本陣,浜松市西区舞阪町舞阪2091,34.684398,137.608952,22,22133,‐,2
348,n00266,たきや漁,浜松市西区,34.682951,137.60892,22,22133,‐,4
349,n00267,中村家,浜松市西区雄踏町宇布見4912-1,34.697504,137.633679,22,22133,‐,2
350,n00268,浜名湖アートクラフトフェア,浜松市西区村櫛町5475-1,34.715505,137.599539,22,22133,‐,1
351,n00269,潮干狩り（雄踏）,浜松市西区,34.703342,137.615311,22,22133,‐,4
352,n00270,浜名湖サイクルツーリズム,浜松市西区,34.692709,137.645339,22,22133,‐,1
353,n00271,古橋廣之進浜松市総合水泳場ＴｏＢｉＯ,浜松市西区篠原町23982-1,34.675271,137.671065,22,22133,‐,4
354,n00272,とおとうみ浜松オープン,浜松市西区村櫛町字志津ノ前4620,34.722743,137.604677,22,22133,‐,1
355,n00273,グランディ浜名湖ＧＣ,浜松市西区,34.722743,137.604677,22,22133,‐,4
356,n00274,浜松まつり会館,浜松市南区中田島町1313,34.66556967,137.7421776,22,22134,‐,2
357,n00275,浜松市可美公園水泳場,浜松市南区増楽町920-2,34.68722222,137.69361111,22,22134,‐,4
358,n00276,浜松市江之島水泳場,浜松市南区江之島町1197,34.66096682,137.75302953,22,22134,‐,4
359,n00277,浜松市中央卸売市場まつり,浜松市南区新貝町239-1,34.70416667,137.78527778,22,22134,‐,1
360,n00278,スズキ歴史館,浜松市南区増楽町1301,34.690675,137.689485,22,22134,‐,2
361,n00279,はままつフルーツパークときのすみか,浜松市北区都田町4263-1,34.84018122,137.7330977,22,22135,‐,2
362,n00280,浜松市気賀関所,浜松市北区細江町気賀4577,34.80629211,137.64905982,22,22135,‐,2
363,n00281,細江神社祇園まつり,浜松市北区細江町気賀996,34.810492,137.652992,22,22135,‐,1
364,n00282,祝田厄除観音大祭,浜松市北区中川1734,34.811135,137.687906,22,22135,‐,1
365,n00283,浜松市姫様道中,浜松市北区細江町気賀305,34.806151,137.651104,22,22135,‐,1
366,n00284,国民宿舎奥浜名湖（レストラン）,浜松市北区細江町気賀1023-1,34.812755,137.6504,22,22135,‐,5
367,n00285,竜ヶ岩洞,浜松市北区引佐町田畑193,34.845294,137.648683,22,22135,‐,1
368,n00286,井伊谷宮,浜松市北区引佐町井伊谷1991-1,34.82919332,137.66791301,22,22135,‐,2
369,n00287,方広寺・奥山半僧坊,浜松市北区引佐町奥山1577-1,34.84833333,137.61472222,22,22135,‐,2
370,n00288,龍潭寺,浜松市北区引佐町井伊谷1989,34.82857113,137.66799587,22,22135,‐,2
371,n00289,滝清水（レストラン）,浜松市北区引佐町伊平2-1,34.85665682,137.67041163,22,22135,‐,5
372,n00290,いなさ桜まつり,浜松市北区引佐町奥山（奥山公園）,34.846609,137.618218,22,22135,‐,1
373,n00291,浜名湖レークサイドプラザ（レストラン）,浜松市北区三ヶ日町下尾奈200,34.79066934,137.54798117,22,22135,‐,5
374,n00292,奥山高原,浜松市北区引佐町奥山1736-1,34.84753303,137.60297343,22,22135,‐,4
375,n00293,いなさほおずき市,浜松市北区引佐町田畑193,34.845044,137.649144,22,22135,‐,1
376,n00294,渋川つつじまつり,浜松市北区引佐町渋川,34.929714,137.686744,22,22135,‐,1
377,n00295,三ヶ日みかん狩り,浜松市北区三ヶ日町,34.803496,137.55573,22,22135,‐,2
378,n00296,三ヶ日花火大会,浜松市北区三ヶ日町宇志1320-5,34.79398,137.55529,22,22135,‐,1
379,n00297,日帰りレストラン（三ヶ日町）,浜松市北区三ヶ日町,34.806151,137.651104,22,22135,‐,5
380,n00298,乎那の峯,浜松市北区三ヶ日町鵺代916-1,34.795,137.54277778,22,22135,‐,1
381,n00299,カナメ神宮,浜松市北区引佐町奥山1737-341,34.84706439,137.60967065,22,22135,‐,2
382,n00300,温泉入浴施設（細江温泉地区）,浜松市北区細江町気賀,34.806151,137.651104,22,22135,‐,3
383,n00301,日帰り入浴（三ヶ日温泉地区）,浜松市北区三ヶ日町,34.806151,137.651104,22,22135,‐,3
384,n00302,いなさ人形劇まつり,浜松市北区井伊谷616-5,34.834479,137.669712,22,22135,‐,1
385,n00303,いなさあじさいまつり,浜松市北区引佐町,34.806151,137.651104,22,22135,‐,1
386,n00304,竜ヶ石山ハイキングコース,浜松市北区引佐町田畑,34.84861111,137.62333333,22,22135,‐,4
387,n00305,たざわの里,浜松市北区引佐町田畑193・田沢1138-1,34.90472222,137.65527778,22,22135,‐,5
388,n00306,浜松市気賀関所まつり,浜松市北区細江町気賀4577,34.806345,137.649037,22,22135,‐,1
389,n00307,東急リゾートタウン浜名湖（スポーツ施設）,浜松市北区三ヶ日町大崎372,34.78442037,137.56847098,22,22135,‐,4
390,n00308,富幕山ハイキングコース,浜松市北区引佐町奥山,34.84861111,137.62333333,22,22135,‐,4
391,n00309,清水の里,浜松市北区引佐町伊平1646-1,34.858856,137.666492,22,22135,‐,5
392,n00310,鷲沢風穴,浜松市北区鷲沢町428,34.849,137.712321,22,22135,‐,1
393,n00311,長楽寺,浜松市北区細江町気賀7953-1,34.813012,137.639315,22,22135,‐,2
394,n00312,姫街道と銅鐸の歴史民俗資料館,浜松市北区細江町気賀1015-1,34.810446,137.652142,22,22135,‐,2
395,n00313,みかん狩り（細江町）,浜松市北区細江町,34.806151,137.651104,22,22135,‐,2
396,n00314,光月神社大祭,浜松市北区細江町小野764,34.814939,137.655948,22,22135,‐,1
397,n00315,日帰りレストラン（細江町）,浜松市北区細江町,34.806151,137.651104,22,22135,‐,5
398,n00316,マリンスポーツ（三ヶ日町）,浜松市北区三ヶ日町,34.806151,137.651104,22,22135,‐,4
399,n00317,てんてんゴーしぶ川,浜松市北区引佐町渋川237-1,34.927525,137.682147,22,22135,‐,4
400,n00318,摩訶耶寺,浜松市北区三ヶ日町摩訶耶421,34.817664,137.556828,22,22135,‐,2
401,n00319,日帰りコンベンション（三ヶ日）,浜松市北区三ヶ日町,34.806151,137.651104,22,22135,‐,1
402,n00320,実相寺,浜松市北区引佐町金指1371,34.821958,137.678737,22,22135,‐,2
403,n00321,金指農村公園,浜松市北区引佐町金指1371,34.821458,137.679202,22,22135,‐,2
404,n00322,梅の杉山園,浜松市北区引佐町奥山1563-16,34.84592294,137.60805357,22,22135,‐,2
405,n00323,滝沢キャンプ場,浜松市北区滝沢町1208-1,34.849764,137.731447,22,22135,‐,4
406,n00324,日帰りレストラン（引佐町）,浜松市北区引佐町,34.806151,137.651104,22,22135,‐,5
407,n00325,日帰りコンベンション（細江町）,浜松市北区細江町,34.806151,137.651104,22,22135,‐,1
408,n00326,レイク浜松ＣＣ,浜松市北区引佐町,34.8875,137.67055556,22,22135,‐,4
409,n00327,いなさＧＣ浜松コース,浜松市北区引佐町,34.88083333,137.71194444,22,22135,‐,4
410,n00328,初山宝林寺,浜松市北区細江町中川65-2,34.817002,137.69178,22,22135,‐,2
411,n00329,大福寺,浜松市北区三ヶ日町福長220-3,34.829293,137.549824,22,22135,‐,2
412,n00330,ロテル・ド・寸座（休業中）,浜松市北区細江町気賀,34.808773,137.655684,22,22135,‐,6
413,n00331,ＪＡとぴあ浜松　浜北営農緑花木センター,浜松市浜北区新原6677,34.81277778,137.78972222,22,22136,‐,5
414,n00332,静岡県立森林公園,浜松市浜北区尾野2597-7,34.84708552,137.78067761,22,22136,‐,4
415,n00333,浜北区万葉の森公園,浜松市浜北区平口5051-1,34.80138889,137.76027778,22,22136,‐,4
416,n00334,フイールドアスレチック浜北森林コース,浜松市浜北区尾野2615-5,34.84049898,137.77806888,22,22136,‐,4
417,n00335,遠州はまきた飛竜まつり,浜松市浜北区,34.82527778,137.82361111,22,22136,‐,1
418,n00336,浜北産業祭,浜松市浜北区,34.79777778,137.75805556,22,22136,‐,1
419,n00337,浜北温泉あらたまの湯,浜松市浜北区四大地9-921,34.841974,137.766608,22,22136,‐,3
420,n00338,静岡県立公園キャンプ場,浜松市浜北区尾野2597-7,34.849126,137.779958,22,22136,‐,4
421,n00339,浜北森林ＧＣ,浜松市浜北区,34.84049898,137.77806888,22,22136,‐,4
422,n00340,細江町ゆかた祭り,浜松市北区細江町気賀595-1,35.095835,137.907818,22,22137,‐,1
423,n00341,阿多古川＜川遊び＞,浜松市天竜区,34.89055556,137.77777778,22,22137,‐,1
424,n00342,秋野不矩美術館,浜松市天竜区二俣町二俣130,34.8649204,137.81935289,22,22137,‐,2
425,n00343,道の駅くんま水車の里,浜松市天竜区熊1976-1,34.96194444,137.73305556,22,22137,‐,6
426,n00344,天竜川及びその支流（天竜地域）＜鮎釣り＞,浜松市天竜区,34.867577,137.814806,22,22137,‐,4
427,n00345,道の駅いっぷく処横川,浜松市天竜区横川3085,34.90534862,137.8718389,22,22137,‐,6
428,n00346,鹿島の花火,浜松市天竜区,34.852224,137.808024,22,22137,‐,1
429,n00347,天竜産業観光まつり,浜松市天竜区,34.872649,137.816265,22,22137,‐,1
430,n00348,道の駅天竜相津花桃の里,浜松市天竜区大川31-10,34.91166667,137.815,22,22137,‐,6
431,n00349,秋葉神社,浜松市天竜区春野町領家841,34.981318,137.866075,22,22137,‐,2
432,n00350,石神の里キャンプ場,浜松市天竜区石神１455-2,34.90138889,137.76527778,22,22137,‐,4
433,n00351,春野ふれあい公園,浜松市天竜区春野町領家145-1,34.95777778,137.88722222,22,22137,‐,4
434,n00352,鳥羽山公園さくらまつり,浜松市天竜区,34.858226,137.805902,22,22137,‐,1
435,n00353,はるの産業まつり,浜松市天竜区春野町宮川1467-2,34.981511,137.896369,22,22137,‐,1
436,n00354,春野いきいき天狗村,浜松市天竜区春野町堀之内1441,34.95555556,137.91666667,22,22137,‐,5
437,n00355,佐久間電力館,浜松市天竜区佐久間町佐久間2552-3,35.09916945,137.79586924,22,22137,‐,2
438,n00356,佐久間ダム,浜松市天竜区佐久間町佐久間2189-2,35.09946702,137.79456025,22,22137,‐,2
439,n00357,足神神社,浜松市天竜区水窪町奥領家,35.2428308,137.905206,22,22137,‐,2
440,n00358,山住神社（通年）,浜松市天竜区水窪町山住230,35.13465529,137.91393663,22,22137,‐,2
441,n00359,水窪祭り,浜松市天竜区水窪町,34.93299945,137.84556753,22,22137,‐,1
442,n00360,秋葉ダム周辺,浜松市天竜区龍山町戸倉435-17,34.97222222,137.82805556,22,22137,‐,1
443,n00361,白倉峡,浜松市天竜区龍山町大嶺1279-3,34.99110123,137.78138259,22,22137,‐,1
444,n00362,龍山入浴施設やすらぎの湯,浜松市天竜区龍山町戸倉711-2（龍山保健センター内）,34.97872316,137.83088391,22,22137,‐,3
445,n00363,気田川鮎釣り（春野地域内）,浜松市天竜区春野町,34.96106165,137.89388504,22,22137,‐,4
446,n00364,秋葉の火まつり,浜松市天竜区春野町領家（秋葉山）,34.953966,137.881718,22,22137,‐,1
447,n00365,内山真龍資料館,浜松市天竜区大谷568,34.876837,137.814414,22,22137,‐,2
448,n00366,明神峡紅葉,浜松市天竜区豊岡,35.033673,137.922078,22,22137,‐,1
449,n00367,秋葉寺,浜松市天竜区春野町領家848,34.95401749,137.88147843,22,22137,‐,2
450,n00368,秋葉オートキャンプ場,浜松市天竜区春野町領家1149-2,34.953227,137.884476,22,22137,‐,4
451,n00369,森山キャンプ場,浜松市天竜区春野町豊岡123,35.049533,137.913974,22,22137,‐,4
452,n00370,明野キャンプ場,浜松市天竜区春野町堀之内434,34.961194,137.899408,22,22137,‐,4
453,n00371,手筒花火奉納祭,浜松市天竜区春野町領家（河川敷）,34.952613,137.880385,22,22137,‐,1
454,n00372,白井鐵造記念館,浜松市天竜区春野町宮川1768,34.988941,137.889772,22,22137,‐,2
455,n00373,民俗文化伝承館,浜松市天竜区佐久間町佐久間１832-１,35.124952,137.836266,22,22137,‐,2
456,n00374,せせらぎ荘,浜松市天竜区佐久間町浦川2１2１,35.043138,137.745583,22,22137,‐,4
457,n00375,浦川キャンプ村,浜松市天竜区佐久間町浦川3454-12,35.055841,137.766771,22,22137,‐,4
458,n00376,上島キャンプ場,浜松市天竜区佐久間町中部,35.079176,137.799187,22,22137,‐,4
459,n00377,フェスタさくま,浜松市天竜区佐久間町,35.091587,137.813641,22,22137,‐,1
460,n00378,佐久間ダムまつり,浜松市天竜区佐久間町,35.10208,137.796483,22,22137,‐,1
461,n00379,水窪ダム湖,浜松市天竜区水窪町,35.18398629,137.93621225,22,22137,‐,1
462,n00380,青崩峠,浜松市天竜区水窪町,35.253751,137.91055,22,22137,‐,1
463,n00381,水窪町民俗資料館,浜松市天竜区水窪町地頭方１097,35.169635,137.879828,22,22137,‐,2
464,n00382,カモシカと森の体験館（休館中）,浜松市天竜区水窪町,35.141755,137.920399,22,22137,‐,2
465,n00383,カタクリの里,浜松市天竜区水窪町奥領家4770-１,35.163638,137.868545,22,22137,‐,1
466,n00384,野鳥の森ハイキング,浜松市天竜区水窪町山住,35.163638,137.868545,22,22137,‐,1
467,n00385,みさくぼオートキャンプ場,浜松市天竜区水窪町奥領家4１92-2,35.189355,137.875359,22,22137,‐,4
468,n00386,山住神社秋季例大祭,浜松市天竜区水窪町山住230,35.13465529,137.91393663,22,22137,‐,1
469,n00387,山住神社春季例大祭,浜松市天竜区水窪町山住230,35.13465529,137.91393663,22,22137,‐,1
470,n00388,西浦田楽,浜松市天竜区水窪町奥領家,35.163638,137.868545,22,22137,‐,1
471,n00389,水辺の小径の桜花見,浜松市天竜区水窪町,35.163638,137.868545,22,22137,‐,1
472,n00390,イワナ・ヤマメつかみどり大会,浜松市天竜区水窪町,35.163638,137.868545,22,22137,‐,1
473,n00391,みさくぼ夢街道,浜松市天竜区水窪町,35.163638,137.868545,22,22137,‐,1
474,n00392,峠の国盗り綱引き合戦,浜松市天竜区水窪町,35.163638,137.868545,22,22137,‐,1
475,n00393,キャンプ・バンガロ－等,浜松市天竜区龍山町大嶺1371-5（他１）,35.163638,137.868545,22,22137,‐,4
476,n00394,本田宗一郎ものづくり伝承館,浜松市天竜区二俣町二俣1112,34.86602,137.814162,22,22137,‐,2
477,n00395,さくらまつり,浜松市天竜区龍山町,35.163638,137.868545,22,22137,‐,1
478,n00396,白倉峡もみじまつり,浜松市天竜区龍山町,35.163638,137.868545,22,22137,‐,1
479,n00397,べんてんじまヴィレッジ,浜松市天竜区,34.872649,137.816265,22,22137,‐,4
480,n00398,浜松ＣＣ,浜松市天竜区,34.85089729,137.78457367,22,22137,‐,4
481,n00399,沼津御用邸記念公園,沼津市下香貫島郷2802-1,35.071206,138.873322,22,22203,‐,2
482,n00400,沼津市明治史料館,沼津市西熊堂372-1,35.12186,138.85829,22,22203,‐,2
483,n00401,伊豆三津シーパラダイス,沼津市内浦長浜3-1,35.01938778,138.89592046,22,22203,‐,2
484,n00402,木負観光みかん園,沼津市西浦木負216,35.020365,138.877893,22,22203,‐,2
485,n00403,はかま滝オートキャンプ場,沼津市,34.966458,138.81921,22,22203,‐,4
486,n00404,市民の森,沼津市,34.98083333,138.85111111,22,22203,‐,4
487,n00405,少年自然の家,沼津市足高尾ノ上220-4,35.160571,138.849998,22,22203,‐,4
488,n00406,千本浜海水浴場,沼津市,35.09465548,138.84553822,22,22203,‐,4
489,n00407,島郷海水浴場,沼津市下香貫島郷,35.06984531,138.87310076,22,22203,‐,4
490,n00408,らららサンビーチ,沼津市西浦平沢517-4,35.01996164,138.86133343,22,22203,‐,4
491,n00409,大瀬海水浴場,沼津市西浦江梨,35.02446617,138.78651245,22,22203,‐,4
492,n00410,御浜海水浴場,沼津市戸田,34.97384706,138.76420432,22,22203,‐,4
493,n00411,大瀬地区ダイビング,沼津市,35.02332034,138.78827181,22,22203,‐,4
494,n00412,あわしまマリンパーク,沼津市内浦重寺186,35.03402645,138.89078275,22,22203,‐,4
495,n00413,ニューウェルサンピア,沼津市宮本80-27,35.14679613,138.83858826,22,22203,‐,4
496,n00414,千本プラザ,沼津市本字千本1910-206,35.09271,138.850038,22,22203,‐,1
497,n00415,奥するが湾日曜市,沼津市,35.02305556,138.89805556,22,22203,‐,1
498,n00416,東熊堂高尾山神社祭典,沼津市,35.123059,138.861576,22,22203,‐,1
499,n00417,大瀬まつり・内浦漁港祭,沼津市,35.028135,138.78652,22,22203,‐,1
500,n00418,沼津夏まつり・狩野川花火大会,沼津市,35.097163,138.859033,22,22203,‐,1
501,n00419,沼津御用邸記念公園菊華展,沼津市,35.06888889,138.87555556,22,22203,‐,1
502,n00420,ＪＡＰＡＮ　ＡＲＴ　ＦＥＳＴＩＶＡＬ　ＩＮ　沼津,沼津市,35.071206,138.873322,22,22203,‐,1
503,n00421,春のみどりまつり,沼津市,35.10388889,138.86222222,22,22203,‐,1
504,n00422,秋のみどりまつり,沼津市,35.10388889,138.86222222,22,22203,‐,1
505,n00423,沼津農林まつり,沼津市,35.10388889,138.86222222,22,22203,‐,1
506,n00424,水産祭,沼津市,35.084054,138.852502,22,22203,‐,1
507,n00425,沼津七夕まつり・七夕ワイワイ,沼津市,35.120803,138.836333,22,22203,‐,1
508,n00426,よさこい東海道,沼津市,35.120803,138.836333,22,22203,‐,1
509,n00427,びゅうお,沼津市本字千本1905-27,35.08107482,138.85461381,22,22203,‐,2
510,n00428,造船郷土資料博物館（戸田）,沼津市戸田2710-1,34.97666667,138.76638889,22,22203,‐,2
511,n00429,温泉浴場壱の湯,沼津市戸田1007,34.973544,138.783119,22,22203,‐,3
512,n00430,ぬまづサマーガーデン,沼津市,35.09680702,138.85884708,22,22203,‐,1
513,n00431,こいのぼりフェスティバル,沼津市,35.08233899,138.85452733,22,22203,‐,1
514,n00432,我入道の渡し船,沼津市,35.09087681,138.85900453,22,22203,‐,1
515,n00433,沼津市芹沢光治良記念館,沼津市我入道まんだが原517-1,35.074897,138.861182,22,22203,‐,2
516,n00434,若山牧水記念館,沼津市千本郷林1907-11,35.087075,138.85163,22,22203,‐,2
517,n00435,長浜つり堀観光センター,沼津市,35.017947,138.889083,22,22203,‐,4
518,n00436,戸田港まつり（戸田）,沼津市,34.97287894,138.77716886,22,22203,‐,1
519,n00437,戸田盆踊り・海上花火大会（戸田）,沼津市,34.97287894,138.77716886,22,22203,‐,1
520,n00438,ごぜ芸能まつり（戸田）,沼津市,34.971139,138.762705,22,22203,‐,1
521,n00439,かかしコンテスト（戸田）,沼津市,34.972451,138.778284,22,22203,‐,1
522,n00440,戸田さんさんまつり（戸田）,沼津市,34.972567,138.76361,22,22203,‐,1
523,n00441,戸田冬まつり（戸田）,沼津市,34.97287894,138.77716886,22,22203,‐,1
524,n00442,灯ろう流し（戸田）,沼津市,34.97287894,138.77716886,22,22203,‐,1
525,n00443,庄司美術館（モン・ミュゼ沼津）,沼津市本字下1-900-1,35.095176,138.851551,22,22203,‐,2
526,n00444,サンセットクルージング（戸田）,沼津市,34.97287894,138.77716886,22,22203,‐,1
527,n00445,狩野川灯ろう流し,沼津市,35.098146,138.861824,22,22203,‐,1
528,n00446,沼津港深海水族館,沼津市千本港町83,35.08395,138.858189,22,22203,‐,4
529,n00447,井田海水浴場,沼津市,35.000027,138.778431,22,22203,‐,4
530,n00448,沼津ＧＣ,沼津市,35.16634621,138.84862266,22,22203,‐,4
531,n00449,新沼津ＣＣ,沼津市宮本223,35.16254973,138.83820387,22,22203,‐,4
532,n00450,愛鷹シックスハンドレッドＣ,沼津市,35.16305556,138.82027778,22,22203,‐,4
533,n00451,沼津国際ＣＣ,沼津市,35.17899239,138.83952913,22,22203,‐,4
534,n00452,ライジングサンマフェスティバル,沼津市,35.081268,138.856562,22,22203,‐,1
535,n00453,熱海ロープウェイ,熱海市和田浜南町8-15,35.08863,139.077746,22,22205,‐,1
536,n00454,熱海城,熱海市曽我山1993,35.08639261,139.07877955,22,22205,‐,2
537,n00455,中山晋平記念館,熱海市梅園町8-1（梅園敷地内）,35.09918959,139.05868854,22,22205,‐,2
538,n00456,秘宝館,熱海市和田浜南町8-15,35.086826,139.080175,22,22205,‐,2
539,n00457,ＭＯＡ美術館,熱海市桃山町26-2,35.109007,139.075067,22,22205,‐,2
540,n00458,澤田政廣記念美術館,熱海市梅園町9-46,35.098849,139.057859,22,22205,‐,2
541,n00459,アカオハーブ＆ローズガーデン,熱海市上多賀1027-8,35.079951,139.072618,22,22205,‐,2
542,n00460,起雲閣,熱海市昭和町4-2,35.092898,139.071041,22,22205,‐,2
543,n00461,サンビーチ,熱海市東海岸町地先,35.098143,139.07684,22,22205,‐,4
544,n00462,長浜海水浴場,熱海市上多賀地先,35.056064,139.07013,22,22205,‐,4
545,n00463,マリンスパあたみ,熱海市和田浜南町4-39,35.090936,139.074746,22,22205,‐,4
546,n00464,姫の沢公園,熱海市伊豆山字姫の沢1164,35.117273,139.050348,22,22205,‐,4
547,n00465,後楽園遊園地,熱海市和田浜南町10-1,35.08821774,139.07933957,22,22205,‐,4
548,n00466,初島アイランドリゾート,熱海市初島,35.03910484,139.17430193,22,22205,‐,4
549,n00467,こがし祭り山車コンクール,熱海市,35.100409,139.067819,22,22205,‐,1
550,n00468,来宮神社初詣,熱海市西山町43-1,35.100409,139.067819,22,22205,‐,1
551,n00469,伊豆山神社初詣,熱海市伊豆山708-1,35.115558,139.082429,22,22205,‐,1
552,n00470,春季熱海海上花火大会,熱海市,35.09333333,139.08083333,22,22205,‐,1
553,n00471,夏季熱海海上花火大会　１回目,熱海市,35.09333333,139.08083333,22,22205,‐,1
554,n00472,夏季熱海海上花火大会　２回目,熱海市,35.09333333,139.08083333,22,22205,‐,1
555,n00473,夏季熱海海上花火大会　３回目,熱海市,35.09333333,139.08083333,22,22205,‐,1
556,n00474,夏季熱海海上花火大会　４回目,熱海市,35.09333333,139.08083333,22,22205,‐,1
557,n00475,夏季熱海海上花火大会　５回目,熱海市,35.09333333,139.08083333,22,22205,‐,1
558,n00476,夏季熱海海上花火大会　６回目,熱海市,35.09333333,139.08083333,22,22205,‐,1
559,n00477,夏季熱海海上花火大会　７回目,熱海市,35.09333333,139.08083333,22,22205,‐,1
560,n00478,秋季熱海海上花火大会　１回目,熱海市,35.09333333,139.08083333,22,22205,‐,1
561,n00479,忘年熱海海上花火大会　１回目,熱海市,35.09333333,139.08083333,22,22205,‐,1
562,n00480,忘年熱海海上花火大会　２回目,熱海市,35.09333333,139.08083333,22,22205,‐,1
563,n00481,忘年熱海海上花火大会　３回目,熱海市,35.09333333,139.08083333,22,22205,‐,1
564,n00482,網代温泉海上花火大会,熱海市,35.04624149,139.08118681,22,22205,‐,1
565,n00483,熱海梅園梅まつり,熱海市,35.09918959,139.05868854,22,22205,‐,1
566,n00484,網代温泉大縄海水浴場,熱海市下多賀地先,35.04598812,139.0815262,22,22205,‐,4
567,n00485,多賀わかめまつり,熱海市,35.056064,139.07013,22,22205,‐,1
568,n00486,熱海城桜まつり,熱海市,35.08639261,139.07877955,22,22205,‐,1
569,n00487,アタミアロハフェスティバル,熱海市,35.09607132,139.07612324,22,22205,‐,1
570,n00488,伊豆湯河原温泉夏まつり（サンバ・花火）,熱海市,35.142458,139.078793,22,22205,‐,1
571,n00489,網代ふるさとまつり,熱海市,35.04583333,139.08138889,22,22205,‐,1
572,n00490,百八体流灯祭・伊豆多賀温泉花火大会,熱海市,35.056064,139.07013,22,22205,‐,1
573,n00491,もみじまつり（熱海梅園）,熱海市,35.09918959,139.05868854,22,22205,‐,1
574,n00492,初島ところ天祭り,熱海市,35.0425,139.16888889,22,22205,‐,1
575,n00493,伊豆山さざえまつり,熱海市,35.111613,139.0868,22,22205,‐,1
576,n00494,湯かけまつり,熱海市,35.142458,139.078793,22,22205,‐,1
577,n00495,湯めまちをどり「華の舞」,熱海市,35.094779,139.071923,22,22205,‐,1
578,n00496,熱海ビールまつり,熱海市,35.094152,139.075329,22,22205,‐,1
579,n00497,網代ひものまつり,熱海市,35.046088,139.081136,22,22205,‐,1
580,n00498,湯らっくすマラソン大会,熱海市,35.096048,139.071572,22,22205,‐,1
581,n00499,熱海で遊ぼ！ゆかたで遊ぼ！１回目,熱海市,35.094152,139.075329,22,22205,‐,1
582,n00500,熱海で遊ぼ！ゆかたで遊ぼ！２回目,熱海市,35.094152,139.075329,22,22205,‐,1
583,n00501,熱海で遊ぼ！ゆかたで遊ぼ！３回目,熱海市,35.094152,139.075329,22,22205,‐,1
584,n00502,熱海で遊ぼ！ゆかたで遊ぼ！４回目,熱海市,35.094152,139.075329,22,22205,‐,1
585,n00503,熱海で遊ぼ！ゆかたで遊ぼ！５回目,熱海市,35.094152,139.075329,22,22205,‐,1
586,n00504,熱海で遊ぼ！ゆかたで遊ぼ！６回目,熱海市,35.094152,139.075329,22,22205,‐,1
587,n00505,ふれあい産業まつり,熱海市,35.094152,139.075329,22,22205,‐,1
588,n00506,南熱海マリンホール,熱海市下多賀541-12,35.0475,139.07916667,22,22205,‐,4
589,n00507,家康の湯,熱海市田原本町,35.10333333,139.07861111,22,22205,‐,3
590,n00508,熱海港海釣り施設,熱海市和田浜南町地先,35.0921289,139.07997309,22,22205,‐,4
591,n00509,伊豆山神社例大祭,熱海市,35.115566,139.082431,22,22205,‐,1
592,n00510,熱海で遊ぼ！ゆかたで遊ぼ！７回目,熱海市,35.094152,139.075329,22,22205,‐,1
593,n00511,伊豆山郷土資料館,熱海市伊豆山708-2（伊豆山神社境内）,35.115891,139.08257,22,22205,‐,2
594,n00512,戸田幸四郎絵本美術館,熱海市上多賀1055-30,35.072293,139.058796,22,22205,‐,2
595,n00513,あたみをどり,熱海市,35.094779,139.071923,22,22205,‐,1
596,n00514,薪能,熱海市,35.109007,139.075067,22,22205,‐,1
597,n00515,熱海城桜まつり,熱海市,35.08639261,139.07877955,22,22205,‐,1
598,n00516,伊豆湯河原温泉春まつり,熱海市,35.142458,139.078793,22,22205,‐,1
599,n00517,姫の沢公園花まつり,熱海市,35.11727,139.050348,22,22205,‐,1
600,n00518,オープンウォータースイムレース,熱海市,35.05736904,139.06970155,22,22205,‐,1
601,n00519,さつき展,熱海市,35.092898,139.071041,22,22205,‐,1
602,n00520,水上バイク日本選手権,熱海市,35.095004,139.079677,22,22205,‐,1
603,n00521,春クルーズｉｎあたみ,熱海市,35.089818,139.076351,22,22205,‐,1
604,n00522,宮川マス釣り大会,熱海市,35.05051,139.069893,22,22205,‐,1
605,n00523,あたみワンコイン市場,熱海市,35.096046,139.071565,22,22205,‐,1
606,n00524,熱海湾ファンタスティッククルーズ,熱海市,35.089818,139.076351,22,22205,‐,1
607,n00525,劇団朱雀熱海公演,熱海市,35.096314,139.071751,22,22205,‐,1
608,n00526,アタミステリー紀行,熱海市,35.096049,139.07156,22,22205,‐,1
609,n00527,ほたる観賞の夕べ,熱海市,35.097834,139.059608,22,22205,‐,1
610,n00528,あじろ浜市そらこい祭り,熱海市,35.045627,139.087803,22,22205,‐,1
611,n00529,泉公園鯉のぼりまつり,熱海市,35.142458,139.078793,22,22205,‐,1
612,n00530,マリンフェスタ・アタミ,熱海市,35.094152,139.075329,22,22205,‐,1
613,n00531,阿治古神社例大祭,熱海市,35.047094,139.091218,22,22205,‐,1
614,n00532,網代ベイフェスティバル,熱海市,35.047098,139.091212,22,22205,‐,1
615,n00533,サンビーチスポーツフェスタ,熱海市,35.09573,139.07601,22,22205,‐,1
616,n00534,あたみ湯めぐり・花めぐり,熱海市,35.096046,139.071565,22,22205,‐,1
617,n00535,熱海映画感,熱海市,35.096046,139.071565,22,22205,‐,1
618,n00536,フィッシングカーニバル,熱海市,35.09333333,139.08083333,22,22205,‐,1
619,n00537,華の舞特別講演,熱海市,35.094779,139.071923,22,22205,‐,1
620,n00538,熱海湯まつり,熱海市,35.098341,139.071368,22,22205,‐,1
621,n00539,初島・熱海間遠泳,熱海市,35.098143,139.07684,22,22205,‐,1
622,n00540,ビーチバレー選手権,熱海市,35.095306,139.075765,22,22205,‐,1
623,n00541,ガーデニングフェスティバルｉｎ熱海,熱海市,35.095302,139.075754,22,22205,‐,1
624,n00542,熱海国際交流フェスタ,熱海市,35.096335,139.076374,22,22205,‐,1
625,n00543,池田満寿夫　佐藤陽子　創作の家,熱海市桃山町10-24,35.106855,139.082028,22,22205,‐,2
626,n00544,旧日向別邸,熱海市春日町8-37,35.103369,139.081615,22,22205,‐,2
627,n00545,日曜朝市,熱海市,35.092673,139.074023,22,22205,‐,1
628,n00546,ニューサマーながはま特設市,熱海市,35.05736904,139.06970155,22,22205,‐,1
629,n00547,神無月ながはま特設市,熱海市,35.05736904,139.06970155,22,22205,‐,1
630,n00548,霜月ながはま特設市,熱海市,35.05736904,139.06970155,22,22205,‐,1
631,n00549,長月ながはま特設市,熱海市,35.05736904,139.06970155,22,22205,‐,1
632,n00550,初島花火大会,熱海市,35.042491,139.168604,22,22205,‐,1
633,n00551,伊豆山花火大会,熱海市,35.109743,139.087384,22,22205,‐,1
634,n00552,夏季熱海海上花火大会　８回目,熱海市,35.092119,139.079646,22,22205,‐,1
635,n00553,熱海で遊ぼ！ゆかたで遊ぼ！８回目,熱海市,35.095302,139.075754,22,22205,‐,1
636,n00554,ゴールデンウィークながはま特設市,熱海市,35.05736904,139.06970155,22,22205,‐,1
637,n00555,網代かっちゃくれ浜市,熱海市,35.04675557,139.08942934,22,22205,‐,1
638,n00556,熱海おさかなフェスティバル,熱海市,35.091898,139.07933,22,22205,‐,1
639,n00557,師走ながはま特設市,熱海市,35.05736904,139.06970155,22,22205,‐,1
640,n00558,弥生ながはま特設市,熱海市,35.05736904,139.06970155,22,22205,‐,1
641,n00559,新年ながはま特設市,熱海市,35.05736904,139.06970155,22,22205,‐,1
642,n00560,如月ながはま特設市,熱海市,35.05736904,139.06970155,22,22205,‐,1
643,n00561,それ伊豆山伊勢海老磯まつり,熱海市,35.111748,139.086915,22,22205,‐,1
644,n00562,熱海ＧＣ,熱海市伊豆山1171,35.111633,139.07128,22,22205,‐,4
645,n00563,西熱海Ｇ,熱海市熱海1800,35.10972222,139.05222222,22,22205,‐,4
646,n00564,文月ながはま特設市,熱海市,35.05736904,139.06970155,22,22205,‐,1
647,n00565,てくもぐウォーク,熱海市,35.096276,139.071705,22,22205,‐,1
648,n00566,三島市立公園楽寿園,三島市,35.124894,138.910919,22,22206,‐,2
649,n00567,山中城跡公園,三島市山中新田,35.156371,138.99243,22,22206,‐,2
650,n00568,佐野美術館,三島市中田町1-43,35.1149338,138.91591768,22,22206,‐,2
651,n00569,毎度あり市,三島市,35.118108,138.915225,22,22206,‐,1
652,n00570,三島山中城まつり,三島市,35.156396,138.994015,22,22206,‐,1
653,n00571,水と蛍のフェスティバル,三島市,35.12476,138.911415,22,22206,‐,1
654,n00572,三島夏まつり,三島市,35.122398,138.918836,22,22206,‐,1
655,n00573,三島大通りまつり,三島市,35.119428,138.914852,22,22206,‐,1
656,n00574,三島大通り宿場まつり,三島市,35.119428,138.914852,22,22206,‐,1
657,n00575,三嶋大社　参拝者,三島市大宮町2-1-5,35.122398,138.918836,22,22206,‐,1
658,n00576,三嶋大社　初詣,三島市,35.12239,138.918843,22,22206,‐,1
659,n00577,せせらぎルート散策者,三島市,35.118483,138.918502,22,22206,‐,1
660,n00578,三島馬鈴薯祭り・みしまコロッケ祭り,三島市,35.083068,138.912245,22,22206,‐,1
661,n00579,三嶋大社宝物館,三島市,35.121381,138.919733,22,22206,‐,2
662,n00580,三嶋暦師の館,三島市,35.122886,138.921562,22,22206,‐,2
663,n00581,芝切地蔵睡蓮祭り,三島市,35.154086,138.994928,22,22206,‐,1
664,n00582,下田街道まつり,三島市,35.118588,138.919827,22,22206,‐,1
665,n00583,えびす参道さくらまつり,三島市,35.120709,138.919924,22,22206,‐,1
666,n00584,JRさわやかウォーキング　さくら,三島市,35.127125,138.910616,22,22206,‐,1
667,n00585,JRさわやかウォーキング　せせらぎ,三島市,35.127125,138.910616,22,22206,‐,1
668,n00586,JRさわやかウォーキング　日大生,三島市,35.127125,138.910616,22,22206,‐,1
669,n00587,JRさわやかウォーキング　七草,三島市,35.127125,138.910616,22,22206,‐,1
670,n00588,甘藷祭り,三島市,35.167865,138.922821,22,22206,‐,1
671,n00589,市民すこやかふれあいまつり,三島市,35.128977,138.918473,22,22206,‐,1
672,n00590,みしまサンバ大会,三島市,35.121454,138.919259,22,22206,‐,1
673,n00591,箱根の里まつり,三島市,35.163072,138.982906,22,22206,‐,1
674,n00592,伊豆マラソン,三島市,35.121418,138.919036,22,22206,‐,1
675,n00593,三島フードフェスティバル,三島市,35.120773,138.919916,22,22206,‐,1
676,n00594,三島ＣＣ,三島市,35.16077373,138.94813306,22,22206,‐,4
677,n00595,グランフィールズＣＣ,三島市,35.15916667,138.97333333,22,22206,‐,4
678,n00596,芦ノ湖ＣＣ,三島市,35.17864203,139.00485349,22,22206,‐,4
679,n00597,三島バル,三島市一番町,35.118483,138.918499,22,22206,‐,1
680,n00598,富士山,富士宮市,35.35276039,138.72004978,22,22207,山岳,-1
681,n00599,富士山富士宮口五合目（登山者以外）,富士宮市,35.33638889,138.73361111,22,22207,‐,1
682,n00600,富士山富士宮口五合目（登山者）,富士宮市,35.33638889,138.73361111,22,22207,‐,1
683,n00601,富士山本宮浅間大社,富士宮市,35.227406,138.610002,22,22207,‐,2
684,n00602,奇石博物館,富士宮市,35.28194444,138.63972222,22,22207,‐,2
685,n00603,富士花鳥園（旧富士国際花園）,富士宮市,35.40861111,138.58611111,22,22207,‐,2
686,n00604,静岡県水産技術研究所富士養鱒場,富士宮市,35.36888889,138.56555556,22,22207,‐,2
687,n00605,まかいの牧場,富士宮市,35.33611111,138.58388889,22,22207,‐,2
688,n00606,富士ミルクランド,富士宮市,35.34055556,138.59361111,22,22207,‐,2
689,n00607,田貫湖キャンプ場,富士宮市,35.34638889,138.55833333,22,22207,‐,4
690,n00608,ドライブインもちや,富士宮市,35.37111111,138.57666667,22,22207,‐,6
691,n00609,スカイ朝霧パラグライダースクール,富士宮市,35.38526303,138.57201211,22,22207,‐,4
692,n00610,静岡県立富士山麓山の村,富士宮市,35.28611111,138.71638889,22,22207,‐,4
693,n00611,県立朝霧野外活動センター,富士宮市,35.38611111,138.58694444,22,22207,‐,4
694,n00612,富士山天母の湯,富士宮市,35.28027778,138.63861111,22,22207,‐,3
695,n00613,富士山まつり・御神火,富士宮市,35.227406,138.610002,22,22207,‐,1
696,n00614,流鏑馬まつり,富士宮市,35.227406,138.610002,22,22207,‐,1
697,n00615,富士宮秋まつり,富士宮市,35.227406,138.610002,22,22207,‐,1
698,n00616,富士山まつり・宮おどり,富士宮市,35.227406,138.610002,22,22207,‐,1
699,n00617,西富士オートキャンプ場,富士宮市,35.33972222,138.57333333,22,22207,‐,4
700,n00618,表富士グリーンキャンプ場,富士宮市,35.29861111,138.70083333,22,22207,‐,4
701,n00619,田貫湖ふれあい自然塾,富士宮市,35.34027778,138.55527778,22,22207,‐,1
702,n00620,道の駅朝霧高原,富士宮市,35.41333333,138.59111111,22,22207,‐,6
703,n00621,風の湯,富士宮市,35.32805556,138.59361111,22,22207,‐,3
704,n00622,白糸の滝,富士宮市,35.31297805,138.58729884,22,22207,‐,1
705,n00623,朝霧フィールドドッグスガーデン,富士宮市,35.357003,138.577895,22,22207,‐,4
706,n00624,富嶽温泉花の湯,富士宮市,35.238698,138.618999,22,22207,‐,3
707,n00625,いでぼく,富士宮市,35.284926,138.60834,22,22207,‐,5
708,n00626,お宮横丁,富士宮市,35.22586037,138.61007897,22,22207,‐,5
709,n00627,日本盲導犬総合センター,富士宮市,35.344678,138.595654,22,22207,‐,2
710,n00628,狩宿『春の菜の花さくらまつり』,富士宮市,35.301172,138.588632,22,22207,‐,1
711,n00629,富士錦蔵開き,富士宮市,35.269163,138.559704,22,22207,‐,1
712,n00630,新稲子川温泉ユートリオ,富士宮市,35.25666667,138.53333333,22,22207,‐,3
713,n00631,信長公黄葉まつり,富士宮市,35.237207,138.564458,22,22207,‐,1
714,n00632,富士山まつり・富士の巻狩り,富士宮市,35.22158,138.614643,22,22207,‐,1
715,n00633,たこたこあがれin富士山,富士宮市,35.383463,138.58334,22,22207,‐,1
716,n00634,富士山まつり・お山開き,富士宮市,35.221583,138.614643,22,22207,‐,1
717,n00635,たけのこまつり（芝川まつり）,富士宮市,35.200581,138.5612,22,22207,‐,1
718,n00636,朝霧ジャンボリーオートキャンプ場,富士宮市猪之頭1162-3,35.38613,138.58084,22,22207,‐,4
719,n00637,芭蕉天神祭,富士宮市,35.168413,138.558771,22,22207,‐,1
720,n00638,桜峠初日の出の会,富士宮市,35.26053,138.54605,22,22207,‐,1
721,n00639,柚野花まつり,富士宮市,35.256328,138.550498,22,22207,‐,1
722,n00640,富士山ふれあいウォーク,富士宮市,35.221583,138.614643,22,22207,‐,1
723,n00641,富士山美術館,富士宮市,35.311448,138.588597,22,22207,‐,2
724,n00642,猪之頭オートキャンプ場,富士宮市,35.356345,138.552483,22,22207,‐,4
725,n00643,朝霧高原オートキャンプ場,富士宮市,35.351488,138.571654,22,22207,‐,4
726,n00644,天子の森キャンプ場,富士宮市,35.336929,138.559993,22,22207,‐,4
727,n00645,富士ｵｰﾄふもと村,富士宮市,35.405763,138.566818,22,22207,‐,4
728,n00646,朝霧高原パラグライダースクール,富士宮市,35.408363,138.584601,22,22207,‐,4
729,n00647,麓山の家,富士宮市,35.401071,138.558397,22,22207,‐,4
730,n00648,鱒の家,富士宮市,35.370619,138.567875,22,22207,‐,5
731,n00649,富士ファミリーオートキャンプ場,富士宮市,35.317169,138.563074,22,22207,‐,4
732,n00650,ラ・フォンテーヌバカンス,富士宮市,35.349557,138.565538,22,22207,‐,1
733,n00651,表富士燈回廊,富士宮市,35.227406,138.610002,22,22207,‐,1
734,n00652,表富士自転車登山競走大会,富士宮市,35.298063,138.717046,22,22207,‐,1
735,n00653,芝川夏まつり,富士宮市,35.229297,138.563818,22,22207,‐,1
736,n00654,稲子梅まつり,富士宮市,35.256743,138.533605,22,22207,‐,1
737,n00655,とうもろこしまつり,富士宮市,35.221583,138.614644,22,22207,‐,1
738,n00656,芝川まつり,富士宮市,35.221583,138.614644,22,22207,‐,1
739,n00657,梅わいんまつり,富士宮市,35.221583,138.614644,22,22207,‐,1
740,n00658,富士宮ＧＣ,富士宮市,35.211059,138.601387,22,22207,‐,4
741,n00659,朝霧ジャンボリーＧＣ,富士宮市,35.37982169,138.57962275,22,22207,‐,4
742,n00660,朝霧ＣＣ,富士宮市,35.40519386,138.6047305,22,22207,‐,4
743,n00661,ザナショナルＣＣ,富士宮市,35.33256183,138.6331622,22,22207,‐,4
744,n00662,小田急西富士ＧＣ,富士宮市,35.33326,138.582293,22,22207,‐,4
745,n00663,富士チサンＣＣ,富士宮市,35.236101,138.581296,22,22207,‐,4
746,n00664,柚野の里交流会,富士宮市,35.22197,138.621646,22,22207,‐,1
747,n00665,あさぎりフードパーク,富士宮市根原449-11,35.412336,138.590984,22,22207,‐,5
748,n00666,伊東温泉めちゃくちゃ市,伊東市,34.971331,139.098768,22,22208,‐,1
749,n00667,小室山つばき観賞会,伊東市,34.9431,139.122795,22,22208,‐,1
750,n00668,大室山山焼き,伊東市,34.90731,139.09384,22,22208,‐,1
751,n00669,伊豆高原桜まつり,伊東市,34.878987,139.108502,22,22208,‐,1
752,n00670,伊豆高原桜まつり（さくらの里会場）,伊東市,34.907282,139.090811,22,22208,‐,1
753,n00671,フジサンケイレディスクラシック,伊東市,34.939851,139.140679,22,22208,‐,1
754,n00672,小室山つつじまつり,伊東市,34.941928,139.126253,22,22208,‐,1
755,n00673,祐親まつり,伊東市,34.971477,139.097151,22,22208,‐,1
756,n00674,松川タライ乗り競走,伊東市,34.971483,139.097128,22,22208,‐,1
757,n00675,海水浴場（伊東オレンジビーチ）,伊東市湯川、松原,34.97555302,139.09623521,22,22208,‐,4
758,n00676,海水浴場（宇佐美海水浴場）,伊東市宇佐美,35.004067,139.0836,22,22208,‐,4
759,n00677,海水浴場（川奈いるか浜公園）,伊東市川奈,34.952967,139.13198,22,22208,‐,4
760,n00678,伊東温泉夢花火ｐａｒｔ１・２,伊東市,34.97556915,139.0962332,22,22208,‐,1
761,n00679,宇佐美海上灯篭流し・花火大会,伊東市,35.00780895,139.09263868,22,22208,‐,1
762,n00680,按針祭　松川灯籠流し・花火大会,伊東市,34.972941,139.100422,22,22208,‐,1
763,n00681,按針祭式典　太鼓合戦・花火大会,伊東市,34.972921,139.100438,22,22208,‐,1
764,n00682,ほたる観賞会（松川湖・丸山公園）,伊東市,34.970653,139.081273,22,22208,‐,1
765,n00683,按針ワールドカーニバル,伊東市,34.972921,139.100438,22,22208,‐,1
766,n00684,按針祭海の花火大会,伊東市,34.97519514,139.099235,22,22208,‐,1
767,n00685,やんもの里花火大会,伊東市,34.86871382,139.1026518,22,22208,‐,1
768,n00686,川奈港いるか浜花火大会,伊東市,34.95237316,139.13536127,22,22208,‐,1
769,n00687,伊東温泉箸まつり＆ほこほこ祭り,伊東市,34.965632,139.101935,22,22208,‐,1
770,n00688,伊東大田楽,伊東市,34.972428,139.095638,22,22208,‐,1
771,n00689,伊東温泉花笠踊り,伊東市,34.968867,139.097354,22,22208,‐,1
772,n00690,伊豆高原クラフトの森フェスティバル,伊東市,34.905718,139.089913,22,22208,‐,1
773,n00691,伊東温泉とっておき冬花火大会,伊東市,34.972921,139.100438,22,22208,‐,1
774,n00692,城ヶ崎海岸,伊東市富戸,34.89099396,139.14028574,22,22208,‐,1
775,n00693,城ヶ崎遊覧船,伊東市富戸804-1,34.89583333,139.13222222,22,22208,‐,1
776,n00694,小室山リフト,伊東市川奈1428,34.940686,139.128744,22,22208,‐,1
777,n00695,大室山リフト,伊東市富戸先原1317-5,34.9075,139.09666667,22,22208,‐,1
778,n00696,ねこの博物館,伊東市八幡野1759-242,34.897515,139.107099,22,22208,‐,2
779,n00697,伊豆テディベァミュージアム,伊東市八幡野1064-2,34.877801,139.111517,22,22208,‐,2
780,n00698,伊豆ガラスと工芸美術館,伊東市大室高原11-300,34.905062,139.116114,22,22208,‐,2
781,n00699,池田　２０世紀美術館,伊東市十足614,34.921653,139.105483,22,22208,‐,2
782,n00700,伊豆シャボテン公園,伊東市富戸1317-13,34.907833,139.097802,22,22208,‐,2
783,n00701,みかん狩り（宇佐美地区）,伊東市宇佐美,35.016052,139.06696,22,22208,‐,6
784,n00702,按針祭式典,伊東市,34.971385,139.102318,22,22208,‐,1
785,n00703,みかん狩り（城ヶ崎地区）,伊東市城ヶ崎,34.884067,139.126741,22,22208,‐,6
786,n00704,伊豆海洋公園・四季の花公園,伊東市富戸841-1,34.88444444,139.13194445,22,22208,‐,2
787,n00705,さくらの里,伊東市富戸,34.907275,139.090804,22,22208,‐,4
788,n00706,伊豆ぐらんぱる公園,伊東市富戸1090,34.905453,139.120841,22,22208,‐,4
789,n00707,東海館,伊東市東松原12-10,34.971681,139.097022,22,22208,‐,2
790,n00708,伊東マリンタウン,伊東市湯川571-19,34.98527778,139.09416667,22,22208,‐,6
791,n00709,伊豆高原旅の駅ぐらんぱるぽーと,伊東市富戸1090,34.90750807,139.12095788,22,22208,‐,6
792,n00710,みかん狩り（吉田地区）,伊東市,34.930245,139.126594,22,22208,‐,6
793,n00711,オレンジビーチマラソン,伊東市,34.971385,139.102318,22,22208,‐,1
794,n00712,東海館まつり,伊東市,34.971681,139.097022,22,22208,‐,1
795,n00713,尻つみまつり,伊東市,34.966801,139.095642,22,22208,‐,1
796,n00714,木下杢太郎記念館,伊東市湯川2-11-5,34.973742,139.095956,22,22208,‐,2
797,n00715,伊東温泉夢花火ｐａｒｔ３～６,伊東市,34.972941,139.100422,22,22208,‐,1
798,n00716,伊東温泉夢花火ｐａｒｔ７～１０,伊東市,34.972941,139.100422,22,22208,‐,1
799,n00717,サザンクロスＣＣ,伊東市吉田1006,34.9375,139.12611111,22,22208,‐,4
800,n00718,ゴールド川奈ＣＣ（伊東パークＧ）,伊東市吉田834,34.925729,139.107147,22,22208,‐,4
801,n00719,伊東ＣＣ,伊東市荻694-1,34.92666667,139.07527778,22,22208,‐,4
802,n00720,川奈ホテルＧコース富士,伊東市川奈1459,34.94027866,139.13998299,22,22208,‐,4
803,n00721,川奈ホテルＧコース大島,伊東市川奈1459,34.94027866,139.13998299,22,22208,‐,4
804,n00722,ワイルドスミス美術館,伊東市大室高原9?101,34.906891,139.110088,22,22208,‐,2
805,n00723,島田市博物館（本館）,島田市河原1-5-50,34.83131358,138.15440932,22,22209,‐,2
806,n00724,島田市博物館分館,島田市河原2-16-5,34.832259,138.156688,22,22209,‐,2
807,n00725,蓬莱橋,島田市南2地先,34.825524,138.184443,22,22209,‐,2
808,n00726,島田市ばらの丘公園,島田市野田1652-1,34.851076,138.17628,22,22209,‐,2
809,n00727,やまめ平,島田市笹間下1707,34.98472222,138.1625,22,22209,‐,4
810,n00728,島田市伊久美農産物加工体験施設やまゆり,島田市伊久美5202,34.91928381,138.12571619,22,22209,‐,2
811,n00729,島田髷まつり,島田市,34.820618,138.123444,22,22209,‐,1
812,n00730,大井川大花火大会,島田市,34.829826,138.151285,22,22209,‐,1
813,n00731,島田宿川どめ夏まつり,島田市,34.832866,138.175121,22,22209,‐,1
814,n00732,ばらの丘フェスタ（春）,島田市,34.851076,138.17628,22,22209,‐,1
815,n00733,ばらの丘フェスタ（秋）,島田市,34.851076,138.17628,22,22209,‐,1
816,n00734,島田産業まつり,島田市,34.831445,138.173441,22,22209,‐,1
817,n00735,「島田」蓬莱の湯,島田市旭2-1-30,34.832672,138.191713,22,22209,‐,3
818,n00736,石畳茶屋,島田市金谷坂町2482-1,34.81694444,138.12472222,22,22209,‐,2
819,n00737,お茶の郷,島田市金谷富士見町3053-2,34.81444444,138.13416667,22,22209,‐,2
820,n00738,大井神社宮美殿,島田市大井町2316,34.833171,138.171482,22,22209,‐,1
821,n00739,日限地蔵尊縁日,島田市島644,34.840785,138.126257,22,22209,‐,2
822,n00740,金谷茶まつり,島田市,34.81909046,138.12550571,22,22209,‐,1
823,n00741,童子沢親水公園,島田市大代,34.86138889,138.09055555,22,22209,‐,4
824,n00742,かわね桜まつり,島田市,34.94159,138.076828,22,22209,‐,1
825,n00743,川根ふる里ふれあいまつり,島田市,34.941596,138.076828,22,22209,‐,1
826,n00744,野守まつり,島田市,34.938068,138.069069,22,22209,‐,1
827,n00745,田代の郷温泉「伊太和里の湯」,島田市伊太88-1,34.87246653,138.1555282,22,22209,‐,3
828,n00746,牧之原公園,島田市金谷1701-1,34.81565492,138.13386588,22,22209,‐,4
829,n00747,ふれあいの泉,島田市川根町笹間渡220,34.959871,138.089697,22,22209,‐,3
830,n00748,牧之原パノラマウォーク,島田市,34.819093,138.125428,22,22209,‐,1
831,n00749,島田大祭・帯まつり,島田市,34.833661,138.171678,22,22209,‐,1
832,n00750,蓬莱橋ぼんぼりまつり,島田市,34.825524,138.184443,22,22209,‐,1
833,n00751,東光寺日吉神社猿舞,島田市,34.862705,138.195207,22,22209,‐,1
834,n00752,大井川川越しまつり,島田市,34.828228,138.149083,22,22209,‐,1
835,n00753,紙わざ大賞展,島田市,34.83644,138.176032,22,22209,‐,1
836,n00754,茶の里さんぽらり～,島田市,34.83644,138.176032,22,22209,‐,1
837,n00755,旅の詩人ウォーク,島田市,34.81909046,138.12550571,22,22209,‐,1
838,n00756,ほっとハイキング,島田市,34.83644,138.176032,22,22209,‐,1
839,n00757,和の祭典　（無）,島田市,34.83644,138.176032,22,22209,‐,1
840,n00758,日帰り客数（宿泊施設）,島田市,34.83644,138.176032,22,22209,‐,1
841,n00759,中央公園ミニ鉄道,島田市野田1689,34.849688,138.175216,22,22209,‐,4
842,n00760,川根温泉まつり,島田市,34.959871,138.089697,22,22209,‐,1
843,n00761,家山梅園,島田市,34.946478,138.078509,22,22209,‐,1
844,n00762,ＳＬフェスタ,島田市,34.836438,138.176029,22,22209,‐,1
845,n00763,ミニ四駆,島田市野田1689（市総合スポ-ツセンタ-内）,34.849688,138.175216,22,22209,‐,4
846,n00764,静岡カントリー島田コース,島田市,34.79805555,138.20388889,22,22209,‐,4
847,n00765,島田市「山の家」,島田市身成48-3,34.901706,138.111736,22,22209,‐,4
848,n00766,野守の池イルミネーション,島田市川根町家山,34.939402,138.070059,22,22209,‐,1
849,n00767,富士市立博物館,富士市伝法66-2,35.1852892,138.68003831,22,22210,‐,2
850,n00768,富士マリンプール,富士市田中新田275-9,35.13694444,138.72583333,22,22210,‐,4
851,n00769,丸火自然公園,富士市大淵10847,35.2325,138.72444444,22,22210,‐,4
852,n00770,岩本山公園,富士市岩本1605,35.17709,138.626979,22,22210,‐,4
853,n00771,竹採公園,富士市比奈2085-4,35.16972222,138.71638889,22,22210,‐,4
854,n00772,富士山こどもの国,富士市桑崎1015,35.253374,138.77222,22,22210,‐,4
855,n00773,吉原祇園祭,富士市,35.16038032,138.69188675,22,22210,‐,1
856,n00774,毘沙門天大祭,富士市,35.14055556,138.71222222,22,22210,‐,1
857,n00775,富士甲子神社祭典,富士市,35.154385,138.649942,22,22210,‐,1
858,n00776,富士まつり,富士市,35.16111345,138.66972725,22,22210,‐,1
859,n00777,湯らぎの里,富士市蓼原227-1,35.15065099,138.66955601,22,22210,‐,3
860,n00778,富士川楽座,富士市岩淵1488-1,35.16166667,138.61833333,22,22210,‐,6
861,n00779,鷹の湯,富士市久沢788-1,35.19777778,138.65222222,22,22210,‐,3
862,n00780,新豊院三尊祭,富士市,35.15067515,138.61716442,22,22210,‐,1
863,n00781,新豊院大観音祭,富士市,35.15067515,138.61716442,22,22210,‐,1
864,n00782,田子の浦漁協しらす祭,富士市,35.13944444,138.69111111,22,22210,‐,1
865,n00783,ふじさんめっせ,富士市柳島189-8,35.14527778,138.66611111,22,22210,‐,1
866,n00784,ぶらりウォーキングコース（富士川）,富士市,35.148764,138.61849,22,22210,‐,1
867,n00785,かりがね祭り,富士市,35.161407,138.67623,22,22210,‐,1
868,n00786,あっぱれ富士,富士市,35.16111345,138.66972725,22,22210,‐,1
869,n00787,商工フェア（富士市）,富士市,35.16111345,138.66972725,22,22210,‐,1
870,n00788,ふじかわ夏まつり,富士市,35.14166667,138.62583333,22,22210,‐,1
871,n00789,静岡県富士水泳場,富士市大淵266,35.19722222,138.69,22,22210,‐,4
872,n00790,須津山休養林,富士市江尾1035,35.197969,138.767982,22,22210,‐,1
873,n00791,姫名の里まつり,富士市,35.16972222,138.71638889,22,22210,‐,1
874,n00792,ふじかわキウイマラソン,富士市,35.162162,138.675728,22,22210,‐,4
875,n00793,大富士Ｇ,富士市今宮1243,35.20722222,138.71916667,22,22210,‐,4
876,n00794,南富士ＣＣ,富士市大淵11702-3,35.2425,138.73805556,22,22210,‐,4
877,n00795,十里木ＣＣ,富士市桑崎1016,35.262666,138.776815,22,22210,‐,4
878,n00796,リバー富士ＣＣ,富士市北松野4222-10,35.1825,138.57083333,22,22210,‐,4
879,n00797,野田山健康緑地公園,富士市中之郷,35.147797,138.598046,22,22210,‐,1
880,n00798,岩渕祇園祭,富士市,35.153137,138.616414,22,22210,‐,1
881,n00799,府八幡宮,磐田市中泉112-1,34.719926,137.853463,22,22211,‐,2
882,n00800,見付天神社（矢奈比売神社）,磐田市見付1114-2,34.72985925,137.86406924,22,22211,‐,2
883,n00801,ヤマハコミュニケーションプラザ,磐田市新貝2500,34.72292602,137.87763909,22,22211,‐,2
884,n00802,旧見付学校,磐田市見付2452,34.7275,137.85694444,22,22211,‐,2
885,n00803,磐田温水プール,磐田市刑部島274-3,34.7025,137.82972222,22,22211,‐,4
886,n00804,磐田市営つつじ公園,磐田市見付1010?2,34.732008,137.864691,22,22211,‐,4
887,n00805,府八幡宮祭典,磐田市中泉112-1,34.719926,137.853463,22,22211,‐,1
888,n00806,ヤマハスタジアム,磐田市新貝2500,34.72527778,137.875,22,22211,‐,1
889,n00807,いわた農業まつり,磐田市見付3599-1,34.72944445,137.85083333,22,22211,‐,1
890,n00808,ジュビロ磐田メモリアルマラソン,磐田市大久保892-36,34.725873,137.845431,22,22211,‐,1
891,n00809,磐田市民文化会館,磐田市二之宮東3-2,34.71555556,137.85777778,22,22211,‐,1
892,n00810,遠州大名行列・舞車,磐田市見付宿場通り,34.72694444,137.85777778,22,22211,‐,1
893,n00811,ｽﾎﾟｰﾂ交流の里ゆめりあ,磐田市大久保892-36,34.755671,137.857898,22,22211,‐,4
894,n00812,旧赤松家記念館,磐田市見付3884-10,34.73194444,137.84916667,22,22211,‐,2
895,n00813,桶ケ谷沼ビジターセンター,磐田市岩井315,34.74012202,137.88757921,22,22211,‐,1
896,n00814,見付天神裸まつり,磐田市見付1114-2,34.72985925,137.86406924,22,22211,‐,1
897,n00815,福田屋内スポーツセンター,磐田市南島393-1,34.69194444,137.88166667,22,22211,‐,4
898,n00816,福田健康福祉会館（リフレＵ）,磐田市宇兵衛新田186-1,34.6742341,137.85966173,22,22211,‐,3
899,n00817,六社神社祭典,磐田市福田2100-1,34.67706968,137.8828602,22,22211,‐,1
900,n00818,いわた夏まつり花火大会,磐田市,34.67975363,137.89504499,22,22211,‐,1
901,n00819,竜洋昆虫自然観察公園,磐田市大中瀬320-1,34.66888889,137.83972222,22,22211,‐,2
902,n00820,竜洋海洋公園,磐田市駒場6866-27,34.65222222,137.80361111,22,22211,‐,4
903,n00821,竜洋スポーツ公園,磐田市南平松8,34.65785163,137.82256204,22,22211,‐,4
904,n00822,掛塚屋台まつり,磐田市掛塚927-1,34.67520178,137.79836703,22,22211,‐,1
905,n00823,いわた農業まつり,磐田市見付3599-1,34.72944445,137.85083333,22,22211,‐,1
906,n00824,竜洋海洋公園オートキャンプ場,磐田市駒場6866-10,34.65222222,137.80666667,22,22211,‐,4
907,n00825,うなやす,磐田市掛塚2105-1,34.66083333,137.7975,22,22211,‐,5
908,n00826,磐田市香りの博物館,磐田市立野2019-15,34.71543726,137.81958414,22,22211,‐,2
909,n00827,磐田市新造形創造館,磐田市上新屋499-1,34.731926,137.822705,22,22211,‐,2
910,n00828,アミュ－ズ豊田,磐田市上新屋304,34.73243951,137.82494002,22,22211,‐,4
911,n00829,熊野の長藤まつり,磐田市池田189-2,34.73731748,137.81484694,22,22211,‐,1
912,n00830,フェスティバル豊田,磐田市上新屋304,34.73243951,137.82494002,22,22211,‐,1
913,n00831,豊岡梅園,磐田市上野部1989-1,34.84416667,137.84916667,22,22211,‐,1
914,n00832,全国高等学校女子サッカー選手権大会,磐田市大久保892-36,34.75666667,137.8575,22,22211,‐,1
915,n00833,獅子ヶ鼻公園,磐田市岩室199-1,34.846396,137.875771,22,22211,‐,4
916,n00834,豊岡ふるさとまつり,磐田市壱貫地64-1,34.82112879,137.83288699,22,22211,‐,1
917,n00835,花咲乃庄,磐田市壱貫地429,34.82611111,137.83472222,22,22211,‐,2
918,n00836,磐田雪まつり,磐田市今之浦市有地,34.71916667,137.86111111,22,22211,‐,1
919,n00837,しおさい竜洋,磐田市駒場6866-10,34.65119995,137.80688395,22,22211,‐,6
920,n00838,とよおか採れたて元気むら,磐田市下神増1148,34.80785112,137.83511025,22,22211,‐,5
921,n00839,白壁館,磐田市敷地456-1,34.828493,137.864287,22,22211,‐,5
922,n00840,竜洋産業まつり,磐田市駒場6866-27,34.65169719,137.80513165,22,22211,‐,1
923,n00841,ジュビロード夏祭,磐田市駅前ジュビロード,34.71194444,137.85222222,22,22211,‐,1
924,n00842,福田漁港（釣り）,磐田市豊浜4127-22,34.66676998,137.90429781,22,22211,‐,4
925,n00843,豊浜海岸（サーフィン）,磐田市豊浜海岸,34.66694444,137.91166667,22,22211,‐,4
926,n00844,なぎの木会館,磐田市豊岡6605-3,34.68277778,137.81333333,22,22211,‐,1
927,n00845,磐田市コミュニケーションセンター,磐田市高見丘1200,34.750391,137.842255,22,22211,‐,5
928,n00846,国分寺まつり,磐田市中泉3365,34.719644,137.851594,22,22211,‐,1
929,n00847,鮎釣り,磐田市,34.717889,137.851509,22,22211,‐,4
930,n00848,ふくで漁港まつり,磐田市豊浜4127-22,34.66722222,137.90555556,22,22211,‐,1
931,n00849,ブルーベリー狩り,磐田市向笠竹之内74,34.768188,137.872815,22,22211,‐,2
932,n00850,かぶと塚テニスコート,磐田市見付4075-1,34.727046,137.84625,22,22211,‐,4
933,n00851,塔之壇テニスコート,磐田市見付2451,34.7283,137.856922,22,22211,‐,4
934,n00852,東大久保テニスコート,磐田市見付809-2,34.732331,137.8715,22,22211,‐,4
935,n00853,いわた春まつり,磐田市,34.717889,137.851509,22,22211,‐,1
936,n00854,消費生活・健康展,磐田市,34.717889,137.851509,22,22211,‐,1
937,n00855,星降る映画会,磐田市,34.721928,137.847374,22,22211,‐,1
938,n00856,磐田ファミリーフェスティバル,磐田市,34.718943,137.861168,22,22211,‐,1
939,n00857,冒険キッズの宝島,磐田市,34.717889,137.851509,22,22211,‐,1
940,n00858,スポーツレクリエーションのつどい・Ｗ杯カウント６００,磐田市,34.717889,137.851509,22,22211,‐,1
941,n00859,ＪＲさわやかウォーキング,磐田市中泉633-1,34.710374,137.851786,22,22211,‐,1
942,n00860,Ｗ杯日本代表交流会,磐田市,34.717889,137.851509,22,22211,‐,1
943,n00861,ＩＷＡＴＡ　ＷＥＬＣＯＭＥ　フェスティバル,磐田市,34.717889,137.851509,22,22211,‐,1
944,n00862,じゅびらマーケット,磐田市,34.717889,137.851509,22,22211,‐,1
945,n00863,全日本軟式野球大会,磐田市,34.717889,137.851509,22,22211,‐,1
946,n00864,浜名湖花博プレキャンペーンいわたの春,磐田市,34.717889,137.851509,22,22211,‐,1
947,n00865,磐田とんぼの里ウォーキング大会,磐田市,34.717889,137.851509,22,22211,‐,1
948,n00866,親子写生大会,磐田市見付1010-2,34.732018,137.86466,22,22211,‐,1
949,n00867,全日本女子ユースサッカー大会,磐田市,34.717889,137.851509,22,22211,‐,1
950,n00868,コーデュロイハウス,磐田市福田中島226-4,34.679973,137.876205,22,22211,‐,6
951,n00869,ふれあい市場,磐田市,34.721747,137.824624,22,22211,‐,1
952,n00870,縁日「お観音様」,磐田市,34.717889,137.851509,22,22211,‐,1
953,n00871,ふくでいきいき広場,磐田市,34.717889,137.851509,22,22211,‐,1
954,n00872,桜まつり,磐田市岩室199-1,34.717889,137.851509,22,22211,‐,1
955,n00873,磐田市埋蔵文化財センター,磐田市見付3678-1,34.730402,137.85157,22,22211,‐,2
956,n00874,磐田市竜洋郷土資料館,磐田市岡405-47,34.678263,137.817363,22,22211,‐,2
957,n00875,磐田市農村民俗資料館,磐田市壱貫地180-7,34.820529,137.833874,22,22211,‐,2
958,n00876,医王寺,磐田市鎌田2065-1,34.715781,137.884299,22,22211,‐,2
959,n00877,福王寺,磐田市城之崎4-2722-1,34.720925,137.863004,22,22211,‐,2
960,n00878,パルファン富里,磐田市富里90,34.756856,137.831289,22,22211,‐,6
961,n00879,万瀬ぼうら屋,磐田市万瀬493-2,34.876233,137.87754,22,22211,‐,6
962,n00880,法雲寺,磐田市向笠西374,34.75730989,137.87898544,22,22211,‐,2
963,n00881,いわた☆駅前楽市,磐田市駅前ジュビロード,34.710574,137.851836,22,22211,‐,5
964,n00882,特別巡回ラジオ体操・みんなの体操会in磐田,磐田市,34.717889,137.851509,22,22211,‐,1
965,n00883,シルクロードミュージアム,磐田市上野部888,34.849623,137.836397,22,22211,‐,2
966,n00884,浜松シーサイドＧＣ,磐田市鮫島 4119-1,34.66027778,137.84833333,22,22211,‐,4
967,n00885,豊岡国際ＣＣ獅子が鼻,磐田市敷地1460-1,34.852594,137.870798,22,22211,‐,4
968,n00886,豊岡国際ＣＣ岩室,磐田市敷地1460-1,34.852594,137.870798,22,22211,‐,4
969,n00887,竜洋海洋フェスタ,磐田市駒場6866-10,34.651234,137.806792,22,22211,‐,1
970,n00888,いわたスポレクフェスティバル,磐田市見付4075-1,34.725873,137.845431,22,22211,‐,1
971,n00889,ディスカバリーパーク焼津,焼津市田尻2968-1,34.82273847,138.33156147,22,22212,‐,2
972,n00890,サッポロビール静岡工場,焼津市浜当目708-1,34.88349199,138.32502357,22,22212,‐,2
973,n00891,浜当目海水浴場,焼津市浜当目,34.87833333,138.33472222,22,22212,‐,4
974,n00892,焼津さかなセンター,焼津市八楠4-13-7,34.88043,138.303068,22,22212,‐,5
975,n00893,石原水産マリンシテーション,焼津市八楠2-5-2,34.87863456,138.31156207,22,22212,‐,5
976,n00894,虚空蔵尊まつり,焼津市,34.88213541,138.33731427,22,22212,‐,1
977,n00895,恵比寿講市,焼津市,34.869151,138.320171,22,22212,‐,1
978,n00896,焼津海上花火大会,焼津市,34.864202,138.331182,22,22212,‐,1
979,n00897,焼津港まつり,焼津市,34.8605,138.325732,22,22212,‐,1
980,n00898,焼津港マラソン,焼津市,34.8605,138.325732,22,22212,‐,1
981,n00899,温泉入浴施設,焼津市,34.87027778,138.31722222,22,22212,‐,3
982,n00900,オータムフェストｉｎやいづ,焼津市,34.86904565,138.32381685,22,22212,‐,1
983,n00901,小川港さば祭り,焼津市,34.845098,138.325388,22,22212,‐,1
984,n00902,踊夏祭,焼津市,34.782564,138.289526,22,22212,‐,1
985,n00903,大井川港朝市,焼津市,34.78311087,138.29462173,22,22212,‐,1
986,n00904,全珠院（千手観音）,焼津市大覚寺1204,34.87833333,138.29722222,22,22212,‐,2
987,n00905,サンライフ焼津,焼津市中港3-3-12,34.87381551,138.32513344,22,22212,‐,3
988,n00906,焼津文化会館（劇・演奏会）,焼津市,34.86444444,138.30527778,22,22212,‐,1
989,n00907,大井川文化会館,焼津市,34.80305556,138.28361111,22,22212,‐,1
990,n00908,焼津小泉八雲記念館,焼津市,34.86446955,138.30646838,22,22212,‐,2
991,n00909,焼津市歴史民俗資料館,焼津市,34.86472222,138.30611111,22,22212,‐,2
992,n00910,焼津市深層水ミュージアム,焼津市,34.85862157,138.32590655,22,22212,‐,2
993,n00911,うみえ～る焼津,焼津市,34.85672524,138.32662901,22,22212,‐,5
994,n00912,さかなセンターまつり,焼津市,34.88043,138.303068,22,22212,‐,1
995,n00913,なかむら館,焼津市駅北1-14-7,34.87454485,138.32166248,22,22212,‐,3
996,n00914,焼津神社,焼津市焼津2-7-2,34.865,138.31361111,22,22212,‐,2
997,n00915,コンベンション,焼津市,34.866946,138.323254,22,22212,‐,1
998,n00916,木屋川桜まつり,焼津市,34.832001,138.324066,22,22212,‐,1
999,n00917,かつおまつり,焼津市,34.8605,138.325732,22,22212,‐,1
1000,n00918,全国豊かな海づくり大会,焼津市,34.866946,138.323254,22,22212,‐,1
1001,n00919,オーシャンステージ,焼津市,34.8643,138.325622,22,22212,‐,1
1002,n00920,海の子フェスタ,焼津市,34.864308,138.325622,22,22212,‐,1
1003,n00921,大井川港,焼津市,34.783665,138.290502,22,22212,‐,1
1004,n00922,大井川河口野鳥園,焼津市,34.772238,138.296987,22,22212,‐,2
1005,n00923,藤守の田遊び,藤枝市,34.866946,138.323254,22,22212,‐,1
1006,n00924,大井川港花火大会,焼津市,34.783665,138.290502,22,22212,‐,1
1007,n00925,掛川城,掛川市,34.77536232,138.01478857,22,22213,‐,2
1008,n00926,資生堂企業資料館・アートハウス,掛川市下俣751-1,34.76578142,138.00049774,22,22213,‐,2
1009,n00927,掛川市二の丸美術館,掛川市掛川1142-1,34.77583333,138.01444444,22,22213,‐,2
1010,n00928,加茂花菖蒲園,掛川市原里110,34.8260351,137.96492129,22,22213,‐,4
1011,n00929,粟ヶ岳,掛川市東山1050-1,34.841869,138.067564,22,22213,‐,1
1012,n00930,つま恋,掛川市満水2000,34.76972222,138.04944444,22,22213,‐,4
1013,n00931,掛川大祭（１０月）,掛川市,34.768806,137.998357,22,22213,‐,1
1014,n00932,納涼まつり（掛川市）（７月）,掛川市,34.768806,137.998357,22,22213,‐,1
1015,n00933,二の丸茶室,掛川市掛川1138-24,34.774604,138.014507,22,22213,‐,2
1016,n00934,森の都温泉ならここの湯,掛川市居尻179,34.87566368,138.01629468,22,22213,‐,3
1017,n00935,掛川花鳥園,掛川市南西郷1517,34.76134019,138.01512363,22,22213,‐,4
1018,n00936,観光農園サンサンファーム,掛川市大渕1456-312,34.66277778,138.01611111,22,22213,‐,5
1019,n00937,物産センターサンサンファーム,掛川市大渕1456-312,34.66277778,138.01611111,22,22213,‐,5
1020,n00938,三熊野神社大祭　（４月）,掛川市,34.682483,137.983489,22,22213,‐,1
1021,n00939,遠州横須賀街道ちっちゃな文化展（１０月）,掛川市,34.682051,137.981414,22,22213,‐,1
1022,n00940,掛川戦国城下市,掛川市,34.774881,138.014048,22,22213,‐,1
1023,n00941,大浜公園桜花見　（４月）,掛川市,34.67583333,138.03333333,22,22213,‐,1
1024,n00942,高天神城跡,掛川市,34.69833333,138.035,22,22213,‐,2
1025,n00943,キウイフルーツ・カントリー　Ｊａｐａｎ,掛川市上内田2040,34.75138889,138.05138889,22,22213,‐,4
1026,n00944,中八坂神社祇園祭　（１０月）,掛川市,34.691773,138.06583,22,22213,‐,1
1027,n00945,ねむの木こども美術館・吉行淳之介文学館,掛川市上垂木あかしあ通り1-1,34.828638,137.99743,22,22213,‐,4
1028,n00946,龍尾神社の花庭園,掛川市下西郷84,34.78277778,138.01694444,22,22213,‐,4
1029,n00947,道の駅掛川,掛川市八坂882-1,34.79416667,138.07611111,22,22213,‐,6
1030,n00948,大東温泉シートピア,掛川市,34.6484864,138.06692676,22,22213,‐,3
1031,n00949,掛川商工まつり　（１１月）,掛川市,34.768806,137.998357,22,22213,‐,1
1032,n00950,ちいねり　（９月）,掛川市,34.768806,137.998357,22,22213,‐,1
1033,n00951,赤ずきんちゃんのおもしろ農園,掛川市大渕1456-320,34.6625,138.01805556,22,22213,‐,5
1034,n00952,掛川新茶マラソン（４月）,掛川市,34.768806,137.998357,22,22213,‐,1
1035,n00953,横須賀城跡,掛川市,34.68527778,137.97083333,22,22213,‐,2
1036,n00954,西大谷ダムへら鮒釣り,掛川市,34.71032966,137.99381347,22,22213,‐,4
1037,n00955,ならここの里,掛川市,34.874963,138.015718,22,22213,‐,4
1038,n00956,明ヶ島キャンプ場,掛川市,34.901704,138.011423,22,22213,‐,4
1039,n00957,川坂屋,掛川市,34.802662,138.076186,22,22213,‐,2
1040,n00958,七草粥ウォーキング（１月）,掛川市,34.768806,137.998357,22,22213,‐,1
1041,n00959,清水邸庭園,掛川市,34.68206,137.978888,22,22213,‐,2
1042,n00960,大須賀町民俗資料館,掛川市,34.672678,138.009815,22,22213,‐,2
1043,n00961,遠州横須賀凧揚げまつり　（２月）,掛川市,34.676125,137.972635,22,22213,‐,1
1044,n00962,ちっちゃな盆踊り大会　（８月）,掛川市,34.682402,137.975528,22,22213,‐,1
1045,n00963,吉岡弥生記念館,掛川市,34.706545,138.048002,22,22213,‐,2
1046,n00964,観光地引網,掛川市,34.768806,137.998357,22,22213,‐,4
1047,n00965,掛川・大東遠州灘砂の祭典,掛川市,34.65944,138.01336,22,22213,‐,1
1048,n00966,大日本報徳社,掛川市,34.776049,138.01508,22,22213,‐,2
1049,n00967,上垂木ホタルの里（５・６月）,掛川市,34.814478,137.991474,22,22213,‐,4
1050,n00968,ストリートパフォーマンス”ＭＡＴＳＵＲＩ”（８月）,掛川市,34.669762,138.045989,22,22213,‐,1
1051,n00969,西の市,掛川市,34.768806,137.998357,22,22213,‐,6
1052,n00970,掛川観光協会ビジターセンター「旅のスイッチ」,掛川市南1-1-1,34.769414,138.015533,22,22213,‐,6
1053,n00971,竹の丸,掛川市,34.776706,138.014618,22,22213,‐,2
1054,n00972,ミオス菊川ＣＣ,掛川市小貫1357,34.72666667,138.0375,22,22213,‐,4
1055,n00973,掛川を知るWEEK（５月）,掛川市,34.768806,137.998357,22,22213,‐,1
1056,n00974,静岡よみうりＣＣ,掛川市家代1188,34.79611111,137.96833333,22,22213,‐,4
1057,n00975,掛川グリーンヒルＣＣ,掛川市寺島1000,34.832823,137.957877,22,22213,‐,4
1058,n00976,掛川菖蒲ヶ池Ｇ,掛川市,34.797013,137.992429,22,22213,‐,4
1059,n00977,オーシャンＧＣ,掛川市,34.669306,137.974241,22,22213,‐,4
1060,n00978,オーシャンＧＣ,掛川市,34.669306,137.974241,22,22213,‐,4
1061,n00979,史跡　田中城下屋敷,藤枝市,34.87138889,138.27833333,22,22214,‐,2
1062,n00980,志太郡衙跡,藤枝市,34.86222641,138.24173361,22,22214,‐,2
1063,n00981,藤枝市郷土博物館・文学館,藤枝市,34.87616341,138.25674616,22,22214,‐,2
1064,n00982,西益津温水プール,藤枝市,34.86527778,138.27444444,22,22214,‐,4
1065,n00983,大洲温水プール,藤枝市,34.82438631,138.23839191,22,22214,‐,4
1066,n00984,藤枝成田山初詣,藤枝市,34.878108,138.268671,22,22214,‐,1
1067,n00985,清水山縁日,藤枝市,34.88585,138.231275,22,22214,‐,1
1068,n00986,飽波神社初詣,藤枝市,34.870115,138.257498,22,22214,‐,1
1069,n00987,飽波神社例祭,藤枝市,34.870115,138.257498,22,22214,‐,1
1070,n00988,藤枝大祭り,藤枝市,34.867367,138.257458,22,22214,‐,1
1071,n00989,藤枝花火大会,藤枝市,34.874901,138.25424,22,22214,‐,1
1072,n00990,金比羅山・瀬戸川桜まつり,藤枝市,34.849217,138.253029,22,22214,‐,1
1073,n00991,藤枝蓮華寺池公園藤まつり,藤枝市,34.875813,138.256739,22,22214,‐,1
1074,n00992,せとやまるかじり,藤枝市,34.867367,138.257458,22,22214,‐,1
1075,n00993,全国PK選手権大会ｉｎＦＵＪＩＥＤＡ,藤枝市,34.881491,138.232765,22,22214,‐,1
1076,n00994,瀬戸谷温泉ゆらく,藤枝市,34.92836437,138.20429832,22,22214,‐,3
1077,n00995,静岡県武道館,藤枝市,34.845314,138.251518,22,22214,‐,4
1078,n00996,農業生産法人ジャパンベリー,藤枝市,34.83277778,138.24138889,22,22214,‐,2
1079,n00997,藤枝総合運動公園,藤枝市,34.88027778,138.23277778,22,22214,‐,4
1080,n00998,藤枝市民体育館,藤枝市,34.848216,138.247206,22,22214,‐,4
1081,n00999,藤枝市武道館,藤枝市,34.84861111,138.24694444,22,22214,‐,4
1082,n01000,玉露の里　瓢月亭,藤枝市,34.94997144,138.25061511,22,22214,‐,2
1083,n01001,東海道藤枝宿・岡部宿いきいきまつり,藤枝市,34.872187,138.258123,22,22214,‐,1
1084,n01002,ふじえだ産業祭,藤枝市,34.867367,138.257458,22,22214,‐,1
1085,n01003,大旅籠柏屋歴史資料館,藤枝市,34.91937,138.282638,22,22214,‐,2
1086,n01004,白ふじの里,藤枝市北方481-1,34.919524,138.242987,22,22214,‐,2
1087,n01005,市民グラウンド,藤枝市,34.866056,138.234722,22,22214,‐,4
1088,n01006,朝比奈大龍勢,藤枝市,34.949022,138.254994,22,22214,‐,1
1089,n01007,玉露の里　茶の華亭,藤枝市,34.950729,138.251558,22,22214,‐,2
1090,n01008,玉露の里春まつり,藤枝市,34.95110273,138.25128304,22,22214,‐,1
1091,n01009,藤枝勤労者体育館,藤枝市,34.824156,138.235045,22,22214,‐,4
1092,n01010,藤枝大観音,藤枝市,34.915787,138.238528,22,22214,‐,2
1093,n01011,藤枝らんの里,藤枝市,34.917132,138.244465,22,22214,‐,2
1094,n01012,千貫堤・瀬戸染飯伝承館,藤枝市,34.845237,138.236661,22,22214,‐,2
1095,n01013,陶芸センター,藤枝市,34.935851,138.20356,22,22214,‐,6
1096,n01014,大久保キャンプ場,藤枝市,34.964331,138.179938,22,22214,‐,4
1097,n01015,大久保グラススキー場,藤枝市,34.964872,138.179576,22,22214,‐,4
1098,n01016,鬼岩寺例祭,藤枝市,34.873108,138.250387,22,22214,‐,1
1099,n01017,成田山火渡り,藤枝市,34.878108,138.268671,22,22214,‐,1
1100,n01018,藤枝成田山節分,藤枝市,34.878108,138.268671,22,22214,‐,1
1101,n01019,もみじまつり,藤枝市,34.849217,138.253029,22,22214,‐,1
1102,n01020,つたの細道公園みどりまつり,藤枝市,34.931025,138.306866,22,22214,‐,1
1103,n01021,大久保お～たむまつり,藤枝市,34.964872,138.179576,22,22214,‐,1
1104,n01022,ふじえだマラソン,藤枝市,34.867367,138.257458,22,22214,‐,1
1105,n01023,藤枝リバティ駅伝,藤枝市,34.867367,138.257458,22,22214,‐,1
1106,n01024,明治製菓東海工場,藤枝市小石川町4-22-1,34.85573,138.268238,22,22214,‐,2
1107,n01025,志太温泉,藤枝市,34.868123,138.232472,22,22214,‐,3
1108,n01026,スポーツパル高根の郷,藤枝市,34.966244,138.190004,22,22214,‐,4
1109,n01027,中外製薬藤枝工場,藤枝市,34.850295,138.278932,22,22214,‐,2
1110,n01028,岡部民宿日帰り（５件計）,藤枝市,34.867367,138.257458,22,22214,‐,4
1111,n01029,岡部宿街道文化祭り,藤枝市,34.867367,138.257458,22,22214,‐,1
1112,n01030,玉露の里まつり（お茶まつり）,藤枝市,34.950729,138.251558,22,22214,‐,1
1113,n01031,藤枝MYFC初蹴り大祭,藤枝市,34.881491,138.232765,22,22214,‐,1
1114,n01032,て～しゃばストリート１０５,藤枝市,34.849633,138.251959,22,22214,‐,1
1115,n01033,バスクリン藤枝工場,藤枝市谷稲葉242-1,34.868739,138.224325,22,22214,‐,2
1116,n01034,藤枝フレッシュミュージックフェスティバル,藤枝市岡部町新舟1214-3,34.950729,138.251558,22,22214,‐,1
1117,n01035,スポーツ＆健康フェスタｉｎふじえだ,藤枝市,34.867367,138.257458,22,22214,‐,1
1118,n01036,藤枝ＧＣ,藤枝市内瀬戸1193,34.85666667,138.21638889,22,22214,‐,4
1119,n01037,フードスマイルフェスティバル,藤枝市,34.867367,138.257458,22,22214,‐,1
1120,n01038,大井川河川敷グラウンドゴルフ場,藤枝市,34.821286,138.23432,22,22214,‐,4
1121,n01039,富士山新五合目御殿場口,御殿場市,35.33555556,138.79527778,22,22215,‐,1
1122,n01040,駒門風穴,御殿場市,35.250122,138.914193,22,22215,‐,1
1123,n01041,秩父宮記念公園,御殿場市,35.288724,138.95215,22,22215,‐,2
1124,n01042,時の栖美術館,御殿場市,35.236094,138.925777,22,22215,‐,2
1125,n01043,キリンディスティラリー（株）御殿場工場,御殿場市,35.33648545,138.89715653,22,22215,‐,2
1126,n01044,御胎内清宏園,御殿場市,35.29833333,138.8625,22,22215,‐,4
1127,n01045,平和公園（御殿場市）,御殿場市,35.28661495,138.95266367,22,22215,‐,4
1128,n01046,オアシス御殿場,御殿場市,35.29861111,138.945,22,22215,‐,3
1129,n01047,御胎内温泉健康センター,御殿場市,35.296528,138.867467,22,22215,‐,3
1130,n01048,御殿場市温泉会館,御殿場市,35.29055556,138.96694444,22,22215,‐,3
1131,n01049,富士八景の湯,御殿場市,35.28888889,138.97166667,22,22215,‐,3
1132,n01050,御殿場高原温泉（天然温泉気楽坊）,御殿場市,35.23536493,138.92588466,22,22215,‐,3
1133,n01051,御殿場高原ビール,御殿場市,35.23575067,138.92487344,22,22215,‐,5
1134,n01052,御殿場プレミアムアウトレット,御殿場市,35.30805556,138.96305555,22,22215,‐,5
1135,n01053,富士山太鼓まつり,御殿場市,35.296528,138.867467,22,22215,‐,1
1136,n01054,夏祭り歩行者天国（御殿場市）,御殿場市,35.30867,138.934609,22,22215,‐,1
1137,n01055,三井住友ＶＩＳＡ太平洋マスターズ,御殿場市,35.28445049,138.87571034,22,22215,‐,1
1138,n01056,農協祭（ＪＡ御殿場）,御殿場市,35.291481,138.878149,22,22215,‐,1
1139,n01057,乙女森林公園キャンプ場第１キャンプ場,御殿場市,35.29068258,138.9679505,22,22215,‐,4
1140,n01058,御殿場桜まつり,御殿場市,35.288724,138.95215,22,22215,‐,1
1141,n01059,富士総合火力演習,御殿場市,35.294088,138.853664,22,22215,‐,1
1142,n01060,富士山スカイドリームス,御殿場市,35.332485,138.880305,22,22215,‐,1
1143,n01061,東山旧岸邸,御殿場市東山1082-1,35.294527,138.960527,22,22215,‐,2
1144,n01062,東山湖フィッシングエリア,御殿場市,35.29166667,138.95791847,22,22215,‐,4
1145,n01063,よさこい御殿場,御殿場市,35.296706,138.869089,22,22215,‐,1
1146,n01064,前島秀章美術館,御殿場市,35.236094,138.925776,22,22215,‐,2
1147,n01065,富士万葉植物園,御殿場市,35.298784,138.869558,22,22215,‐,2
1148,n01066,御殿場まるびオートキャンプ場,御殿場市,35.294072,138.866575,22,22215,‐,4
1149,n01067,ライディングクラブフジファーム,御殿場市,35.278347,138.877402,22,22215,‐,4
1150,n01068,乗馬クラブアルカディア,御殿場市,35.334372,138.885479,22,22215,‐,4
1151,n01069,相模乗馬研究所,御殿場市,35.290161,138.869085,22,22215,‐,4
1152,n01070,乙女森林公園キャンプ場第２キャンプ場,御殿場市,35.287227,138.972031,22,22215,‐,4
1153,n01071,ミナミテニスクラブ,御殿場市,35.286617,138.938503,22,22215,‐,4
1154,n01072,御殿場欅平ファミリーキャンプ場,御殿場市,35.283599,138.867609,22,22215,‐,4
1155,n01073,乗馬クラブニューシーズン,御殿場市,35.286877,138.937862,22,22215,‐,4
1156,n01074,ウエスタンライディングクラブロッキー,御殿場市,35.326213,138.879701,22,22215,‐,4
1157,n01075,たくみの郷,御殿場市,35.294157,138.867512,22,22215,‐,1
1158,n01076,柳池ヘラブナセンター,御殿場市,35.311679,138.891584,22,22215,‐,1
1159,n01077,富士登山駅伝,御殿場市,35.30867,138.934609,22,22215,‐,1
1160,n01078,さわやかウォーキング,御殿場市,35.300479,138.934343,22,22215,‐,1
1161,n01079,富士ＣＣ,御殿場市,35.29677017,138.96728002,22,22215,‐,4
1162,n01080,御殿場ＧＣ,御殿場市,35.25466442,138.94678898,22,22215,‐,4
1163,n01081,太平洋Ｃ御殿場,御殿場市,35.28445049,138.87571034,22,22215,‐,4
1164,n01082,東名御殿場ＣＣ,御殿場市,35.235729,138.950122,22,22215,‐,4
1165,n01083,富士御殿場ＧＣ,御殿場市,35.27305555,138.89694444,22,22215,‐,4
1166,n01084,ベルビュー長尾ＧＣ,御殿場市,35.25851748,138.96488844,22,22215,‐,4
1167,n01085,小田原ＧＣ日動御殿場,御殿場市,35.23694444,138.94,22,22215,‐,4
1168,n01086,太平洋Ｃ御殿場ウエスト,御殿場市,35.28472222,138.85555556,22,22215,‐,4
1169,n01087,富士平原ＧＣ,御殿場市,35.34444444,138.88833333,22,22215,‐,4
1170,n01088,よさこいクリスマスカーニバル,御殿場市,35.304606,138.94026,22,22215,‐,1
1171,n01089,富士山交流センター（富士山樹空の森）,御殿場市,35.296706,138.869089,22,22215,‐,4
1172,n01090,西御殿場ゴルフクラブ,御殿場市,35.2784683,138.89757561,22,22215,‐,4
1173,n01091,高嶺パブリックゴルフクラブ,御殿場市,35.34132471,138.91311974,22,22215,‐,4
1174,n01092,秋葉総本殿可睡斎,袋井市久能2915-1,34.774694,137.920065,22,22216,‐,2
1175,n01093,法多山尊永寺,袋井市豊沢2777,34.737716,137.977209,22,22216,‐,2
1176,n01094,医王山油山寺,袋井市村松1,34.785501,137.936012,22,22216,‐,2
1177,n01095,可睡ゆりの園,袋井市久能2990-1,34.773796,137.921356,22,22216,‐,2
1178,n01096,香りの丘茶ピア,袋井市岡崎7157-1,34.727437,137.951128,22,22216,‐,2
1179,n01097,山梨祇園祭,袋井市,34.741708,137.925321,22,22216,‐,1
1180,n01098,法多山星満夜・星供祭,袋井市,34.737716,137.977209,22,22216,‐,1
1181,n01099,法多山田遊祭,袋井市,34.737716,137.977209,22,22216,‐,1
1182,n01100,東海道どまん中茶屋,袋井市袋井339,34.748976,137.925307,22,22216,‐,2
1183,n01101,法多山万灯祭,袋井市,34.737716,137.977209,22,22216,‐,1
1184,n01102,ふくろい遠州の花火,袋井市,34.74666667,137.94111111,22,22216,‐,1
1185,n01103,法多山節分祭,袋井市,34.737716,137.977209,22,22216,‐,1
1186,n01104,可睡斎年頭祈願,袋井市,34.774694,137.920065,22,22216,‐,1
1187,n01105,法多山桜まつり,袋井市,34.737716,137.977209,22,22216,‐,1
1188,n01106,可睡斎奥之院不動尊大祭奉納花火,袋井市,34.774694,137.920065,22,22216,‐,1
1189,n01107,袋井まつり,袋井市,34.75016,137.924622,22,22216,‐,1
1190,n01108,袋井夏まつり,袋井市,34.75016,137.924622,22,22216,‐,1
1191,n01109,袋井農協祭,袋井市,34.727437,137.951128,22,22216,‐,1
1192,n01110,三社祭り（稚児流流鏑馬）,袋井市,34.68970174,137.9325916,22,22216,‐,1
1193,n01111,可睡斎ぼたんまつり,袋井市,34.774694,137.920065,22,22216,‐,1
1194,n01112,ふくろい新茶まつり,袋井市,34.737716,137.977209,22,22216,‐,1
1195,n01113,静岡スタジアム　エコパ,袋井市愛野2300-1,34.74340985,137.9709287,22,22216,‐,4
1196,n01114,天然温泉遠州「和の湯」,袋井市諸井2022-3,34.72896629,137.92357808,22,22216,‐,3
1197,n01115,月見の里学遊館,袋井市上山梨4-3-7,34.7868938,137.9021348,22,22216,‐,4
1198,n01116,デンマーク牧場,袋井市山崎5914-367,34.706915,137.97383,22,22216,‐,2
1199,n01117,火防大祭・秋葉の火まつり,袋井市,34.775079,137.919905,22,22216,‐,1
1200,n01118,御開帳,袋井市,34.724955,137.936792,22,22216,‐,1
1201,n01119,弘法大師祭,袋井市,34.737716,137.977209,22,22216,‐,1
1202,n01120,山門大施食会,袋井市,34.775079,137.919905,22,22216,‐,1
1203,n01121,星祭・中日大祭,袋井市,34.785501,137.936012,22,22216,‐,1
1204,n01122,彼岸会,袋井市,34.785501,137.936012,22,22216,‐,1
1205,n01123,百万遍念仏,袋井市,34.785501,137.936012,22,22216,‐,1
1206,n01124,フリーマーケット（茶ピア）,袋井市,34.726705,137.951019,22,22216,‐,1
1207,n01125,一意一願不動大祭,袋井市,34.737716,137.977209,22,22216,‐,1
1208,n01126,放生会,袋井市,34.774694,137.920065,22,22216,‐,1
1209,n01127,新春茶会,袋井市,34.727437,137.951128,22,22216,‐,1
1210,n01128,大念珠大祭,袋井市,34.785501,137.936012,22,22216,‐,1
1211,n01129,スプリングフェスタ,袋井市,34.75016,137.924622,22,22216,‐,1
1212,n01130,酒塚観音大祭,袋井市,34.774694,137.920065,22,22216,‐,1
1213,n01131,甲子大祭,袋井市,34.75016,137.924622,22,22216,‐,1
1214,n01132,百庫市,袋井市,34.774694,137.920065,22,22216,‐,1
1215,n01133,クラウンメロンマラソン大会,袋井市,34.754184,137.916961,22,22216,‐,1
1216,n01134,ＪＲさわやかウォーキング,袋井市,34.741481,137.925694,22,22216,‐,1
1217,n01135,袋井消防フェスタ,袋井市,34.75016,137.924622,22,22216,‐,1
1218,n01136,茶祖栄西禅師祭,袋井市,34.785501,137.936012,22,22216,‐,1
1219,n01137,青葉祭,袋井市,34.737716,137.977209,22,22216,‐,1
1220,n01138,施餓鬼法要会,袋井市,34.713589,137.932458,22,22216,‐,1
1221,n01139,平和の集い,袋井市,34.70703,137.97253,22,22216,‐,1
1222,n01140,御供米納め,袋井市,34.75016,137.924622,22,22216,‐,1
1223,n01141,牧場のコンサート,袋井市,34.706871,137.973474,22,22216,‐,1
1224,n01142,街道まつり,袋井市,34.75016,137.924622,22,22216,‐,1
1225,n01143,東海道五十三次シンポジウム,袋井市,34.75016,137.924622,22,22216,‐,1
1226,n01144,大祭り,袋井市,34.75016,137.924622,22,22216,‐,1
1227,n01145,メロン／コシヒカリオーナー（田植え・名札付け・収穫・稲刈り）,袋井市,34.75016,137.924622,22,22216,‐,1
1228,n01146,観光地引き網,袋井市,34.741708,137.925321,22,22216,‐,1
1229,n01147,浅羽町B＆G海洋センター,袋井市東同笠1648-1,34.671072,137.936568,22,22216,‐,4
1230,n01148,勤労者体育センター,袋井市上田町267-19,34.735732,137.93408,22,22216,‐,4
1231,n01149,あさっぱら市,袋井市,34.707861,137.931789,22,22216,‐,1
1232,n01150,コスモスまつり,袋井市,34.710311,137.938878,22,22216,‐,1
1233,n01151,ふれあい海岸祭り,袋井市,34.667948,137.914556,22,22216,‐,1
1234,n01152,ものづくりフェスタ,袋井市,34.75016,137.924622,22,22216,‐,1
1235,n01153,袋井市ふれあい夢市場,袋井市,34.707292,137.931675,22,22216,‐,1
1236,n01154,蛍まつり,袋井市,34.737716,137.977209,22,22216,‐,1
1237,n01155,全国だんごまつり,袋井市,34.737716,137.977209,22,22216,‐,1
1238,n01156,袋井観光センター,袋井市堀越538-1,34.756132,137.906036,22,22216,‐,5
1239,n01157,静岡カントリー袋井コース,袋井市,34.778421,137.947866,22,22216,‐,4
1240,n01158,葛城ＧＣ,袋井市,34.807609,137.92898,22,22216,‐,4
1241,n01159,東海道どまん中ふくろいツーデーウオーク,袋井市,34.754184,137.916961,22,22216,‐,1
1242,n01160,クラウンメロン支所,袋井市小山219,34.754311,137.899946,22,22216,‐,2
1243,n01161,柿・みかん狩り,下田市,34.679533,138.945316,22,22219,‐,5
1244,n01162,伊豆クルーズ,下田市外ヶ岡19,34.67456916,138.95275523,22,22219,‐,1
1245,n01163,下田ロープウェイ,下田市東本郷1-3-2,34.678861,138.946155,22,22219,‐,1
1246,n01164,豆州下田郷土資料館,下田市4-8-13,34.673242,138.939911,22,22219,‐,2
1247,n01165,了仙寺宝物館,下田市七軒町3-12-12,34.672155,138.942253,22,22219,‐,2
1248,n01166,下田海中水族館,下田市3-22-31,34.6661,138.945989,22,22219,‐,2
1249,n01167,白浜中央海水浴場,下田市白浜,34.701753,138.975913,22,22219,‐,4
1250,n01168,白浜大浜海水浴場,下田市,34.689299,138.97293,22,22219,‐,4
1251,n01169,外浦海水浴場,下田市外浦,34.674924,138.972199,22,22219,‐,4
1252,n01170,九十浜海水浴場,下田市須崎,34.666606,138.981152,22,22219,‐,4
1253,n01171,鍋田浜海水浴場,下田市,34.66666667,138.93611111,22,22219,‐,4
1254,n01172,多々戸浜海水浴場,下田市吉佐美,34.66055556,138.93194444,22,22219,‐,4
1255,n01173,入田浜海水浴場,下田市吉佐美,34.65833333,138.92666667,22,22219,‐,4
1256,n01174,吉佐美大浜海水浴場,下田市吉佐美,34.653201,138.919197,22,22219,‐,4
1257,n01175,田牛海水浴場,下田市田牛,34.640497,138.913755,22,22219,‐,4
1258,n01176,上原仏教美術館,下田市宇土金351,34.728222,138.925693,22,22219,‐,2
1259,n01177,下田太鼓まつり,下田市,34.676453,138.941795,22,22219,‐,1
1260,n01178,黒船祭,下田市,34.67482,138.950877,22,22219,‐,1
1261,n01179,あじさい祭,下田市,34.66807,138.946502,22,22219,‐,1
1262,n01180,アロエの花まつり,下田市,34.709802,138.981012,22,22219,‐,1
1263,n01181,水仙まつり,下田市,34.659196,138.987668,22,22219,‐,1
1264,n01182,ビックシャワー,下田市,34.653201,138.919197,22,22219,‐,1
1265,n01183,上原近代美術館,下田市宇土金341,34.72861111,138.92555555,22,22219,‐,2
1266,n01184,白浜海の祭典,下田市,34.689299,138.97293,22,22219,‐,1
1267,n01185,ベイ・ステージ下田ハーバーミュージアム,下田市外ヶ岡1-1,34.67459,138.950791,22,22219,‐,6
1268,n01186,大賀茂れんげ祭,下田市,34.676388,138.917257,22,22219,‐,1
1269,n01187,水仙ツーデーマーチ,下田市,34.679534,138.945318,22,22219,‐,1
1270,n01188,キャンドルカフェｉｎ下田,下田市,34.671665,138.94334,22,22219,‐,1
1271,n01189,風の花祭り,下田市,34.675903,138.955407,22,22219,‐,1
1272,n01190,香りの花まつり,下田市,34.6724,138.941411,22,22219,‐,1
1273,n01191,宝福寺お吉記念館,下田市1-18-26,34.676421,138.943077,22,22219,‐,2
1274,n01192,下田ＣＣ,下田市,34.71495667,138.87473939,22,22219,‐,4
1275,n01193,マリンフェスタ下田,下田市,34.674848,138.951613,22,22219,‐,1
1276,n01194,伊豆クルーズ（石廊崎遊覧船）,南伊豆町石廊崎55,34.67477107,138.95273494,22,22219,‐,1
1277,n01195,伊豆花＆てくもぐウォーキング,下田市,34.679533,138.945316,22,22219,‐,1
1278,n01196,富士サファリパーク,裾野市須山字藤原2255-27,35.26,138.81055555,22,22220,‐,2
1279,n01197,忠ちゃん牧場,裾野市須山2255-3108,35.2625,138.81694444,22,22220,‐,1
1280,n01198,イエティ,裾野市須山字藤原2428,35.30013753,138.76845385,22,22220,‐,4
1281,n01199,大野路ファミリーキャンプ場,裾野市須山2934-3,35.25833333,138.86138889,22,22220,‐,4
1282,n01200,裾野市中央公園,裾野市千福7-1,35.18422354,138.90409005,22,22220,‐,4
1283,n01201,ぐりんぱ,裾野市須山字藤原2427,35.29055556,138.78277778,22,22220,‐,4
1284,n01202,みどりまつり（裾野市中央公園）,裾野市,35.18422354,138.90409005,22,22220,‐,1
1285,n01203,すその夏まつり（裾野市運動公園）,裾野市,35.235512,138.894797,22,22220,‐,1
1286,n01204,ヘルシーパーク裾野,裾野市須山3408,35.247646,138.872051,22,22220,‐,3
1287,n01205,富士山資料館,裾野市須山2255-39,35.265,138.80722222,22,22220,‐,2
1288,n01206,レジャーランド一の瀬,裾野市茶畑1769,35.17166667,138.94583333,22,22220,‐,3
1289,n01207,十里木キャンプ場,裾野市須山2427-1,35.281457,138.791615,22,22220,‐,4
1290,n01208,富士山すそのパノラマロード菜の花&桜まつり,裾野市,35.247646,138.872051,22,22220,‐,1
1291,n01209,富士裾野高原マラソン大会,裾野市,35.235685,138.893391,22,22220,‐,1
1292,n01210,スタンレーレディス,裾野市,35.180997,138.886324,22,22220,‐,1
1293,n01211,すその阿波おどり,裾野市,35.173895,138.906718,22,22220,‐,1
1294,n01212,ファンケルクラシック,裾野市,35.225138,138.869694,22,22220,‐,1
1295,n01213,富士山すそのパノラマロードコスモスまつり,裾野市,35.247646,138.872051,22,22220,‐,1
1296,n01214,東名ＣＣ,裾野市桃園300,35.180997,138.886324,22,22220,‐,4
1297,n01215,ゴルフパーク・バンディ,裾野市須山字藤原2428,35.29377442,138.7808721,22,22220,‐,4
1298,n01216,ファイブハンドレッドＣ,裾野市千福953-2,35.20138889,138.8725,22,22220,‐,4
1299,n01217,裾野ＣＣ,裾野市今里1060,35.225138,138.869694,22,22220,‐,4
1300,n01218,全日本少年サッカー大会決勝大会,裾野市,35.235683,138.893402,22,22220,‐,1
1301,n01219,富士山国際雪合戦大会,裾野市,35.294298,138.783875,22,22220,‐,1
1302,n01220,ぶどう狩り,湖西市,34.718466,137.531626,22,22221,‐,4
1303,n01221,豊田佐吉記念館,湖西市,34.71038846,137.52781892,22,22221,‐,2
1304,n01222,ザ・ヴィラハマナコ,湖西市,34.75481668,137.5200481,22,22221,‐,5
1305,n01223,新居関所史料館,湖西市,34.6948757,137.56171389,22,22221,‐,2
1306,n01224,紀伊国屋旅籠資料館,湖西市,34.69472222,137.55972222,22,22221,‐,2
1307,n01225,わんぱくランド,湖西市,34.68222222,137.58638889,22,22221,‐,4
1308,n01226,新居弁天海水浴場,湖西市,34.68388889,137.58638889,22,22221,‐,4
1309,n01227,新居弁天海釣公園、海湖館,湖西市,34.68179531,137.58678272,22,22221,‐,4
1310,n01228,諏訪神社奉納花火,湖西市,34.694052,137.557257,22,22221,‐,1
1311,n01229,産業まつり「あらいじゃん」,湖西市,34.71843,137.531604,22,22221,‐,1
1312,n01230,女河浦海水浴場,湖西市,34.74183777,137.53843458,22,22221,‐,4
1313,n01231,キャトルセゾン,湖西市,34.76796147,137.52944502,22,22221,‐,5
1314,n01232,大倉戸観光農園　いちご狩り,湖西市,34.680449,137.535291,22,22221,‐,2
1315,n01233,本興寺,湖西市,34.717846,137.538045,22,22221,‐,2
1316,n01234,花見（本興寺）,湖西市,34.717846,137.538045,22,22221,‐,1
1317,n01235,おんやど白須賀,湖西市,34.68291351,137.50929256,22,22221,‐,1
1318,n01236,浜名湖ＣＣ,湖西市,34.68536876,137.5242785,22,22221,‐,4
1319,n01237,表浜名湖納涼花火大会,湖西市,34.71843,137.531604,22,22221,‐,1
1320,n01238,新居弁天潮干狩り,湖西市,34.718466,137.531626,22,22221,‐,1
1321,n01239,修善寺温泉の川畔旅館街と「独鈷の湯」、修禅寺,伊豆市,34.969967,138.925087,22,22222,温泉,-1
1322,n01240,ラフォーレ修善寺ＣＣ,伊豆市大平1529,34.956356,138.914829,22,22222,‐,4
1323,n01241,達磨山レストハウス,伊豆市大沢1018-1,34.975528,138.85122,22,22222,‐,5
1324,n01242,修善寺虹の郷,伊豆市修善寺4279-3,34.976531,138.905152,22,22222,‐,4
1325,n01243,ラフォーレ修善寺,伊豆市大平1529,34.956356,138.914829,22,22222,‐,6
1326,n01244,サイクルスポーツセンター,伊豆市大野1826,35.010359,139.014823,22,22222,‐,4
1327,n01245,秋季弘法忌　弘法大師奉納花火大会,伊豆市,34.97199581,138.92752556,22,22222,‐,1
1328,n01246,修善寺モミジまつり,伊豆市,34.972591,138.933064,22,22222,‐,1
1329,n01247,Ｔｈｉｓ伊豆収穫祭＆JAまつり伊豆,伊豆市,34.913369,138.891986,22,22222,‐,1
1330,n01248,修禅寺・宝物殿,伊豆市修善寺964,34.971496,138.927531,22,22222,‐,2
1331,n01249,筥湯（はこ湯）,伊豆市修善寺924-1,34.970561,138.928284,22,22222,‐,3
1332,n01250,万福　百笑の湯,伊豆市瓜生野410-1,34.98907806,138.94245333,22,22222,‐,3
1333,n01251,恋人岬,伊豆市小下田3135-7,34.866798,138.760264,22,22222,‐,1
1334,n01252,土肥達磨寺,伊豆市小下田463-1,34.869989,138.761633,22,22222,‐,2
1335,n01253,土肥金山,伊豆市土肥2726,34.90814073,138.79281419,22,22222,‐,2
1336,n01254,象牙美術宝庫,伊豆市小土肥485,34.92071871,138.79090229,22,22222,‐,2
1337,n01255,土肥海水浴場,伊豆市土肥,34.910402,138.789883,22,22222,‐,4
1338,n01256,小土肥海水浴場,伊豆市小土肥,34.92169162,138.78420744,22,22222,‐,4
1339,n01257,修善寺梅まつり,伊豆市,34.975111,138.920495,22,22222,‐,1
1340,n01258,ビーイズム（ＴＨＥ　１０１）,伊豆市土肥1177-1,34.891892,138.769901,22,22222,‐,4
1341,n01259,馬場温泉楠の湯,伊豆市土肥795-2,34.910444,138.798197,22,22222,‐,3
1342,n01260,浄蓮の滝観光センター,伊豆市湯ヶ島892-14,34.87275889,138.92380444,22,22222,‐,1
1343,n01261,昭和の森会館,伊豆市湯ケ島892-6,34.8553815,138.92186986,22,22222,‐,2
1344,n01262,天城ドーム,伊豆市上船原1120-1,34.913378,138.892019,22,22222,‐,4
1345,n01263,天城ふるさと広場スポーツ施設,伊豆市上船原1120-2,34.91473889,138.89550694,22,22222,‐,4
1346,n01264,土肥サマーフェスティバル,伊豆市,34.910706,138.789831,22,22222,‐,1
1347,n01265,湯の国会館,伊豆市青羽根188,34.932428,138.93402,22,22222,‐,3
1348,n01266,天城ほたる祭り,伊豆市,34.893946,138.928577,22,22222,‐,1
1349,n01267,伊豆月ヶ瀬梅林　梅まつり,伊豆市,34.912604,138.915033,22,22222,‐,1
1350,n01268,天城高原ベゴニアガーデン,伊豆市冷川1524,34.89107403,139.02885008,22,22222,‐,2
1351,n01269,萬城の滝,伊豆市地蔵堂767-3,34.90582261,138.99319972,22,22222,‐,1
1352,n01270,中伊豆ワイナリーシャトーＴＳ,伊豆市下白岩1433-27,34.98403417,138.99795333,22,22222,‐,2
1353,n01271,縄文之御神湯　日帰入湯,伊豆市下白岩1434?,34.977422,138.989835,22,22222,‐,3
1354,n01272,万天の湯　日帰入湯,伊豆市冷川1524-691,34.922092,139.01332,22,22222,‐,3
1355,n01273,伊豆市まるごとＴＯ－ＪＩ博覧会,伊豆市,34.97657,138.94672,22,22222,‐,2
1356,n01274,伊豆サイクルフェスティバル,伊豆市,35.010359,139.014823,22,22222,‐,1
1357,n01275,大薮温泉弁天の湯,伊豆市土肥61-3,34.914747,138.787981,22,22222,‐,3
1358,n01276,天城温泉プール,伊豆市市山571-1,34.900682,138.924909,22,22222,‐,4
1359,n01277,達磨山キャンプ場,伊豆市,34.973791,138.856131,22,22222,‐,4
1360,n01278,達磨山ロッジ,伊豆市大沢1018-1,34.975528,138.85122,22,22222,‐,4
1361,n01279,桂谷八十八カ所巡礼,伊豆市,34.972575,138.933039,22,22222,‐,1
1362,n01280,春季弘法忌　湯汲式,伊豆市修善寺,34.972575,138.933039,22,22222,‐,1
1363,n01281,修善寺温泉スマットル,伊豆市,34.972589,138.933107,22,22222,‐,1
1364,n01282,桂遊縁日,伊豆市,34.972589,138.933107,22,22222,‐,1
1365,n01283,奥の院春／秋の静寂（前奥の院午後の静寂）,伊豆市,34.972589,138.933107,22,22222,‐,1
1366,n01284,修禅寺御膳,伊豆市,34.971499,138.92755,22,22222,‐,1
1367,n01285,修善寺郷土資料館,伊豆市修善寺838-1,34.972591,138.933064,22,22222,‐,2
1368,n01286,龕附天正金鉱,伊豆市土肥2851,34.905883,138.790054,22,22222,‐,2
1369,n01287,フィッシングパーク土肥,伊豆市八木沢47,34.915126,138.788254,22,22222,‐,4
1370,n01288,屋形共同浴場,伊豆市土肥2791-21,34.908699,138.790461,22,22222,‐,3
1371,n01289,元湯温泉,伊豆市土肥1053-5,34.908508,138.801078,22,22222,‐,3
1372,n01290,菜の花舞台,伊豆市土肥,34.923476,138.7845,22,22222,‐,1
1373,n01291,夕鶴記念館,伊豆市湯ケ島176-2,34.893933,138.928559,22,22222,‐,2
1374,n01292,陶芸の家,伊豆市,34.91486,138.897553,22,22222,‐,6
1375,n01293,天城ふるさと広場キャンプ場,伊豆市上船原1120-1,34.916189,138.897663,22,22222,‐,4
1376,n01294,伊豆月ヶ瀬梅林　梅狩り,伊豆市,34.912687,138.914748,22,22222,‐,1
1377,n01295,日帰り（休憩）客数,伊豆市,34.97657389,138.9467075,22,22222,‐,5
1378,n01296,ＡＭＡＧＩの収穫祭,伊豆市,34.913378,138.892019,22,22222,‐,1
1379,n01297,萬城の滝キャンプ場,伊豆市地蔵堂776-1,34.907034,138.994347,22,22222,‐,4
1380,n01298,萬城の滝まつり,伊豆市,34.907034,138.994347,22,22222,‐,1
1381,n01299,グリーンツーリズム,伊豆市,34.97659,138.946714,22,22222,‐,1
1382,n01300,てくもぐウォーク,伊豆市,34.97659,138.946714,22,22222,‐,1
1383,n01301,東京ラスク　伊豆ファクトリー,伊豆市市山550,34.90129139,138.92536333,22,22222,‐,5
1384,n01302,天城ミュージアム,伊豆市湯ヶ島176-2,34.893933,138.928559,22,22222,‐,2
1385,n01303,修善寺ＣＣ,伊豆市日向965,34.95628972,138.95848722,22,22222,‐,4
1386,n01304,伊豆国際ＣＣ,伊豆市堀切1004-5,34.97688214,138.89314621,22,22222,‐,4
1387,n01305,新・天城にっかつゴルフ倶楽部,伊豆市大平柿木1190?1,34.94785002,138.91375258,22,22222,‐,4
1388,n01306,伊豆スカイラインカントリー倶楽部,伊豆市上白岩2067-25,34.98886972,139.03300306,22,22222,‐,4
1389,n01307,伊豆ゴルフ倶楽部,伊豆市地蔵堂845-67,34.90015444,138.97757611,22,22222,‐,4
1390,n01308,中伊豆グリーンクラブ,伊豆市冷川1521-108,34.91735861,139.03441861,22,22222,‐,4
1391,n01309,湯ヶ島ゴルフ倶楽部＆ホテル董苑,伊豆市湯ヶ島2571-10,34.88109694,138.88864833,22,22222,‐,4
1392,n01310,天城高原ゴルフコース,伊豆市菅引638-83,34.8716749,139.02408146,22,22222,‐,4
1393,n01311,山海フェア,伊豆市土肥,34.910483,138.790902,22,22222,‐,1
1394,n01312,天城路もみじまつり,伊豆市,34.976586,138.946704,22,22222,‐,1
1395,n01313,御前崎海岸,御前崎市,34.59492513,138.22610484,22,22223,‐,1
1396,n01314,御前埼灯台,御前崎市,34.595841,138.22572,22,22223,‐,1
1397,n01315,磯遊び（御前崎海岸）,御前崎市,34.595143,138.225324,22,22223,‐,1
1398,n01316,御前崎海水浴場,御前崎市,34.60641402,138.22838896,22,22223,‐,4
1399,n01317,御前崎みなと夏祭,御前崎市,34.606467,138.225781,22,22223,‐,1
1400,n01318,なぶら館,御前崎市,34.60531334,138.22491258,22,22223,‐,2
1401,n01319,御前崎大産業まつり,御前崎市,34.637977,138.128148,22,22223,‐,1
1402,n01320,フィールアース,御前崎市,34.606467,138.225781,22,22223,‐,1
1403,n01321,初日の出,御前崎市,34.637977,138.128148,22,22223,‐,1
1404,n01322,なぶら市場,御前崎市,34.6054263,138.22388261,22,22223,‐,5
1405,n01323,桜ヶ池,御前崎市,34.64189721,138.14473356,22,22223,‐,1
1406,n01324,浜岡砂丘,御前崎市,34.62996609,138.12142192,22,22223,‐,1
1407,n01325,浜岡原子力館,御前崎市,34.62888889,138.14138889,22,22223,‐,2
1408,n01326,桜ヶ池「納櫃祭」,御前崎市,34.64118615,138.14456916,22,22223,‐,1
1409,n01327,すいすいパーク　ぷるる,御前崎市,34.65104,138.141553,22,22223,‐,4
1410,n01328,あらさわふる里公園,御前崎市,34.67916667,138.14277778,22,22223,‐,4
1411,n01329,静岡カントリー浜岡コース＆ホテル（レストラン）,御前崎市,34.6545344,138.0954263,22,22223,‐,6
1412,n01330,ウインドブロー,御前崎市,34.637977,138.128148,22,22223,‐,1
1413,n01331,マリンスポーツ大会,御前崎市,34.637977,138.128148,22,22223,‐,1
1414,n01332,清川泰次芸術館,御前崎市,34.597572,138.221522,22,22223,‐,2
1415,n01333,御前崎の花火,御前崎市,34.606467,138.225781,22,22223,‐,1
1416,n01334,自由食環,御前崎市,34.637977,138.128148,22,22223,‐,1
1417,n01335,ディスクドックフェスティバル,御前崎市,34.606467,138.225781,22,22223,‐,1
1418,n01336,プラネットブルーサーフクラブ,御前崎市,34.609434,138.216983,22,22223,‐,1
1419,n01337,観光農園,御前崎市,34.637977,138.128148,22,22223,‐,4
1420,n01338,御前崎カジキまつり,御前崎市,34.612942,138.219101,22,22223,‐,1
1421,n01339,静岡カントリー浜岡コース（ゴルフ）,御前崎市,34.6545344,138.0954263,22,22223,‐,4
1422,n01340,静岡カントリー浜岡コース,御前崎市門屋2070-2,34.6545344,138.0954263,22,22223,‐,4
1423,n01341,牧之原の茶畑,菊川市,34.744713,138.139057,22,22224,郷土景観,-1
1424,n01342,ブルーベリーの郷,菊川市,34.69805556,138.11611111,22,22224,‐,2
1425,n01343,菊川名物　夜店市,菊川市,34.761116,138.08542,22,22224,‐,1
1426,n01344,ＯＤＯＲＡ　ＴＨＥ　菊川,菊川市,34.745941,138.089652,22,22224,‐,1
1427,n01345,ＪＡ夢咲フェスティバル,菊川市,34.700035,138.092332,22,22224,‐,1
1428,n01346,応声教院,菊川市,34.73749,138.070464,22,22224,‐,2
1429,n01347,代官屋敷資料館,菊川市,34.698616,138.08438,22,22224,‐,2
1430,n01348,歴史街道館,菊川市,34.697969,138.082716,22,22224,‐,2
1431,n01349,火剣山キャンプ場,菊川市,34.802406,138.103644,22,22224,‐,4
1432,n01350,アロエ観光農園　南風園,菊川市,34.722905,138.13678,22,22224,‐,4
1433,n01351,アロエ健康園,菊川市,34.694722,138.086691,22,22224,‐,4
1434,n01352,横地城桜まつり,菊川市,34.727899,138.11548,22,22224,‐,1
1435,n01353,火剣山わらび祭り,菊川市,34.809626,138.105461,22,22224,‐,1
1436,n01354,水源祭,菊川市,34.757743,138.084567,22,22224,‐,1
1437,n01355,ホタル観賞会,菊川市,34.757743,138.084567,22,22224,‐,1
1438,n01356,富田ほたるを見る会,菊川市,34.788789,138.099268,22,22224,‐,1
1439,n01357,ふるさと夏まつりおがさ,菊川市,34.701267,138.090574,22,22224,‐,1
1440,n01358,丹野池RCヨット競技会,菊川市,34.731314,138.130578,22,22224,‐,1
1441,n01359,上倉沢棚田（田植え・稲刈り）,菊川市,34.794131,138.128415,22,22224,‐,1
1442,n01360,釈迦まつり,菊川市,34.761756,138.086148,22,22224,‐,1
1443,n01361,潮海寺八坂神社祇園祭り,菊川市,34.774548,138.092994,22,22224,‐,1
1444,n01362,秋まつり,菊川市,34.757743,138.084567,22,22224,‐,1
1445,n01363,ＪＲ東海 さわやかウォーキング,菊川市,34.76146,138.085409,22,22224,‐,1
1446,n01364,常葉美術館,菊川市,34.755948,138.081207,22,22224,‐,2
1447,n01365,菊川桜まつり　夜桜ライトアップ,菊川市,34.758771,138.081159,22,22224,‐,1
1448,n01366,菊川元気まつり,菊川市,34.757743,138.084567,22,22224,‐,1
1449,n01367,棚田あぜみちアート,菊川市,34.793549,138.127663,22,22224,‐,1
1450,n01368,田んぼアートｉｎ菊川（田植え・鑑賞会・収穫祭）,菊川市,34.710982,138.070143,22,22224,‐,1
1451,n01369,大頭龍神社例大祭,菊川市,34.747744,138.075213,22,22224,‐,1
1452,n01370,ふれあい広場,菊川市,34.694224,138.093533,22,22224,‐,1
1453,n01371,駅南朝市＆フリーマーケット＆グルメ,菊川市,34.761319,138.085388,22,22224,‐,1
1454,n01372,代官屋敷梅まつり,菊川市,34.699116,138.084302,22,22224,‐,1
1455,n01373,菊川ＣＣ,菊川市,34.78111111,138.10472222,22,22224,‐,4
1456,n01374,ホロンＧＣ,菊川市,34.792018,138.118218,22,22224,‐,4
1457,n01375,虚空蔵山節分祭,菊川市,34.683315,138.099652,22,22224,‐,1
1458,n01376,グリーンツーリズム事業,菊川市,34.757743,138.084567,22,22224,‐,1
1459,n01377,ほたる祭りｉｎ伊豆の国,伊豆の国市,35.027735,138.928921,22,22225,‐,1
1460,n01378,狩野川祭り,伊豆の国市,35.027735,138.928921,22,22225,‐,1
1461,n01379,伊豆の国パノラマパーク,伊豆の国市長岡260-1,35.02651591,138.92831788,22,22225,‐,1
1462,n01380,韮山反射炉,伊豆の国市中字鳴滝入268-1,35.039366,138.962056,22,22225,‐,2
1463,n01381,韮山郷土史料館,伊豆の国市韮山韮山2-4,35.05498,138.958423,22,22225,‐,2
1464,n01382,江川邸,伊豆の国市韮山韮山1,35.05458579,138.95921842,22,22225,‐,2
1465,n01383,みんなのＨａｗａｉｉａｎｓ,伊豆の国市田京195-2,35.01226053,138.94131072,22,22225,‐,2
1466,n01384,モビリティパークオートキャンプ場,伊豆の国市長者原1445-481,35.010591,139.026769,22,22225,‐,4
1467,n01385,伊豆の国市内温泉（日帰り入浴）,伊豆の国市,35.027741,138.928902,22,22225,‐,3
1468,n01386,大富農園,伊豆の国市北江間1124,35.05208936,138.9194021,22,22225,‐,2
1469,n01387,小坂みかん狩り園,伊豆の国市小坂1236,35.023735,138.932654,22,22225,‐,2
1470,n01388,江間いちご狩りセンター,伊豆の国市北江間563-7,35.056542,138.924435,22,22225,‐,2
1471,n01389,伊豆長岡いちご狩りセンター,伊豆の国市南江間1454,35.048489,138.917789,22,22225,‐,2
1472,n01390,韮山いちご狩りセンター,伊豆の国市韮山山木69-1,35.06027778,138.95722222,22,22225,‐,2
1473,n01391,伊豆の国市いちごまつり,伊豆の国市,35.056542,138.924435,22,22225,‐,1
1474,n01392,伊豆長岡温泉戦国花火大会・狩野川まつり,伊豆の国市,35.034943,138.938184,22,22225,‐,1
1475,n01393,きにゃんね大仁夏まつり,伊豆の国市,34.990584,138.939639,22,22225,‐,1
1476,n01394,源氏あやめ祭,伊豆の国市,35.034943,138.938184,22,22225,‐,1
1477,n01395,狩野川さくら祭り,伊豆の国市,35.047139,138.935898,22,22225,‐,1
1478,n01396,パン祖のパン祭,伊豆の国市,35.034943,138.938184,22,22225,‐,1
1479,n01397,伊豆の国農業まつり,伊豆の国市,35.05987,138.955793,22,22225,‐,1
1480,n01398,高齢者温泉交流館,伊豆の国市寺家679-6,35.04087,138.941214,22,22225,‐,3
1481,n01399,温泉館,伊豆の国市南條1603-1,35.039868,138.945365,22,22225,‐,3
1482,n01400,湯らっくすのゆ,伊豆の国市長岡157-5,35.032776,138.930024,22,22225,‐,3
1483,n01401,モビリティパークオフロードコース,伊豆の国市長者原1445-481,35.010591,139.026769,22,22225,‐,4
1484,n01402,長岡南浴場,伊豆の国市長岡1082-2,35.029365,138.93211,22,22225,‐,3
1485,n01403,伊豆長岡商工祭,伊豆の国市,35.02797,138.929244,22,22225,‐,1
1486,n01404,韮山商工祭,伊豆の国市,35.051961,138.9463,22,22225,‐,1
1487,n01405,農業まつり,伊豆の国市,35.05987,138.955793,22,22225,‐,1
1488,n01406,産業祭,伊豆の国市,35.057156,138.952052,22,22225,‐,1
1489,n01407,鵺ばらい祭,伊豆の国市,35.033585,138.929198,22,22225,‐,1
1490,n01408,下駄ダンスコンテスト,伊豆の国市,35.034943,138.938184,22,22225,‐,1
1491,n01409,芸妓まつり,伊豆の国市,35.034943,138.938184,22,22225,‐,1
1492,n01410,田中山すいか祭り,伊豆の国市,35.023491,138.990734,22,22225,‐,1
1493,n01411,狩野川能,伊豆の国市,35.034943,138.938184,22,22225,‐,1
1494,n01412,狩野川１００ｋｍサイクリング,伊豆の国市,35.034943,138.938184,22,22225,‐,1
1495,n01413,浮橋そばの里まつり,伊豆の国市,35.028982,139.009418,22,22225,‐,1
1496,n01414,おおひと梅まつり,伊豆の国市,34.99586,138.94055,22,22225,‐,1
1497,n01415,狩野川カヌーフェスティバル,伊豆の国市,35.03494,138.938184,22,22225,‐,1
1498,n01416,富士箱根ＣＣ,伊豆の国市,35.07360372,139.01028025,22,22225,‐,4
1499,n01417,伊豆にらやまＣＣ,伊豆の国市,35.0459478,139.00154414,22,22225,‐,4
1500,n01418,大熱海国際ＧＣ,伊豆の国市,35.02166667,139.035,22,22225,‐,4
1501,n01419,かわかんじょう,伊豆の国市,35.010144,138.936807,22,22225,‐,1
1502,n01420,伊豆大仁ＣＣ,伊豆の国市,35.03083333,139.02916667,22,22225,‐,4
1503,n01421,まゆ玉祭,伊豆の国市,35.031371,138.931668,22,22225,‐,1
1504,n01422,大熱海国際ＧＣ熱海コース,伊豆の国市,35.02166667,139.035,22,22225,‐,4
1505,n01423,花庄屋（大鐘家）,牧之原市片浜1032,34.71583333,138.21277778,22,22226,‐,2
1506,n01424,グリンピア牧之原,牧之原市西荻間1151,34.7375,138.14222222,22,22226,‐,2
1507,n01425,海水浴（さがらサンビーチ）,牧之原市相良,34.683666,138.205459,22,22226,‐,4
1508,n01426,さがら海上花火大会,牧之原市,34.68570471,138.20866361,22,22226,‐,1
1509,n01427,さがら草競馬大会,牧之原市,34.683666,138.205459,22,22226,‐,1
1510,n01428,海水浴（静波海水浴場）,牧之原市静波,34.731042,138.232276,22,22226,‐,4
1511,n01429,静波海水まつり花火大会,牧之原市,34.731025,138.232061,22,22226,‐,1
1512,n01430,さがら子生れ温泉会館,牧之原市,34.734825,138.160183,22,22226,‐,3
1513,n01431,海水浴（鹿島海水浴場）,牧之原市,34.724975,138.22565,22,22226,‐,4
1514,n01432,勝間田川堤桜花見,牧之原市,34.738827,138.219283,22,22226,‐,1
1515,n01433,勝間田公園つつじ花見,牧之原市,34.759834,138.188555,22,22226,‐,1
1516,n01434,東光寺長藤花見,牧之原市,34.73226,138.220785,22,22226,‐,1
1517,n01435,秋葉公園あじさい花見,牧之原市,34.734931,138.217696,22,22226,‐,1
1518,n01436,さがらサンビーチ初詣,牧之原市,34.683666,138.205459,22,22226,‐,1
1519,n01437,海の日イベント（Ｋ－ＭＩＸ公開放送ライブ）,牧之原市,34.740054,138.224644,22,22226,‐,1
1520,n01438,日本プロサーフィンツアー,牧之原市,34.740054,138.224644,22,22226,‐,1
1521,n01439,アロエランド,牧之原市,34.719164,138.215158,22,22226,‐,2
1522,n01440,シーサイドプール地頭方,牧之原市,34.629999,138.198879,22,22226,‐,4
1523,n01441,さがら凧あげ大会,牧之原市,34.683666,138.205459,22,22226,‐,2
1524,n01442,サマーフェスタ,牧之原市,34.740054,138.224644,22,22226,‐,1
1525,n01443,春の海岸イベント,牧之原市,34.683666,138.205459,22,22226,‐,1
1526,n01444,ビーチクリーンカップ,牧之原市,34.730777,138.231965,22,22226,‐,4
1527,n01445,藤田まさとを偲ぶ歌の祭典,牧之原市,34.680319,138.190314,22,22226,‐,1
1528,n01446,牧之原よさこい,牧之原市,34.740054,138.224644,22,22226,‐,1
1529,n01447,ビーチサッカー大会,牧之原市,34.731104,138.232092,22,22226,‐,1
1530,n01448,ジュニア・マスターズオープンサーフィン選手権大会,牧之原市,34.731104,138.232092,22,22226,‐,1
1531,n01449,ＷＩＮＤＢＬＯＷ（音楽イベント）,牧之原市,34.683666,138.205459,22,22226,‐,1
1532,n01450,ガールズコンテスト（サーフィン大会）,牧之原市,34.730945,138.231771,22,22226,‐,1
1533,n01451,相良ＣＣ,牧之原市東萩間1128-1,34.752593,138.158423,22,22226,‐,1
1534,n01452,LOVE THE EARTH １９ｔｈ,牧之原市,34.683666,138.205459,22,22226,‐,1
1535,n01453,アームレスリング大会,牧之原市,34.740054,138.224644,22,22226,‐,1
1536,n01454,石雲院展望デッキ,牧之原市,34.793565,138.183543,22,22226,‐,6
1537,n01455,熱川バナナワニ園,東伊豆町,34.816178,139.067874,22,22301,‐,2
1538,n01456,熱川海水浴場,東伊豆町,34.813737,139.071309,22,22301,‐,4
1539,n01457,伊豆アニマルキングダム,東伊豆町,34.796722,139.039697,22,22301,‐,4
1540,n01458,北川露天風呂,東伊豆町,34.83364,139.075973,22,22301,‐,3
1541,n01459,港の朝市,東伊豆町,34.77277039,139.04098409,22,22301,‐,1
1542,n01460,熱川温泉海上花火大会,東伊豆町,34.79969126,139.06221128,22,22301,‐,1
1543,n01461,雛のつるし飾りまつり,東伊豆町,34.766834,139.038741,22,22301,‐,1
1544,n01462,大川竹ヶ沢公園ほたる観賞の夕べ,東伊豆町,34.851185,139.062442,22,22301,‐,1
1545,n01463,収穫体験農園ふたつぼり,東伊豆町,34.77112254,139.03414718,22,22301,‐,2
1546,n01464,高磯の湯,東伊豆町,34.817856,139.074592,22,22301,‐,3
1547,n01465,潮風まつり,東伊豆町,34.772838,139.04131,22,22301,‐,1
1548,n01466,つるし端午の福まつり,東伊豆町,34.766425,139.038625,22,22301,‐,1
1549,n01467,山菜狩り,東伊豆町,34.794916,139.016458,22,22301,‐,1
1550,n01468,丸鉄園（みかん狩り）,東伊豆町,34.82124,139.054585,22,22301,‐,2
1551,n01469,樋ノ口園（みかん狩り）,東伊豆町,34.819085,139.050877,22,22301,‐,2
1552,n01470,太田農園,東伊豆町,34.821774,139.062405,22,22301,‐,2
1553,n01471,いちごらんど中西,東伊豆町,34.824575,139.06061,22,22301,‐,2
1554,n01472,丸鉄園（いちご狩り）,東伊豆町,34.82124,139.054585,22,22301,‐,2
1555,n01473,樋ノ口園（いちご狩り）,東伊豆町,34.819085,139.050877,22,22301,‐,2
1556,n01474,熱川スポーツビレッジテニスコート,東伊豆町,34.772842,139.041306,22,22301,‐,4
1557,n01475,池尻海岸,東伊豆町,34.767208,139.033366,22,22301,‐,1
1558,n01476,白田海浜プール,東伊豆町,34.801367,139.06224,22,22301,‐,4
1559,n01477,片瀬海浜プール,東伊豆町,34.84286,139.077167,22,22301,‐,4
1560,n01478,大川海岸,東伊豆町,34.842884,139.077489,22,22301,‐,1
1561,n01479,どんつく祭,東伊豆町,34.767301,139.038355,22,22301,‐,1
1562,n01480,ルネッサ稲取高原,東伊豆町,34.786694,139.03957,22,22301,‐,4
1563,n01481,大川露天風呂,東伊豆町,34.840669,139.076776,22,22301,‐,3
1564,n01482,稲取ＧＣ,東伊豆町,34.801151,139.018166,22,22301,‐,4
1565,n01483,とうきゅうカップ東伊豆クロスカントリー大会,東伊豆町,34.792524,139.041645,22,22301,‐,1
1566,n01484,メリダ宮田カップＩＮ東伊豆,東伊豆町,34.792524,139.041645,22,22301,‐,1
1567,n01485,片瀬温泉夏祭り,東伊豆町,34.808275,139.066798,22,22301,‐,1
1568,n01486,ｉＺＯＯ,河津町,34.73068,138.995029,22,22302,‐,2
1569,n01487,今井浜海水浴場,河津町,34.75138889,139.00416667,22,22302,‐,4
1570,n01488,サンシップ今井浜,河津町,34.752927,139.008609,22,22302,‐,3
1571,n01489,踊り子温泉会館,河津町,34.75861111,138.98361111,22,22302,‐,3
1572,n01490,河津桜祭り,河津町,34.757019,138.987553,22,22302,‐,1
1573,n01491,河津浜海水浴場,河津町,34.74416667,138.99861111,22,22302,‐,4
1574,n01492,河津バガテル公園,河津町,34.75277778,138.98194445,22,22302,‐,2
1575,n01493,かわづカーネーション園,河津町,34.75305556,138.99111111,22,22302,‐,1
1576,n01494,見高入谷高原温泉,河津町,34.776806,139.009861,22,22302,‐,3
1577,n01495,峰大噴湯公園,河津町,34.757313,138.982478,22,22302,‐,4
1578,n01496,今井浜花火大会,河津町,34.752312,139.005605,22,22302,‐,1
1579,n01497,かわづ花菖蒲園,河津町,34.75305556,138.99111111,22,22302,‐,1
1580,n01498,天城路もみじまつり（河津町）,河津町,34.798304,138.932334,22,22302,‐,1
1581,n01499,CYCLE：YA！,河津町,34.779391,138.96828,22,22302,‐,4
1582,n01500,アドベンチャーファミリー,河津町,34.796504,138.976163,22,22302,‐,4
1583,n01501,伊豆キャンパーズビレッジ,河津町,34.774419,138.976464,22,22302,‐,4
1584,n01502,伊豆今井浜オートキャンプ場,河津町,34.756947,139.016395,22,22302,‐,4
1585,n01503,河津オートキャンプ場,河津町,34.793867,138.978408,22,22302,‐,4
1586,n01504,河津七滝オートキャンプ場,河津町,34.799116,138.927478,22,22302,‐,4
1587,n01505,佐ケ野オートキャンプ場,河津町,34.800607,138.977601,22,22302,‐,4
1588,n01506,大池キャンプ場,河津町,34.787124,139.003636,22,22302,‐,4
1589,n01507,河津川灯篭流し,河津町,34.743679,138.99636,22,22302,‐,1
1590,n01508,湯ケ野踊り子祭り,河津町,34.776575,138.954358,22,22302,‐,1
1591,n01509,河津桜ツーデーマーチ,河津町,34.748001,138.993209,22,22302,‐,1
1592,n01510,花＆てくもぐウォーキング,河津町,34.74747,138.996129,22,22302,‐,1
1593,n01511,伊豆の踊り子ウォーキング,河津町,34.75069,138.991944,22,22302,‐,1
1594,n01512,伊豆ならんだの里　河津平安の仏像展示館,河津町,34.745429,138.980391,22,22302,‐,2
1595,n01513,下賀茂熱帯植物園,南伊豆町下賀茂255,34.650194,138.861097,22,22304,‐,2
1596,n01514,波勝崎苑,南伊豆町伊浜2622-1,34.693285,138.74738,22,22304,‐,2
1597,n01515,弓ヶ浜海水浴場,南伊豆町,34.63444444,138.89111111,22,22304,‐,4
1598,n01516,みなと湯,南伊豆町湊972,34.6375,138.88888889,22,22304,‐,3
1599,n01517,銀の湯会館,南伊豆町下賀茂247-1,34.649033,138.860219,22,22304,‐,3
1600,n01518,みなみの桜と菜の花まつり,南伊豆町,34.651089,138.858533,22,22304,‐,1
1601,n01519,南伊豆町伊勢えびまつり,南伊豆町,34.65142,138.862477,22,22304,‐,1
1602,n01520,伊豆下田ＣＣ,南伊豆町,34.63928049,138.80507078,22,22304,‐,4
1603,n01521,子浦海水浴場,南伊豆町,34.66999912,138.78798478,22,22304,‐,4
1604,n01522,一条竹の子村,南伊豆町一條717,34.696041,138.878009,22,22304,‐,4
1605,n01523,成晃園,南伊豆町大瀬560,34.614296,138.853081,22,22304,‐,4
1606,n01524,伊豆の長八美術館,松崎町松崎23,34.74878,138.776654,22,22305,‐,2
1607,n01525,長八記念館,松崎町松崎234-1,34.7496044,138.77687232,22,22305,‐,2
1608,n01526,重文岩科学校,松崎町岩科北側422,34.736517,138.786208,22,22305,‐,2
1609,n01527,明治商家中瀬邸,松崎町松崎315,34.75175,138.77778,22,22305,‐,2
1610,n01528,岩地海水浴場,松崎町岩地,34.738605,138.761178,22,22305,‐,4
1611,n01529,雲見海水浴場,松崎町雲見,34.726173,138.743625,22,22305,‐,4
1612,n01530,雲見シーサイドハウス,松崎町雲見654,34.72728808,138.74275493,22,22305,‐,4
1613,n01531,花の三聖苑かじかの湯,松崎町大澤19-2,34.757775,138.825443,22,22305,‐,3
1614,n01532,雲見くじら館,松崎町雲見387,34.726316,138.745081,22,22305,‐,2
1615,n01533,松崎海水浴場,松崎町江奈,34.756286,138.776529,22,22305,‐,4
1616,n01534,石部海水浴場,松崎町石部,34.732451,138.755174,22,22305,‐,4
1617,n01535,松崎地区秋まつり,松崎町,34.75277,138.778759,22,22305,‐,1
1618,n01536,岩地地区花火大会,松崎町,34.73795,138.760341,22,22305,‐,1
1619,n01537,雲見地区花火大会,松崎町,34.72623,138.74365,22,22305,‐,1
1620,n01538,松崎地区花火大会,松崎町,34.755011,138.77623,22,22305,‐,1
1621,n01539,岩地大漁まつり,松崎町,34.73821874,138.76082737,22,22305,‐,1
1622,n01540,田んぼをつかった花畑,松崎町,34.753847,138.795247,22,22305,‐,1
1623,n01541,長八まつり,松崎町,34.752771,138.778759,22,22305,‐,1
1624,n01542,雲見温泉海賊料理まつり,松崎町,34.726173,138.743625,22,22305,‐,1
1625,n01543,海のピカ市,松崎町,34.754315,138.774641,22,22305,‐,1
1626,n01544,伊豆半島太鼓フェスティバル,松崎町,34.756286,138.776529,22,22305,‐,1
1627,n01545,那賀川桜まつり,松崎町,34.757789,138.826266,22,22305,‐,1
1628,n01546,雲見温泉サザエ狩り,松崎町,34.726173,138.743625,22,22305,‐,1
1629,n01547,伊豆トレイルジャーニー,松崎町,34.752771,138.778759,22,22305,‐,4
1630,n01548,堂ヶ島マリン,西伊豆町,34.78222222,138.76777778,22,22306,‐,1
1631,n01549,らんの里堂ヶ島,西伊豆町,34.78274594,138.77066005,22,22306,‐,2
1632,n01550,加山雄三ミュージアム,西伊豆町,34.78270116,138.76868773,22,22306,‐,2
1633,n01551,クリスタルビーチ,西伊豆町,34.854257,138.776186,22,22306,‐,4
1634,n01552,宇久須海水浴場,西伊豆町,34.8475,138.77277778,22,22306,‐,4
1635,n01553,田子瀬浜海水浴場,西伊豆町,34.80305556,138.75583333,22,22306,‐,4
1636,n01554,浮島海水浴場,西伊豆町,34.79409005,138.75799687,22,22306,‐,4
1637,n01555,乗浜海水浴場,西伊豆町,34.77839113,138.76822984,22,22306,‐,4
1638,n01556,黄金崎海水浴場,西伊豆町,34.84347984,138.765875,22,22306,‐,4
1639,n01557,安良里海水浴場,西伊豆町,34.82975696,138.76768616,22,22306,‐,4
1640,n01558,大田子海水浴場,西伊豆町,34.80944692,138.76563822,22,22306,‐,4
1641,n01559,大浜海水浴場,西伊豆町,34.76888889,138.77361111,22,22306,‐,4
1642,n01560,沢田公園露天風呂,西伊豆町,34.77726,138.765689,22,22306,‐,3
1643,n01561,しおさいの湯,西伊豆町,34.79348,138.760536,22,22306,‐,3
1644,n01562,なぎさの湯,西伊豆町,34.768843,138.774561,22,22306,‐,3
1645,n01563,西天城高原牧場の家,西伊豆町,34.857279,138.838347,22,22306,‐,6
1646,n01564,堂ヶ島火祭り,西伊豆町,34.78165,138.76654,22,22306,‐,1
1647,n01565,黄金崎クリスタルパーク,西伊豆町,34.844106,138.768518,22,22306,‐,2
1648,n01566,堂ヶ島天草・ところてん祭り,西伊豆町,34.782633,138.769726,22,22306,‐,1
1649,n01567,せせらぎの湯,西伊豆町,34.774124,138.788819,22,22306,‐,3
1650,n01568,黄金崎公園,西伊豆町,34.842887,138.76253,22,22306,‐,1
1651,n01569,宇久須キャンプ場,西伊豆町,34.854257,138.776186,22,22306,‐,4
1652,n01570,黄金崎海岸スキューバダイビング,西伊豆町,34.842887,138.76253,22,22306,‐,4
1653,n01571,ふるさとまつり（黄金崎クリスタルパーク）,西伊豆町,34.844106,138.768518,22,22306,‐,1
1654,n01572,ふるさとまつり（安城岬ふれあい公園）,西伊豆町,34.771016,138.770214,22,22306,‐,1
1655,n01573,春・夕映えの響き（堂ヶ島）,西伊豆町,34.782103,138.767992,22,22306,‐,1
1656,n01574,秋・夕映えの響き（クリスタルビーチ）,西伊豆町,34.854257,138.776186,22,22306,‐,1
1657,n01575,黄金崎さくらまつり,西伊豆町,34.842887,138.76253,22,22306,‐,1
1658,n01576,堂ヶ島ビジターセンタ－,西伊豆町,34.782265,138.766401,22,22306,‐,2
1659,n01577,漁船乗り始め,西伊豆町,34.774425,138.770614,22,22306,‐,1
1660,n01578,サマーカーニバルｉｎ西伊豆（元気朝市他）,西伊豆町,34.771643,138.775286,22,22306,‐,1
1661,n01579,温泉入浴施設,西伊豆町,34.771643,138.775286,22,22306,‐,3
1662,n01580,宇久須温泉夏祭り,西伊豆町,34.854257,138.776186,22,22306,‐,1
1663,n01581,グリーンフェスティバル,西伊豆町,34.771643,138.775286,22,22306,‐,1
1664,n01582,やまびこ荘（温泉・プール）,西伊豆町,34.812764,138.826198,22,22306,‐,3
1665,n01583,十国峠ケーブルカー,函南町桑原国見嶽1400-20,35.12760909,139.03745766,22,22325,‐,1
1666,n01584,酪農王国オラッチェ,函南町丹那349-1,35.10333333,139.01472222,22,22325,‐,2
1667,n01585,湯～トピアかんなみ,函南町柏谷259,35.08222222,138.95194444,22,22325,‐,3
1668,n01586,ｉｎ狩野川かんなみ猫おどり,函南町,35.070713,138.924212,22,22325,‐,1
1669,n01587,かんなみ仏の里美術館,函南町桑原89-1,35.120045,138.972747,22,22325,‐,2
1670,n01588,函南ＧＣ富士コース,函南町桑原高雄山1315-25,35.142721,139.002635,22,22325,‐,4
1671,n01589,かんなみスプリングスＣＣ,函南町桑原1300-146,35.12361111,139.00055555,22,22325,‐,4
1672,n01590,函南ＧＣ箱根コース,函南町桑原高雄山1315-25,35.142721,139.002635,22,22325,‐,4
1673,n01591,箱根くらかけＧ,神奈川県箱根町箱根624-1,35.18197957,139.02144056,22,22325,‐,4
1674,n01592,木立キャンプ場,函南町桑原1331-7,35.149135,138.997703,22,22325,‐,4
1675,n01593,柿田川公園,清水町,35.10777778,138.90138889,22,22341,‐,1
1676,n01594,春の柿田川みどりまつり（清水町総合運動公園）,清水町,35.110879,138.9017,22,22341,‐,1
1677,n01595,秋の柿田川みどりまつり（清水町総合運動公園）,清水町,35.110879,138.9017,22,22341,‐,1
1678,n01596,湧水まつり（柿田川公園）,清水町,35.106455,138.901542,22,22341,‐,1
1679,n01597,狩野川ふれあいフェスタ（狩野川河川敷）,清水町,35.106981,138.904364,22,22341,‐,1
1680,n01598,スターライトタウンプロジェクト,清水町,35.106455,138.901542,22,22341,‐,1
1681,n01599,クレマチスの丘,長泉町東野347-1,35.17186988,138.87442856,22,22342,‐,2
1682,n01600,長泉わくわく祭り,長泉町,35.137696,138.897282,22,22342,‐,1
1683,n01601,長泉町産業祭,長泉町,35.137696,138.897282,22,22342,‐,1
1684,n01602,米山梅吉記念館,長泉町上土狩346-1,35.141376,138.90411,22,22342,‐,2
1685,n01603,富士竹類植物園,長泉町南一色885,35.161129,138.888145,22,22342,‐,2
1686,n01604,富士エースＧＣ,長泉町東野655-1,35.18777778,138.84416667,22,22342,‐,4
1687,n01605,三島ＧＣ,長泉町東野210-1,35.18760551,138.85725158,22,22342,‐,4
1688,n01606,桃沢キャンプ場,長泉町元長窪895-103,35.177259,138.848009,22,22342,‐,4
1689,n01607,さくらフェスタｉｎ長泉,長泉町,35.172662,138.870206,22,22342,‐,1
1690,n01608,富士国際ＧＣ,小山町用沢1442-23,35.353154,138.915308,22,22344,‐,4
1691,n01609,富士山五合目須走口,小山町,35.36626125,138.77840864,22,22344,‐,1
1692,n01610,冨士霊園,小山町,35.3675,138.90833333,22,22344,‐,4
1693,n01611,富士山の温泉　天恵,小山町,35.36833333,138.85944445,22,22344,‐,3
1694,n01612,金太郎夏まつり,小山町,35.336865,138.978961,22,22344,‐,1
1695,n01613,富士スピードウェイ,小山町,35.37033975,138.92671912,22,22344,‐,1
1696,n01614,道の駅ふじおやま,小山町,35.34444444,138.95,22,22344,‐,6
1697,n01615,金太郎春まつり,小山町,35.368539,138.986055,22,22344,‐,1
1698,n01616,あしがら温泉,小山町,35.327617,138.973004,22,22344,‐,3
1699,n01617,足柄峠笛まつり,小山町,35.320413,139.013162,22,22344,‐,1
1700,n01618,ツアー・オブ・ジャパン,小山町,35.360102,138.987307,22,22344,‐,1
1701,n01619,小山町産業祭,小山町,35.349391,138.958234,22,22344,‐,1
1702,n01620,サイクリングフェスティバル,小山町,35.360107,138.987298,22,22344,‐,1
1703,n01621,オックスファム・トレイルウォーカー,小山町,35.360107,138.987298,22,22344,‐,1
1704,n01622,富士高原Ｇコース,小山町,35.36930511,138.85745027,22,22344,‐,4
1705,n01623,富士小山ＧＣ,小山町,35.36388889,138.90583333,22,22344,‐,4
1706,n01624,東富士ＣＣ,小山町,35.37401927,138.92343683,22,22344,‐,4
1707,n01625,東名富士ＣＣ,小山町,35.341865,138.995415,22,22344,‐,4
1708,n01626,富士グリーンヒルＧコース,小山町,35.37850673,138.95538128,22,22344,‐,4
1709,n01627,富士ヘルスＣＣ,小山町,35.37909005,138.95496908,22,22344,‐,4
1710,n01628,足柄森林ＣＣ,小山町,35.31138889,138.97388889,22,22344,‐,4
1711,n01629,ギャツビイＧＣ,小山町,35.31570207,138.98611514,22,22344,‐,4
1712,n01630,篭坂ＧＣ,小山町,35.36930511,138.85745027,22,22344,‐,4
1713,n01631,富士国際ＧＣ,小山町,35.35444444,138.91972222,22,22344,‐,4
1714,n01632,小山町総合文化会館（コンサート等）,小山町,35.349391,138.958234,22,22344,‐,1
1715,n01633,道の駅すばしり,小山町,35.362702,138.858767,22,22344,‐,6
1716,n01634,吉田町港まつり・花火大会,吉田町,34.75280263,138.26873779,22,22424,‐,1
1717,n01635,小山城まつり,吉田町片岡2519-1,34.77888889,138.24583333,22,22424,‐,1
1718,n01636,吉田町展望台小山城,吉田町,34.77888889,138.24583333,22,22424,‐,2
1719,n01637,県営吉田公園,吉田町,34.76638889,138.28388889,22,22424,‐,4
1720,n01638,吉田町郷土資料館,吉田町,34.7782,138.246468,22,22424,‐,2
1721,n01639,凧揚げ大会,吉田町,34.763965,138.283148,22,22424,‐,1
1722,n01640,フォーレなかかわね茶茗舘,川根本町水川71-1,35.070447,138.107828,22,22429,‐,6
1723,n01641,くのわき親水公園キャンプ場,川根本町久野脇286,34.99611111,138.08694444,22,22429,‐,4
1724,n01642,体験ミュージアム音戲の郷,川根本町千頭1217-2,35.10842,138.136832,22,22429,‐,2
1725,n01643,寸又峡露天風呂,川根本町千頭336,35.17472222,138.11805556,22,22429,‐,3
1726,n01644,接岨峡温泉会館,川根本町梅地187-2,35.1825,138.18694444,22,22429,‐,3
1727,n01645,白沢温泉もりのいずみ,川根本町奥泉840-1,35.134926,138.150303,22,22429,‐,3
1728,n01646,長島ダムふれあい館,川根本町梅地3-34,35.165376,138.151306,22,22429,‐,2
1729,n01647,入渓谷（寸又峡ゲート）,川根本町千頭（寸又峡）地内,35.1775,138.11861111,22,22429,‐,1
1730,n01648,中川根特産品販売所四季の里,川根本町下長尾453-3,35.034465,138.08219,22,22429,‐,5
1731,n01649,奥大井ふるさと祭り,川根本町,35.108577,138.137003,22,22429,‐,1
1732,n01650,三ツ星オートキャンプ場,川根本町上長尾1143,35.047567,138.077135,22,22429,‐,4
1733,n01651,不動の滝自然広場  オートキャンプ場,川根本町下泉1122,35.024145,138.103077,22,22429,‐,4
1734,n01652,中川根ウッドハウスおろくぼ,川根本町水川866-5,35.068852,138.077107,22,22429,‐,1
1735,n01653,資料館やまびこ,川根本町犬間90-1,35.178831,138.186336,22,22429,‐,2
1736,n01654,池の谷キャンプ場,川根本町千頭528-5,35.140548,138.128036,22,22429,‐,4
1737,n01655,八木キャンプ場,川根本町奥泉761-2,35.133012,138.155671,22,22429,‐,4
1738,n01656,森のコテージ,川根本町奥泉815-2,35.133691,138.152035,22,22429,‐,1
1739,n01657,アプトいちしろキャンプ場,川根本町梅地3-19,35.167213,138.14902,22,22429,‐,4
1740,n01658,極楽寺,森町,34.82179531,137.87913343,22,22461,‐,2
1741,n01659,小國神社,森町,34.84733638,137.89943923,22,22461,‐,2
1742,n01660,大洞院,森町,34.855735,137.915561,22,22461,‐,2
1743,n01661,蓮華寺,森町,34.83960372,137.92526938,22,22461,‐,2
1744,n01662,アクティ森,森町,34.86600631,137.94867804,22,22461,‐,1
1745,n01663,森のまつり,森町,34.837278,137.931963,22,22461,‐,1
1746,n01664,納涼花火大会（太田川親水公園）,森町,34.82788308,137.92550497,22,22461,‐,1
1747,n01665,香勝寺,森町,34.827639,137.913115,22,22461,‐,2
1748,n01666,もりもり２万人まつり,森町,34.821183,137.91481,22,22461,‐,1
1749,n01667,向天方桜まつり,森町,34.840115,137.934806,22,22461,‐,1
1750,n01668,歴史民俗資料館,森町,34.839137,137.925535,22,22461,‐,2
1751,n01669,ザフォレストＣＣ,森町,34.84924605,137.90659539,22,22461,‐,4
1752,n01670,三木の里ＣＣ,森町,34.83576785,137.88687586,22,22461,‐,4
1753,n01671,森町商店街夏まつり,森町,34.835622,137.927128,22,22461,‐,1
1754,n01672,山名神社天王祭,森町,34.803989,137.91859,22,22461,‐,1
